<?xml version="1.0" encoding="UTF-8"?>
<kml xmlns="http://www.opengis.net/kml/2.2">
  <Document>
    <name>Làng Cự Đà</name>
    <description/>
    <Style id="icon-1535-FFEA00-nodesc-normal">
      <IconStyle>
        <color>ff00eaff</color>
        <scale>1</scale>
        <Icon>
          <href>https://www.gstatic.com/mapspro/images/stock/503-wht-blank_maps.png</href>
        </Icon>
      </IconStyle>
      <LabelStyle>
        <scale>0</scale>
      </LabelStyle>
      <BalloonStyle>
        <text><![CDATA[<h3>$[name]</h3>]]></text>
      </BalloonStyle>
    </Style>
    <Style id="icon-1535-FFEA00-nodesc-highlight">
      <IconStyle>
        <color>ff00eaff</color>
        <scale>1</scale>
        <Icon>
          <href>https://www.gstatic.com/mapspro/images/stock/503-wht-blank_maps.png</href>
        </Icon>
      </IconStyle>
      <LabelStyle>
        <scale>1</scale>
      </LabelStyle>
      <BalloonStyle>
        <text><![CDATA[<h3>$[name]</h3>]]></text>
      </BalloonStyle>
    </Style>
    <StyleMap id="icon-1535-FFEA00-nodesc">
      <Pair>
        <key>normal</key>
        <styleUrl>#icon-1535-FFEA00-nodesc-normal</styleUrl>
      </Pair>
      <Pair>
        <key>highlight</key>
        <styleUrl>#icon-1535-FFEA00-nodesc-highlight</styleUrl>
      </Pair>
    </StyleMap>
    <Style id="icon-1574-7CB342-nodesc-normal">
      <IconStyle>
        <color>ff42b37c</color>
        <scale>1</scale>
        <Icon>
          <href>https://www.gstatic.com/mapspro/images/stock/503-wht-blank_maps.png</href>
        </Icon>
      </IconStyle>
      <LabelStyle>
        <scale>0</scale>
      </LabelStyle>
      <BalloonStyle>
        <text><![CDATA[<h3>$[name]</h3>]]></text>
      </BalloonStyle>
    </Style>
    <Style id="icon-1574-7CB342-nodesc-highlight">
      <IconStyle>
        <color>ff42b37c</color>
        <scale>1</scale>
        <Icon>
          <href>https://www.gstatic.com/mapspro/images/stock/503-wht-blank_maps.png</href>
        </Icon>
      </IconStyle>
      <LabelStyle>
        <scale>1</scale>
      </LabelStyle>
      <BalloonStyle>
        <text><![CDATA[<h3>$[name]</h3>]]></text>
      </BalloonStyle>
    </Style>
    <StyleMap id="icon-1574-7CB342-nodesc">
      <Pair>
        <key>normal</key>
        <styleUrl>#icon-1574-7CB342-nodesc-normal</styleUrl>
      </Pair>
      <Pair>
        <key>highlight</key>
        <styleUrl>#icon-1574-7CB342-nodesc-highlight</styleUrl>
      </Pair>
    </StyleMap>
    <Style id="icon-1603-FBC02D-nodesc-normal">
      <IconStyle>
        <color>ff2dc0fb</color>
        <scale>1</scale>
        <Icon>
          <href>https://www.gstatic.com/mapspro/images/stock/503-wht-blank_maps.png</href>
        </Icon>
      </IconStyle>
      <LabelStyle>
        <scale>0</scale>
      </LabelStyle>
      <BalloonStyle>
        <text><![CDATA[<h3>$[name]</h3>]]></text>
      </BalloonStyle>
    </Style>
    <Style id="icon-1603-FBC02D-nodesc-highlight">
      <IconStyle>
        <color>ff2dc0fb</color>
        <scale>1</scale>
        <Icon>
          <href>https://www.gstatic.com/mapspro/images/stock/503-wht-blank_maps.png</href>
        </Icon>
      </IconStyle>
      <LabelStyle>
        <scale>1</scale>
      </LabelStyle>
      <BalloonStyle>
        <text><![CDATA[<h3>$[name]</h3>]]></text>
      </BalloonStyle>
    </Style>
    <StyleMap id="icon-1603-FBC02D-nodesc">
      <Pair>
        <key>normal</key>
        <styleUrl>#icon-1603-FBC02D-nodesc-normal</styleUrl>
      </Pair>
      <Pair>
        <key>highlight</key>
        <styleUrl>#icon-1603-FBC02D-nodesc-highlight</styleUrl>
      </Pair>
    </StyleMap>
    <Style id="icon-1669-0288D1-nodesc-normal">
      <IconStyle>
        <color>ffd18802</color>
        <scale>1</scale>
        <Icon>
          <href>https://www.gstatic.com/mapspro/images/stock/503-wht-blank_maps.png</href>
        </Icon>
      </IconStyle>
      <LabelStyle>
        <scale>0</scale>
      </LabelStyle>
      <BalloonStyle>
        <text><![CDATA[<h3>$[name]</h3>]]></text>
      </BalloonStyle>
    </Style>
    <Style id="icon-1669-0288D1-nodesc-highlight">
      <IconStyle>
        <color>ffd18802</color>
        <scale>1</scale>
        <Icon>
          <href>https://www.gstatic.com/mapspro/images/stock/503-wht-blank_maps.png</href>
        </Icon>
      </IconStyle>
      <LabelStyle>
        <scale>1</scale>
      </LabelStyle>
      <BalloonStyle>
        <text><![CDATA[<h3>$[name]</h3>]]></text>
      </BalloonStyle>
    </Style>
    <StyleMap id="icon-1669-0288D1-nodesc">
      <Pair>
        <key>normal</key>
        <styleUrl>#icon-1669-0288D1-nodesc-normal</styleUrl>
      </Pair>
      <Pair>
        <key>highlight</key>
        <styleUrl>#icon-1669-0288D1-nodesc-highlight</styleUrl>
      </Pair>
    </StyleMap>
    <Style id="icon-1671-FF5252-nodesc-normal">
      <IconStyle>
        <color>ff5252ff</color>
        <scale>1</scale>
        <Icon>
          <href>https://www.gstatic.com/mapspro/images/stock/503-wht-blank_maps.png</href>
        </Icon>
      </IconStyle>
      <LabelStyle>
        <scale>0</scale>
      </LabelStyle>
      <BalloonStyle>
        <text><![CDATA[<h3>$[name]</h3>]]></text>
      </BalloonStyle>
    </Style>
    <Style id="icon-1671-FF5252-nodesc-highlight">
      <IconStyle>
        <color>ff5252ff</color>
        <scale>1</scale>
        <Icon>
          <href>https://www.gstatic.com/mapspro/images/stock/503-wht-blank_maps.png</href>
        </Icon>
      </IconStyle>
      <LabelStyle>
        <scale>1</scale>
      </LabelStyle>
      <BalloonStyle>
        <text><![CDATA[<h3>$[name]</h3>]]></text>
      </BalloonStyle>
    </Style>
    <StyleMap id="icon-1671-FF5252-nodesc">
      <Pair>
        <key>normal</key>
        <styleUrl>#icon-1671-FF5252-nodesc-normal</styleUrl>
      </Pair>
      <Pair>
        <key>highlight</key>
        <styleUrl>#icon-1671-FF5252-nodesc-highlight</styleUrl>
      </Pair>
    </StyleMap>
    <Style id="icon-1886-7CB342-nodesc-normal">
      <IconStyle>
        <color>ff42b37c</color>
        <scale>1</scale>
        <Icon>
          <href>https://www.gstatic.com/mapspro/images/stock/503-wht-blank_maps.png</href>
        </Icon>
      </IconStyle>
      <LabelStyle>
        <scale>0</scale>
      </LabelStyle>
      <BalloonStyle>
        <text><![CDATA[<h3>$[name]</h3>]]></text>
      </BalloonStyle>
    </Style>
    <Style id="icon-1886-7CB342-nodesc-highlight">
      <IconStyle>
        <color>ff42b37c</color>
        <scale>1</scale>
        <Icon>
          <href>https://www.gstatic.com/mapspro/images/stock/503-wht-blank_maps.png</href>
        </Icon>
      </IconStyle>
      <LabelStyle>
        <scale>1</scale>
      </LabelStyle>
      <BalloonStyle>
        <text><![CDATA[<h3>$[name]</h3>]]></text>
      </BalloonStyle>
    </Style>
    <StyleMap id="icon-1886-7CB342-nodesc">
      <Pair>
        <key>normal</key>
        <styleUrl>#icon-1886-7CB342-nodesc-normal</styleUrl>
      </Pair>
      <Pair>
        <key>highlight</key>
        <styleUrl>#icon-1886-7CB342-nodesc-highlight</styleUrl>
      </Pair>
    </StyleMap>
    <Style id="icon-1899-7CB342-nodesc-normal">
      <IconStyle>
        <color>ff42b37c</color>
        <scale>1</scale>
        <Icon>
          <href>https://www.gstatic.com/mapspro/images/stock/503-wht-blank_maps.png</href>
        </Icon>
        <hotSpot x="32" xunits="pixels" y="64" yunits="insetPixels"/>
      </IconStyle>
      <LabelStyle>
        <scale>0</scale>
      </LabelStyle>
      <BalloonStyle>
        <text><![CDATA[<h3>$[name]</h3>]]></text>
      </BalloonStyle>
    </Style>
    <Style id="icon-1899-7CB342-nodesc-highlight">
      <IconStyle>
        <color>ff42b37c</color>
        <scale>1</scale>
        <Icon>
          <href>https://www.gstatic.com/mapspro/images/stock/503-wht-blank_maps.png</href>
        </Icon>
        <hotSpot x="32" xunits="pixels" y="64" yunits="insetPixels"/>
      </IconStyle>
      <LabelStyle>
        <scale>1</scale>
      </LabelStyle>
      <BalloonStyle>
        <text><![CDATA[<h3>$[name]</h3>]]></text>
      </BalloonStyle>
    </Style>
    <StyleMap id="icon-1899-7CB342-nodesc">
      <Pair>
        <key>normal</key>
        <styleUrl>#icon-1899-7CB342-nodesc-normal</styleUrl>
      </Pair>
      <Pair>
        <key>highlight</key>
        <styleUrl>#icon-1899-7CB342-nodesc-highlight</styleUrl>
      </Pair>
    </StyleMap>
    <Style id="icon-1899-9C27B0-nodesc-normal">
      <IconStyle>
        <color>ffb0279c</color>
        <scale>1</scale>
        <Icon>
          <href>https://www.gstatic.com/mapspro/images/stock/503-wht-blank_maps.png</href>
        </Icon>
        <hotSpot x="32" xunits="pixels" y="64" yunits="insetPixels"/>
      </IconStyle>
      <LabelStyle>
        <scale>0</scale>
      </LabelStyle>
      <BalloonStyle>
        <text><![CDATA[<h3>$[name]</h3>]]></text>
      </BalloonStyle>
    </Style>
    <Style id="icon-1899-9C27B0-nodesc-highlight">
      <IconStyle>
        <color>ffb0279c</color>
        <scale>1</scale>
        <Icon>
          <href>https://www.gstatic.com/mapspro/images/stock/503-wht-blank_maps.png</href>
        </Icon>
        <hotSpot x="32" xunits="pixels" y="64" yunits="insetPixels"/>
      </IconStyle>
      <LabelStyle>
        <scale>1</scale>
      </LabelStyle>
      <BalloonStyle>
        <text><![CDATA[<h3>$[name]</h3>]]></text>
      </BalloonStyle>
    </Style>
    <StyleMap id="icon-1899-9C27B0-nodesc">
      <Pair>
        <key>normal</key>
        <styleUrl>#icon-1899-9C27B0-nodesc-normal</styleUrl>
      </Pair>
      <Pair>
        <key>highlight</key>
        <styleUrl>#icon-1899-9C27B0-nodesc-highlight</styleUrl>
      </Pair>
    </StyleMap>
    <Style id="icon-1899-C2185B-nodesc-normal">
      <IconStyle>
        <color>ff5b18c2</color>
        <scale>1</scale>
        <Icon>
          <href>https://www.gstatic.com/mapspro/images/stock/503-wht-blank_maps.png</href>
        </Icon>
        <hotSpot x="32" xunits="pixels" y="64" yunits="insetPixels"/>
      </IconStyle>
      <LabelStyle>
        <scale>0</scale>
      </LabelStyle>
      <BalloonStyle>
        <text><![CDATA[<h3>$[name]</h3>]]></text>
      </BalloonStyle>
    </Style>
    <Style id="icon-1899-C2185B-nodesc-highlight">
      <IconStyle>
        <color>ff5b18c2</color>
        <scale>1</scale>
        <Icon>
          <href>https://www.gstatic.com/mapspro/images/stock/503-wht-blank_maps.png</href>
        </Icon>
        <hotSpot x="32" xunits="pixels" y="64" yunits="insetPixels"/>
      </IconStyle>
      <LabelStyle>
        <scale>1</scale>
      </LabelStyle>
      <BalloonStyle>
        <text><![CDATA[<h3>$[name]</h3>]]></text>
      </BalloonStyle>
    </Style>
    <StyleMap id="icon-1899-C2185B-nodesc">
      <Pair>
        <key>normal</key>
        <styleUrl>#icon-1899-C2185B-nodesc-normal</styleUrl>
      </Pair>
      <Pair>
        <key>highlight</key>
        <styleUrl>#icon-1899-C2185B-nodesc-highlight</styleUrl>
      </Pair>
    </StyleMap>
    <Style id="icon-1899-F57C00-nodesc-normal">
      <IconStyle>
        <color>ff007cf5</color>
        <scale>1</scale>
        <Icon>
          <href>https://www.gstatic.com/mapspro/images/stock/503-wht-blank_maps.png</href>
        </Icon>
        <hotSpot x="32" xunits="pixels" y="64" yunits="insetPixels"/>
      </IconStyle>
      <LabelStyle>
        <scale>0</scale>
      </LabelStyle>
      <BalloonStyle>
        <text><![CDATA[<h3>$[name]</h3>]]></text>
      </BalloonStyle>
    </Style>
    <Style id="icon-1899-F57C00-nodesc-highlight">
      <IconStyle>
        <color>ff007cf5</color>
        <scale>1</scale>
        <Icon>
          <href>https://www.gstatic.com/mapspro/images/stock/503-wht-blank_maps.png</href>
        </Icon>
        <hotSpot x="32" xunits="pixels" y="64" yunits="insetPixels"/>
      </IconStyle>
      <LabelStyle>
        <scale>1</scale>
      </LabelStyle>
      <BalloonStyle>
        <text><![CDATA[<h3>$[name]</h3>]]></text>
      </BalloonStyle>
    </Style>
    <StyleMap id="icon-1899-F57C00-nodesc">
      <Pair>
        <key>normal</key>
        <styleUrl>#icon-1899-F57C00-nodesc-normal</styleUrl>
      </Pair>
      <Pair>
        <key>highlight</key>
        <styleUrl>#icon-1899-F57C00-nodesc-highlight</styleUrl>
      </Pair>
    </StyleMap>
    <Style id="icon-1899-FF5252-nodesc-normal">
      <IconStyle>
        <color>ff5252ff</color>
        <scale>1</scale>
        <Icon>
          <href>https://www.gstatic.com/mapspro/images/stock/503-wht-blank_maps.png</href>
        </Icon>
        <hotSpot x="32" xunits="pixels" y="64" yunits="insetPixels"/>
      </IconStyle>
      <LabelStyle>
        <scale>0</scale>
      </LabelStyle>
      <BalloonStyle>
        <text><![CDATA[<h3>$[name]</h3>]]></text>
      </BalloonStyle>
    </Style>
    <Style id="icon-1899-FF5252-nodesc-highlight">
      <IconStyle>
        <color>ff5252ff</color>
        <scale>1</scale>
        <Icon>
          <href>https://www.gstatic.com/mapspro/images/stock/503-wht-blank_maps.png</href>
        </Icon>
        <hotSpot x="32" xunits="pixels" y="64" yunits="insetPixels"/>
      </IconStyle>
      <LabelStyle>
        <scale>1</scale>
      </LabelStyle>
      <BalloonStyle>
        <text><![CDATA[<h3>$[name]</h3>]]></text>
      </BalloonStyle>
    </Style>
    <StyleMap id="icon-1899-FF5252-nodesc">
      <Pair>
        <key>normal</key>
        <styleUrl>#icon-1899-FF5252-nodesc-normal</styleUrl>
      </Pair>
      <Pair>
        <key>highlight</key>
        <styleUrl>#icon-1899-FF5252-nodesc-highlight</styleUrl>
      </Pair>
    </StyleMap>
    <Style id="line-000000-2744-nodesc-normal">
      <LineStyle>
        <color>ff000000</color>
        <width>2.744</width>
      </LineStyle>
      <BalloonStyle>
        <text><![CDATA[<h3>$[name]</h3>]]></text>
      </BalloonStyle>
    </Style>
    <Style id="line-000000-2744-nodesc-highlight">
      <LineStyle>
        <color>ff000000</color>
        <width>4.116</width>
      </LineStyle>
      <BalloonStyle>
        <text><![CDATA[<h3>$[name]</h3>]]></text>
      </BalloonStyle>
    </Style>
    <StyleMap id="line-000000-2744-nodesc">
      <Pair>
        <key>normal</key>
        <styleUrl>#line-000000-2744-nodesc-normal</styleUrl>
      </Pair>
      <Pair>
        <key>highlight</key>
        <styleUrl>#line-000000-2744-nodesc-highlight</styleUrl>
      </Pair>
    </StyleMap>
    <Style id="line-000000-2976-nodesc-normal">
      <LineStyle>
        <color>ff000000</color>
        <width>2.976</width>
      </LineStyle>
      <BalloonStyle>
        <text><![CDATA[<h3>$[name]</h3>]]></text>
      </BalloonStyle>
    </Style>
    <Style id="line-000000-2976-nodesc-highlight">
      <LineStyle>
        <color>ff000000</color>
        <width>4.464</width>
      </LineStyle>
      <BalloonStyle>
        <text><![CDATA[<h3>$[name]</h3>]]></text>
      </BalloonStyle>
    </Style>
    <StyleMap id="line-000000-2976-nodesc">
      <Pair>
        <key>normal</key>
        <styleUrl>#line-000000-2976-nodesc-normal</styleUrl>
      </Pair>
      <Pair>
        <key>highlight</key>
        <styleUrl>#line-000000-2976-nodesc-highlight</styleUrl>
      </Pair>
    </StyleMap>
    <Style id="line-000000-3170-nodesc-normal">
      <LineStyle>
        <color>ff000000</color>
        <width>3.17</width>
      </LineStyle>
      <BalloonStyle>
        <text><![CDATA[<h3>$[name]</h3>]]></text>
      </BalloonStyle>
    </Style>
    <Style id="line-000000-3170-nodesc-highlight">
      <LineStyle>
        <color>ff000000</color>
        <width>4.755</width>
      </LineStyle>
      <BalloonStyle>
        <text><![CDATA[<h3>$[name]</h3>]]></text>
      </BalloonStyle>
    </Style>
    <StyleMap id="line-000000-3170-nodesc">
      <Pair>
        <key>normal</key>
        <styleUrl>#line-000000-3170-nodesc-normal</styleUrl>
      </Pair>
      <Pair>
        <key>highlight</key>
        <styleUrl>#line-000000-3170-nodesc-highlight</styleUrl>
      </Pair>
    </StyleMap>
    <Style id="line-000000-3558-nodesc-normal">
      <LineStyle>
        <color>ff000000</color>
        <width>3.558</width>
      </LineStyle>
      <BalloonStyle>
        <text><![CDATA[<h3>$[name]</h3>]]></text>
      </BalloonStyle>
    </Style>
    <Style id="line-000000-3558-nodesc-highlight">
      <LineStyle>
        <color>ff000000</color>
        <width>5.337</width>
      </LineStyle>
      <BalloonStyle>
        <text><![CDATA[<h3>$[name]</h3>]]></text>
      </BalloonStyle>
    </Style>
    <StyleMap id="line-000000-3558-nodesc">
      <Pair>
        <key>normal</key>
        <styleUrl>#line-000000-3558-nodesc-normal</styleUrl>
      </Pair>
      <Pair>
        <key>highlight</key>
        <styleUrl>#line-000000-3558-nodesc-highlight</styleUrl>
      </Pair>
    </StyleMap>
    <Style id="line-000000-3751-nodesc-normal">
      <LineStyle>
        <color>ff000000</color>
        <width>3.751</width>
      </LineStyle>
      <BalloonStyle>
        <text><![CDATA[<h3>$[name]</h3>]]></text>
      </BalloonStyle>
    </Style>
    <Style id="line-000000-3751-nodesc-highlight">
      <LineStyle>
        <color>ff000000</color>
        <width>5.6265</width>
      </LineStyle>
      <BalloonStyle>
        <text><![CDATA[<h3>$[name]</h3>]]></text>
      </BalloonStyle>
    </Style>
    <StyleMap id="line-000000-3751-nodesc">
      <Pair>
        <key>normal</key>
        <styleUrl>#line-000000-3751-nodesc-normal</styleUrl>
      </Pair>
      <Pair>
        <key>highlight</key>
        <styleUrl>#line-000000-3751-nodesc-highlight</styleUrl>
      </Pair>
    </StyleMap>
    <Style id="line-000000-3945-nodesc-normal">
      <LineStyle>
        <color>ff000000</color>
        <width>3.945</width>
      </LineStyle>
      <BalloonStyle>
        <text><![CDATA[<h3>$[name]</h3>]]></text>
      </BalloonStyle>
    </Style>
    <Style id="line-000000-3945-nodesc-highlight">
      <LineStyle>
        <color>ff000000</color>
        <width>5.9175</width>
      </LineStyle>
      <BalloonStyle>
        <text><![CDATA[<h3>$[name]</h3>]]></text>
      </BalloonStyle>
    </Style>
    <StyleMap id="line-000000-3945-nodesc">
      <Pair>
        <key>normal</key>
        <styleUrl>#line-000000-3945-nodesc-normal</styleUrl>
      </Pair>
      <Pair>
        <key>highlight</key>
        <styleUrl>#line-000000-3945-nodesc-highlight</styleUrl>
      </Pair>
    </StyleMap>
    <Style id="line-000000-4139-nodesc-normal">
      <LineStyle>
        <color>ff000000</color>
        <width>4.139</width>
      </LineStyle>
      <BalloonStyle>
        <text><![CDATA[<h3>$[name]</h3>]]></text>
      </BalloonStyle>
    </Style>
    <Style id="line-000000-4139-nodesc-highlight">
      <LineStyle>
        <color>ff000000</color>
        <width>6.2085</width>
      </LineStyle>
      <BalloonStyle>
        <text><![CDATA[<h3>$[name]</h3>]]></text>
      </BalloonStyle>
    </Style>
    <StyleMap id="line-000000-4139-nodesc">
      <Pair>
        <key>normal</key>
        <styleUrl>#line-000000-4139-nodesc-normal</styleUrl>
      </Pair>
      <Pair>
        <key>highlight</key>
        <styleUrl>#line-000000-4139-nodesc-highlight</styleUrl>
      </Pair>
    </StyleMap>
    <Style id="line-000000-4333-nodesc-normal">
      <LineStyle>
        <color>ff000000</color>
        <width>4.333</width>
      </LineStyle>
      <BalloonStyle>
        <text><![CDATA[<h3>$[name]</h3>]]></text>
      </BalloonStyle>
    </Style>
    <Style id="line-000000-4333-nodesc-highlight">
      <LineStyle>
        <color>ff000000</color>
        <width>6.4995</width>
      </LineStyle>
      <BalloonStyle>
        <text><![CDATA[<h3>$[name]</h3>]]></text>
      </BalloonStyle>
    </Style>
    <StyleMap id="line-000000-4333-nodesc">
      <Pair>
        <key>normal</key>
        <styleUrl>#line-000000-4333-nodesc-normal</styleUrl>
      </Pair>
      <Pair>
        <key>highlight</key>
        <styleUrl>#line-000000-4333-nodesc-highlight</styleUrl>
      </Pair>
    </StyleMap>
    <Style id="line-000000-4526-nodesc-normal">
      <LineStyle>
        <color>ff000000</color>
        <width>4.526</width>
      </LineStyle>
      <BalloonStyle>
        <text><![CDATA[<h3>$[name]</h3>]]></text>
      </BalloonStyle>
    </Style>
    <Style id="line-000000-4526-nodesc-highlight">
      <LineStyle>
        <color>ff000000</color>
        <width>6.789</width>
      </LineStyle>
      <BalloonStyle>
        <text><![CDATA[<h3>$[name]</h3>]]></text>
      </BalloonStyle>
    </Style>
    <StyleMap id="line-000000-4526-nodesc">
      <Pair>
        <key>normal</key>
        <styleUrl>#line-000000-4526-nodesc-normal</styleUrl>
      </Pair>
      <Pair>
        <key>highlight</key>
        <styleUrl>#line-000000-4526-nodesc-highlight</styleUrl>
      </Pair>
    </StyleMap>
    <Style id="line-000000-4720-normal">
      <LineStyle>
        <color>ff000000</color>
        <width>4.72</width>
      </LineStyle>
    </Style>
    <Style id="line-000000-4720-highlight">
      <LineStyle>
        <color>ff000000</color>
        <width>7.08</width>
      </LineStyle>
    </Style>
    <StyleMap id="line-000000-4720">
      <Pair>
        <key>normal</key>
        <styleUrl>#line-000000-4720-normal</styleUrl>
      </Pair>
      <Pair>
        <key>highlight</key>
        <styleUrl>#line-000000-4720-highlight</styleUrl>
      </Pair>
    </StyleMap>
    <Style id="line-000000-4875-nodesc-normal">
      <LineStyle>
        <color>ff000000</color>
        <width>4.875</width>
      </LineStyle>
      <BalloonStyle>
        <text><![CDATA[<h3>$[name]</h3>]]></text>
      </BalloonStyle>
    </Style>
    <Style id="line-000000-4875-nodesc-highlight">
      <LineStyle>
        <color>ff000000</color>
        <width>7.3125</width>
      </LineStyle>
      <BalloonStyle>
        <text><![CDATA[<h3>$[name]</h3>]]></text>
      </BalloonStyle>
    </Style>
    <StyleMap id="line-000000-4875-nodesc">
      <Pair>
        <key>normal</key>
        <styleUrl>#line-000000-4875-nodesc-normal</styleUrl>
      </Pair>
      <Pair>
        <key>highlight</key>
        <styleUrl>#line-000000-4875-nodesc-highlight</styleUrl>
      </Pair>
    </StyleMap>
    <Style id="line-000000-4914-nodesc-normal">
      <LineStyle>
        <color>ff000000</color>
        <width>4.914</width>
      </LineStyle>
      <BalloonStyle>
        <text><![CDATA[<h3>$[name]</h3>]]></text>
      </BalloonStyle>
    </Style>
    <Style id="line-000000-4914-nodesc-highlight">
      <LineStyle>
        <color>ff000000</color>
        <width>7.371</width>
      </LineStyle>
      <BalloonStyle>
        <text><![CDATA[<h3>$[name]</h3>]]></text>
      </BalloonStyle>
    </Style>
    <StyleMap id="line-000000-4914-nodesc">
      <Pair>
        <key>normal</key>
        <styleUrl>#line-000000-4914-nodesc-normal</styleUrl>
      </Pair>
      <Pair>
        <key>highlight</key>
        <styleUrl>#line-000000-4914-nodesc-highlight</styleUrl>
      </Pair>
    </StyleMap>
    <Style id="line-000000-5108-nodesc-normal">
      <LineStyle>
        <color>ff000000</color>
        <width>5.108</width>
      </LineStyle>
      <BalloonStyle>
        <text><![CDATA[<h3>$[name]</h3>]]></text>
      </BalloonStyle>
    </Style>
    <Style id="line-000000-5108-nodesc-highlight">
      <LineStyle>
        <color>ff000000</color>
        <width>7.662</width>
      </LineStyle>
      <BalloonStyle>
        <text><![CDATA[<h3>$[name]</h3>]]></text>
      </BalloonStyle>
    </Style>
    <StyleMap id="line-000000-5108-nodesc">
      <Pair>
        <key>normal</key>
        <styleUrl>#line-000000-5108-nodesc-normal</styleUrl>
      </Pair>
      <Pair>
        <key>highlight</key>
        <styleUrl>#line-000000-5108-nodesc-highlight</styleUrl>
      </Pair>
    </StyleMap>
    <Style id="line-000000-5495-nodesc-normal">
      <LineStyle>
        <color>ff000000</color>
        <width>5.495</width>
      </LineStyle>
      <BalloonStyle>
        <text><![CDATA[<h3>$[name]</h3>]]></text>
      </BalloonStyle>
    </Style>
    <Style id="line-000000-5495-nodesc-highlight">
      <LineStyle>
        <color>ff000000</color>
        <width>8.2425</width>
      </LineStyle>
      <BalloonStyle>
        <text><![CDATA[<h3>$[name]</h3>]]></text>
      </BalloonStyle>
    </Style>
    <StyleMap id="line-000000-5495-nodesc">
      <Pair>
        <key>normal</key>
        <styleUrl>#line-000000-5495-nodesc-normal</styleUrl>
      </Pair>
      <Pair>
        <key>highlight</key>
        <styleUrl>#line-000000-5495-nodesc-highlight</styleUrl>
      </Pair>
    </StyleMap>
    <Style id="line-000000-5689-nodesc-normal">
      <LineStyle>
        <color>ff000000</color>
        <width>5.689</width>
      </LineStyle>
      <BalloonStyle>
        <text><![CDATA[<h3>$[name]</h3>]]></text>
      </BalloonStyle>
    </Style>
    <Style id="line-000000-5689-nodesc-highlight">
      <LineStyle>
        <color>ff000000</color>
        <width>8.5335</width>
      </LineStyle>
      <BalloonStyle>
        <text><![CDATA[<h3>$[name]</h3>]]></text>
      </BalloonStyle>
    </Style>
    <StyleMap id="line-000000-5689-nodesc">
      <Pair>
        <key>normal</key>
        <styleUrl>#line-000000-5689-nodesc-normal</styleUrl>
      </Pair>
      <Pair>
        <key>highlight</key>
        <styleUrl>#line-000000-5689-nodesc-highlight</styleUrl>
      </Pair>
    </StyleMap>
    <Style id="line-000000-5883-nodesc-normal">
      <LineStyle>
        <color>ff000000</color>
        <width>5.883</width>
      </LineStyle>
      <BalloonStyle>
        <text><![CDATA[<h3>$[name]</h3>]]></text>
      </BalloonStyle>
    </Style>
    <Style id="line-000000-5883-nodesc-highlight">
      <LineStyle>
        <color>ff000000</color>
        <width>8.8245</width>
      </LineStyle>
      <BalloonStyle>
        <text><![CDATA[<h3>$[name]</h3>]]></text>
      </BalloonStyle>
    </Style>
    <StyleMap id="line-000000-5883-nodesc">
      <Pair>
        <key>normal</key>
        <styleUrl>#line-000000-5883-nodesc-normal</styleUrl>
      </Pair>
      <Pair>
        <key>highlight</key>
        <styleUrl>#line-000000-5883-nodesc-highlight</styleUrl>
      </Pair>
    </StyleMap>
    <Style id="line-000000-6270-nodesc-normal">
      <LineStyle>
        <color>ff000000</color>
        <width>6.27</width>
      </LineStyle>
      <BalloonStyle>
        <text><![CDATA[<h3>$[name]</h3>]]></text>
      </BalloonStyle>
    </Style>
    <Style id="line-000000-6270-nodesc-highlight">
      <LineStyle>
        <color>ff000000</color>
        <width>9.405</width>
      </LineStyle>
      <BalloonStyle>
        <text><![CDATA[<h3>$[name]</h3>]]></text>
      </BalloonStyle>
    </Style>
    <StyleMap id="line-000000-6270-nodesc">
      <Pair>
        <key>normal</key>
        <styleUrl>#line-000000-6270-nodesc-normal</styleUrl>
      </Pair>
      <Pair>
        <key>highlight</key>
        <styleUrl>#line-000000-6270-nodesc-highlight</styleUrl>
      </Pair>
    </StyleMap>
    <Style id="line-000000-8401-nodesc-normal">
      <LineStyle>
        <color>ff000000</color>
        <width>8.401</width>
      </LineStyle>
      <BalloonStyle>
        <text><![CDATA[<h3>$[name]</h3>]]></text>
      </BalloonStyle>
    </Style>
    <Style id="line-000000-8401-nodesc-highlight">
      <LineStyle>
        <color>ff000000</color>
        <width>12.6015</width>
      </LineStyle>
      <BalloonStyle>
        <text><![CDATA[<h3>$[name]</h3>]]></text>
      </BalloonStyle>
    </Style>
    <StyleMap id="line-000000-8401-nodesc">
      <Pair>
        <key>normal</key>
        <styleUrl>#line-000000-8401-nodesc-normal</styleUrl>
      </Pair>
      <Pair>
        <key>highlight</key>
        <styleUrl>#line-000000-8401-nodesc-highlight</styleUrl>
      </Pair>
    </StyleMap>
    <Style id="poly-9C27B0-2201-0-nodesc-normal">
      <LineStyle>
        <color>ffb0279c</color>
        <width>2.201</width>
      </LineStyle>
      <PolyStyle>
        <color>00b0279c</color>
        <fill>1</fill>
        <outline>1</outline>
      </PolyStyle>
      <BalloonStyle>
        <text><![CDATA[<h3>$[name]</h3>]]></text>
      </BalloonStyle>
    </Style>
    <Style id="poly-9C27B0-2201-0-nodesc-highlight">
      <LineStyle>
        <color>ffb0279c</color>
        <width>3.3015</width>
      </LineStyle>
      <PolyStyle>
        <color>00b0279c</color>
        <fill>1</fill>
        <outline>1</outline>
      </PolyStyle>
      <BalloonStyle>
        <text><![CDATA[<h3>$[name]</h3>]]></text>
      </BalloonStyle>
    </Style>
    <StyleMap id="poly-9C27B0-2201-0-nodesc">
      <Pair>
        <key>normal</key>
        <styleUrl>#poly-9C27B0-2201-0-nodesc-normal</styleUrl>
      </Pair>
      <Pair>
        <key>highlight</key>
        <styleUrl>#poly-9C27B0-2201-0-nodesc-highlight</styleUrl>
      </Pair>
    </StyleMap>
    <Style id="poly-9C27B0-2301-0-nodesc-normal">
      <LineStyle>
        <color>ffb0279c</color>
        <width>2.301</width>
      </LineStyle>
      <PolyStyle>
        <color>00b0279c</color>
        <fill>1</fill>
        <outline>1</outline>
      </PolyStyle>
      <BalloonStyle>
        <text><![CDATA[<h3>$[name]</h3>]]></text>
      </BalloonStyle>
    </Style>
    <Style id="poly-9C27B0-2301-0-nodesc-highlight">
      <LineStyle>
        <color>ffb0279c</color>
        <width>3.4515</width>
      </LineStyle>
      <PolyStyle>
        <color>00b0279c</color>
        <fill>1</fill>
        <outline>1</outline>
      </PolyStyle>
      <BalloonStyle>
        <text><![CDATA[<h3>$[name]</h3>]]></text>
      </BalloonStyle>
    </Style>
    <StyleMap id="poly-9C27B0-2301-0-nodesc">
      <Pair>
        <key>normal</key>
        <styleUrl>#poly-9C27B0-2301-0-nodesc-normal</styleUrl>
      </Pair>
      <Pair>
        <key>highlight</key>
        <styleUrl>#poly-9C27B0-2301-0-nodesc-highlight</styleUrl>
      </Pair>
    </StyleMap>
    <Style id="poly-F48FB1-2801-0-nodesc-normal">
      <LineStyle>
        <color>ffb18ff4</color>
        <width>2.801</width>
      </LineStyle>
      <PolyStyle>
        <color>00b18ff4</color>
        <fill>1</fill>
        <outline>1</outline>
      </PolyStyle>
      <BalloonStyle>
        <text><![CDATA[<h3>$[name]</h3>]]></text>
      </BalloonStyle>
    </Style>
    <Style id="poly-F48FB1-2801-0-nodesc-highlight">
      <LineStyle>
        <color>ffb18ff4</color>
        <width>4.2015</width>
      </LineStyle>
      <PolyStyle>
        <color>00b18ff4</color>
        <fill>1</fill>
        <outline>1</outline>
      </PolyStyle>
      <BalloonStyle>
        <text><![CDATA[<h3>$[name]</h3>]]></text>
      </BalloonStyle>
    </Style>
    <StyleMap id="poly-F48FB1-2801-0-nodesc">
      <Pair>
        <key>normal</key>
        <styleUrl>#poly-F48FB1-2801-0-nodesc-normal</styleUrl>
      </Pair>
      <Pair>
        <key>highlight</key>
        <styleUrl>#poly-F48FB1-2801-0-nodesc-highlight</styleUrl>
      </Pair>
    </StyleMap>
    <Style id="poly-FBC02D-2521-0-nodesc-normal">
      <LineStyle>
        <color>ff2dc0fb</color>
        <width>2.521</width>
      </LineStyle>
      <PolyStyle>
        <color>002dc0fb</color>
        <fill>1</fill>
        <outline>1</outline>
      </PolyStyle>
      <BalloonStyle>
        <text><![CDATA[<h3>$[name]</h3>]]></text>
      </BalloonStyle>
    </Style>
    <Style id="poly-FBC02D-2521-0-nodesc-highlight">
      <LineStyle>
        <color>ff2dc0fb</color>
        <width>3.7815</width>
      </LineStyle>
      <PolyStyle>
        <color>002dc0fb</color>
        <fill>1</fill>
        <outline>1</outline>
      </PolyStyle>
      <BalloonStyle>
        <text><![CDATA[<h3>$[name]</h3>]]></text>
      </BalloonStyle>
    </Style>
    <StyleMap id="poly-FBC02D-2521-0-nodesc">
      <Pair>
        <key>normal</key>
        <styleUrl>#poly-FBC02D-2521-0-nodesc-normal</styleUrl>
      </Pair>
      <Pair>
        <key>highlight</key>
        <styleUrl>#poly-FBC02D-2521-0-nodesc-highlight</styleUrl>
      </Pair>
    </StyleMap>
    <Style id="poly-FBC02D-2721-0-nodesc-normal">
      <LineStyle>
        <color>ff2dc0fb</color>
        <width>2.721</width>
      </LineStyle>
      <PolyStyle>
        <color>002dc0fb</color>
        <fill>1</fill>
        <outline>1</outline>
      </PolyStyle>
      <BalloonStyle>
        <text><![CDATA[<h3>$[name]</h3>]]></text>
      </BalloonStyle>
    </Style>
    <Style id="poly-FBC02D-2721-0-nodesc-highlight">
      <LineStyle>
        <color>ff2dc0fb</color>
        <width>4.0815</width>
      </LineStyle>
      <PolyStyle>
        <color>002dc0fb</color>
        <fill>1</fill>
        <outline>1</outline>
      </PolyStyle>
      <BalloonStyle>
        <text><![CDATA[<h3>$[name]</h3>]]></text>
      </BalloonStyle>
    </Style>
    <StyleMap id="poly-FBC02D-2721-0-nodesc">
      <Pair>
        <key>normal</key>
        <styleUrl>#poly-FBC02D-2721-0-nodesc-normal</styleUrl>
      </Pair>
      <Pair>
        <key>highlight</key>
        <styleUrl>#poly-FBC02D-2721-0-nodesc-highlight</styleUrl>
      </Pair>
    </StyleMap>
    <Style id="poly-FBC02D-3321-0-nodesc-normal">
      <LineStyle>
        <color>ff2dc0fb</color>
        <width>3.321</width>
      </LineStyle>
      <PolyStyle>
        <color>002dc0fb</color>
        <fill>1</fill>
        <outline>1</outline>
      </PolyStyle>
      <BalloonStyle>
        <text><![CDATA[<h3>$[name]</h3>]]></text>
      </BalloonStyle>
    </Style>
    <Style id="poly-FBC02D-3321-0-nodesc-highlight">
      <LineStyle>
        <color>ff2dc0fb</color>
        <width>4.9815</width>
      </LineStyle>
      <PolyStyle>
        <color>002dc0fb</color>
        <fill>1</fill>
        <outline>1</outline>
      </PolyStyle>
      <BalloonStyle>
        <text><![CDATA[<h3>$[name]</h3>]]></text>
      </BalloonStyle>
    </Style>
    <StyleMap id="poly-FBC02D-3321-0-nodesc">
      <Pair>
        <key>normal</key>
        <styleUrl>#poly-FBC02D-3321-0-nodesc-normal</styleUrl>
      </Pair>
      <Pair>
        <key>highlight</key>
        <styleUrl>#poly-FBC02D-3321-0-nodesc-highlight</styleUrl>
      </Pair>
    </StyleMap>
    <Style id="poly-FBC02D-4621-0-nodesc-normal">
      <LineStyle>
        <color>ff2dc0fb</color>
        <width>4.621</width>
      </LineStyle>
      <PolyStyle>
        <color>002dc0fb</color>
        <fill>1</fill>
        <outline>1</outline>
      </PolyStyle>
      <BalloonStyle>
        <text><![CDATA[<h3>$[name]</h3>]]></text>
      </BalloonStyle>
    </Style>
    <Style id="poly-FBC02D-4621-0-nodesc-highlight">
      <LineStyle>
        <color>ff2dc0fb</color>
        <width>6.9315</width>
      </LineStyle>
      <PolyStyle>
        <color>002dc0fb</color>
        <fill>1</fill>
        <outline>1</outline>
      </PolyStyle>
      <BalloonStyle>
        <text><![CDATA[<h3>$[name]</h3>]]></text>
      </BalloonStyle>
    </Style>
    <StyleMap id="poly-FBC02D-4621-0-nodesc">
      <Pair>
        <key>normal</key>
        <styleUrl>#poly-FBC02D-4621-0-nodesc-normal</styleUrl>
      </Pair>
      <Pair>
        <key>highlight</key>
        <styleUrl>#poly-FBC02D-4621-0-nodesc-highlight</styleUrl>
      </Pair>
    </StyleMap>
    <Style id="poly-FF5252-1200-64-nodesc-normal">
      <LineStyle>
        <color>ff5252ff</color>
        <width>1.2</width>
      </LineStyle>
      <PolyStyle>
        <color>405252ff</color>
        <fill>1</fill>
        <outline>1</outline>
      </PolyStyle>
      <BalloonStyle>
        <text><![CDATA[<h3>$[name]</h3>]]></text>
      </BalloonStyle>
    </Style>
    <Style id="poly-FF5252-1200-64-nodesc-highlight">
      <LineStyle>
        <color>ff5252ff</color>
        <width>1.8</width>
      </LineStyle>
      <PolyStyle>
        <color>405252ff</color>
        <fill>1</fill>
        <outline>1</outline>
      </PolyStyle>
      <BalloonStyle>
        <text><![CDATA[<h3>$[name]</h3>]]></text>
      </BalloonStyle>
    </Style>
    <StyleMap id="poly-FF5252-1200-64-nodesc">
      <Pair>
        <key>normal</key>
        <styleUrl>#poly-FF5252-1200-64-nodesc-normal</styleUrl>
      </Pair>
      <Pair>
        <key>highlight</key>
        <styleUrl>#poly-FF5252-1200-64-nodesc-highlight</styleUrl>
      </Pair>
    </StyleMap>
    <Style id="poly-FF5252-2401-74-nodesc-normal">
      <LineStyle>
        <color>ff5252ff</color>
        <width>2.401</width>
      </LineStyle>
      <PolyStyle>
        <color>4a5252ff</color>
        <fill>1</fill>
        <outline>1</outline>
      </PolyStyle>
      <BalloonStyle>
        <text><![CDATA[<h3>$[name]</h3>]]></text>
      </BalloonStyle>
    </Style>
    <Style id="poly-FF5252-2401-74-nodesc-highlight">
      <LineStyle>
        <color>ff5252ff</color>
        <width>3.6015</width>
      </LineStyle>
      <PolyStyle>
        <color>4a5252ff</color>
        <fill>1</fill>
        <outline>1</outline>
      </PolyStyle>
      <BalloonStyle>
        <text><![CDATA[<h3>$[name]</h3>]]></text>
      </BalloonStyle>
    </Style>
    <StyleMap id="poly-FF5252-2401-74-nodesc">
      <Pair>
        <key>normal</key>
        <styleUrl>#poly-FF5252-2401-74-nodesc-normal</styleUrl>
      </Pair>
      <Pair>
        <key>highlight</key>
        <styleUrl>#poly-FF5252-2401-74-nodesc-highlight</styleUrl>
      </Pair>
    </StyleMap>
    <Style id="poly-FF5252-2401-77-nodesc-normal">
      <LineStyle>
        <color>ff5252ff</color>
        <width>2.401</width>
      </LineStyle>
      <PolyStyle>
        <color>4d5252ff</color>
        <fill>1</fill>
        <outline>1</outline>
      </PolyStyle>
      <BalloonStyle>
        <text><![CDATA[<h3>$[name]</h3>]]></text>
      </BalloonStyle>
    </Style>
    <Style id="poly-FF5252-2401-77-nodesc-highlight">
      <LineStyle>
        <color>ff5252ff</color>
        <width>3.6015</width>
      </LineStyle>
      <PolyStyle>
        <color>4d5252ff</color>
        <fill>1</fill>
        <outline>1</outline>
      </PolyStyle>
      <BalloonStyle>
        <text><![CDATA[<h3>$[name]</h3>]]></text>
      </BalloonStyle>
    </Style>
    <StyleMap id="poly-FF5252-2401-77-nodesc">
      <Pair>
        <key>normal</key>
        <styleUrl>#poly-FF5252-2401-77-nodesc-normal</styleUrl>
      </Pair>
      <Pair>
        <key>highlight</key>
        <styleUrl>#poly-FF5252-2401-77-nodesc-highlight</styleUrl>
      </Pair>
    </StyleMap>
    <Style id="poly-FF5252-2601-77-nodesc-normal">
      <LineStyle>
        <color>ff5252ff</color>
        <width>2.601</width>
      </LineStyle>
      <PolyStyle>
        <color>4d5252ff</color>
        <fill>1</fill>
        <outline>1</outline>
      </PolyStyle>
      <BalloonStyle>
        <text><![CDATA[<h3>$[name]</h3>]]></text>
      </BalloonStyle>
    </Style>
    <Style id="poly-FF5252-2601-77-nodesc-highlight">
      <LineStyle>
        <color>ff5252ff</color>
        <width>3.9015</width>
      </LineStyle>
      <PolyStyle>
        <color>4d5252ff</color>
        <fill>1</fill>
        <outline>1</outline>
      </PolyStyle>
      <BalloonStyle>
        <text><![CDATA[<h3>$[name]</h3>]]></text>
      </BalloonStyle>
    </Style>
    <StyleMap id="poly-FF5252-2601-77-nodesc">
      <Pair>
        <key>normal</key>
        <styleUrl>#poly-FF5252-2601-77-nodesc-normal</styleUrl>
      </Pair>
      <Pair>
        <key>highlight</key>
        <styleUrl>#poly-FF5252-2601-77-nodesc-highlight</styleUrl>
      </Pair>
    </StyleMap>
    <Style id="poly-FF5252-2701-77-nodesc-normal">
      <LineStyle>
        <color>ff5252ff</color>
        <width>2.701</width>
      </LineStyle>
      <PolyStyle>
        <color>4d5252ff</color>
        <fill>1</fill>
        <outline>1</outline>
      </PolyStyle>
      <BalloonStyle>
        <text><![CDATA[<h3>$[name]</h3>]]></text>
      </BalloonStyle>
    </Style>
    <Style id="poly-FF5252-2701-77-nodesc-highlight">
      <LineStyle>
        <color>ff5252ff</color>
        <width>4.0515</width>
      </LineStyle>
      <PolyStyle>
        <color>4d5252ff</color>
        <fill>1</fill>
        <outline>1</outline>
      </PolyStyle>
      <BalloonStyle>
        <text><![CDATA[<h3>$[name]</h3>]]></text>
      </BalloonStyle>
    </Style>
    <StyleMap id="poly-FF5252-2701-77-nodesc">
      <Pair>
        <key>normal</key>
        <styleUrl>#poly-FF5252-2701-77-nodesc-normal</styleUrl>
      </Pair>
      <Pair>
        <key>highlight</key>
        <styleUrl>#poly-FF5252-2701-77-nodesc-highlight</styleUrl>
      </Pair>
    </StyleMap>
    <Style id="poly-FF5252-3321-54-nodesc-normal">
      <LineStyle>
        <color>ff5252ff</color>
        <width>3.321</width>
      </LineStyle>
      <PolyStyle>
        <color>365252ff</color>
        <fill>1</fill>
        <outline>1</outline>
      </PolyStyle>
      <BalloonStyle>
        <text><![CDATA[<h3>$[name]</h3>]]></text>
      </BalloonStyle>
    </Style>
    <Style id="poly-FF5252-3321-54-nodesc-highlight">
      <LineStyle>
        <color>ff5252ff</color>
        <width>4.9815</width>
      </LineStyle>
      <PolyStyle>
        <color>365252ff</color>
        <fill>1</fill>
        <outline>1</outline>
      </PolyStyle>
      <BalloonStyle>
        <text><![CDATA[<h3>$[name]</h3>]]></text>
      </BalloonStyle>
    </Style>
    <StyleMap id="poly-FF5252-3321-54-nodesc">
      <Pair>
        <key>normal</key>
        <styleUrl>#poly-FF5252-3321-54-nodesc-normal</styleUrl>
      </Pair>
      <Pair>
        <key>highlight</key>
        <styleUrl>#poly-FF5252-3321-54-nodesc-highlight</styleUrl>
      </Pair>
    </StyleMap>
    <Style id="poly-FFEA00-1200-77-nodesc-normal">
      <LineStyle>
        <color>ff00eaff</color>
        <width>1.2</width>
      </LineStyle>
      <PolyStyle>
        <color>4d00eaff</color>
        <fill>1</fill>
        <outline>1</outline>
      </PolyStyle>
      <BalloonStyle>
        <text><![CDATA[<h3>$[name]</h3>]]></text>
      </BalloonStyle>
    </Style>
    <Style id="poly-FFEA00-1200-77-nodesc-highlight">
      <LineStyle>
        <color>ff00eaff</color>
        <width>1.8</width>
      </LineStyle>
      <PolyStyle>
        <color>4d00eaff</color>
        <fill>1</fill>
        <outline>1</outline>
      </PolyStyle>
      <BalloonStyle>
        <text><![CDATA[<h3>$[name]</h3>]]></text>
      </BalloonStyle>
    </Style>
    <StyleMap id="poly-FFEA00-1200-77-nodesc">
      <Pair>
        <key>normal</key>
        <styleUrl>#poly-FFEA00-1200-77-nodesc-normal</styleUrl>
      </Pair>
      <Pair>
        <key>highlight</key>
        <styleUrl>#poly-FFEA00-1200-77-nodesc-highlight</styleUrl>
      </Pair>
    </StyleMap>
    <Style id="poly-FFEA00-1601-41-nodesc-normal">
      <LineStyle>
        <color>ff00eaff</color>
        <width>1.601</width>
      </LineStyle>
      <PolyStyle>
        <color>2900eaff</color>
        <fill>1</fill>
        <outline>1</outline>
      </PolyStyle>
      <BalloonStyle>
        <text><![CDATA[<h3>$[name]</h3>]]></text>
      </BalloonStyle>
    </Style>
    <Style id="poly-FFEA00-1601-41-nodesc-highlight">
      <LineStyle>
        <color>ff00eaff</color>
        <width>2.4015</width>
      </LineStyle>
      <PolyStyle>
        <color>2900eaff</color>
        <fill>1</fill>
        <outline>1</outline>
      </PolyStyle>
      <BalloonStyle>
        <text><![CDATA[<h3>$[name]</h3>]]></text>
      </BalloonStyle>
    </Style>
    <StyleMap id="poly-FFEA00-1601-41-nodesc">
      <Pair>
        <key>normal</key>
        <styleUrl>#poly-FFEA00-1601-41-nodesc-normal</styleUrl>
      </Pair>
      <Pair>
        <key>highlight</key>
        <styleUrl>#poly-FFEA00-1601-41-nodesc-highlight</styleUrl>
      </Pair>
    </StyleMap>
    <Folder>
      <name>đường</name>
      <Placemark>
        <name>Đường chính</name>
        <styleUrl>#line-000000-8401-nodesc</styleUrl>
        <LineString>
          <tessellate>1</tessellate>
          <coordinates>
            105.7969907,20.9310667,0
            105.7971717,20.9310542,0
            105.7973742,20.9310931,0
            105.7974962,20.9311494,0
            105.7976049,20.9312484,0
            105.7977511,20.9314175,0
            105.7978816,20.9315826,0
            105.7979031,20.931659,0
            105.7979366,20.9318005,0
            105.7979916,20.9319634,0
            105.7981326,20.9324239,0
            105.7981996,20.9327158,0
            105.7982434,20.9329341,0
            105.7983105,20.9330393,0
            105.7983635,20.9331235,0
            105.7983983,20.9331798,0
            105.7984412,20.933265,0
            105.7984842,20.933384,0
            105.7985744,20.9336836,0
            105.7986292,20.9340267,0
            105.7986561,20.9342396,0
            105.7987784,20.9344649,0
            105.7989423,20.9346197,0
            105.7991851,20.9347399,0
            105.7993286,20.93478,0
            105.7995056,20.9347825,0
            105.7996021,20.9347249,0
            105.7997227,20.934685,0
            105.7999279,20.93471,0
            105.8000714,20.9347814,0
            105.8002552,20.9347627,0
            105.8004671,20.9346812,0
            105.8006763,20.9346086,0
            105.8008343,20.9345778,0
            105.800951,20.9345528,0
            105.8011293,20.9345766,0
            105.8013211,20.934564,0
            105.8015075,20.9345678,0
            105.80172,20.9345718,0
            105.8019507,20.9345542,0
            105.8020861,20.9345292,0
            105.8022014,20.9344428,0
            105.8023114,20.9343927,0
            105.8024496,20.9343726,0
            105.8025375,20.9344007,0
            105.8026099,20.9344307,0
          </coordinates>
        </LineString>
      </Placemark>
      <Placemark>
        <name>Đường nhánh</name>
        <styleUrl>#line-000000-3751-nodesc</styleUrl>
        <LineString>
          <tessellate>1</tessellate>
          <coordinates>
            105.7971415,20.9310494,0
            105.7970597,20.9311609,0
            105.796935,20.9313312,0
            105.7967969,20.931469,0
            105.7966715,20.9316057,0
            105.7965729,20.9318713,0
            105.7965019,20.9319966,0
            105.7963208,20.9323047,0
            105.7960462,20.9327525,0
            105.7957773,20.9332033,0
            105.7957719,20.9336868,0
            105.7957948,20.9348672,0
            105.7958231,20.9364239,0
            105.7958773,20.9391704,0
          </coordinates>
        </LineString>
      </Placemark>
      <Placemark>
        <name>Đường nhánh</name>
        <styleUrl>#line-000000-2744-nodesc</styleUrl>
        <LineString>
          <tessellate>1</tessellate>
          <coordinates>
            105.7949154,20.9355953,0
            105.7953218,20.9355377,0
            105.7956074,20.9355214,0
            105.7957711,20.9355339,0
            105.7959454,20.9355565,0
            105.7964054,20.9355214,0
            105.7968528,20.9355558,0
            105.7971438,20.9355858,0
            105.7972873,20.9356222,0
            105.7972953,20.9358777,0
            105.7973488,20.9370902,0
            105.7973769,20.9376653,0
            105.7973662,20.9379509,0
            105.7973687,20.938043,0
            105.7973942,20.9381895,0
            105.7973888,20.9382559,0
            105.7973499,20.938395,0
            105.7972803,20.9385838,0
            105.797236,20.9387053,0
            105.7972548,20.9388018,0
            105.7973017,20.9388394,0
            105.7973768,20.9388719,0
            105.7975136,20.9388581,0
            105.7976531,20.9388231,0
            105.797899,20.938735,0
            105.7980371,20.938626,0
            105.7982906,20.9384194,0
            105.7983475,20.9383491,0
            105.7984387,20.938329,0
            105.7985433,20.9382564,0
            105.7985266,20.9381787,0
            105.79843,20.9380347,0
            105.7983093,20.9378994,0
            105.7981202,20.9376664,0
            105.7980121,20.9374534,0
            105.7979183,20.9372451,0
            105.7978231,20.9370071,0
            105.7977707,20.9368674,0
            105.7977744,20.9366204,0
            105.7977743,20.9363137,0
            105.7977933,20.936022,0
            105.7977923,20.9358478,0
            105.7979505,20.9359505,0
            105.7981825,20.9360533,0
            105.7984118,20.9361589,0
            105.7985566,20.9362416,0
            105.7986853,20.9362792,0
            105.7987524,20.9363393,0
            105.7987725,20.9363819,0
            105.7983697,20.9366747,0
            105.7980291,20.9369453,0
            105.797899,20.9370655,0
            105.7978587,20.9370981,0
          </coordinates>
        </LineString>
      </Placemark>
      <Placemark>
        <name>đường nhánh</name>
        <styleUrl>#line-000000-2976-nodesc</styleUrl>
        <LineString>
          <tessellate>1</tessellate>
          <coordinates>
            105.7958515,20.9379272,0
            105.7970544,20.9379334,0
            105.7973669,20.9379585,0
          </coordinates>
        </LineString>
      </Placemark>
      <Placemark>
        <name>đường nhánh</name>
        <styleUrl>#line-000000-4914-nodesc</styleUrl>
        <LineString>
          <tessellate>1</tessellate>
          <coordinates>
            105.7973358,20.936672,0
            105.7970059,20.9366808,0
            105.7969651,20.9355669,0
          </coordinates>
        </LineString>
      </Placemark>
      <Placemark>
        <name>Đường nhánh</name>
        <styleUrl>#line-000000-4139-nodesc</styleUrl>
        <LineString>
          <tessellate>1</tessellate>
          <coordinates>
            105.7969651,20.9355669,0
            105.7969146,20.9355198,0
            105.7968877,20.9352781,0
            105.7968622,20.935084,0
          </coordinates>
        </LineString>
      </Placemark>
      <Placemark>
        <name>đường nhánh</name>
        <styleUrl>#line-000000-5108-nodesc</styleUrl>
        <LineString>
          <tessellate>1</tessellate>
          <coordinates>
            105.7972873,20.9356222,0
            105.7972466,20.9355575,0
            105.7972185,20.9352919,0
            105.7971863,20.9349237,0
            105.7971327,20.9348272,0
            105.7970489,20.9347523,0
            105.7969429,20.9346947,0
          </coordinates>
        </LineString>
      </Placemark>
      <Placemark>
        <name>đường nhánh</name>
        <styleUrl>#line-000000-4333-nodesc</styleUrl>
        <LineString>
          <tessellate>1</tessellate>
          <coordinates>
            105.7971672,20.9348922,0
            105.7973335,20.9348458,0
            105.7975038,20.934807,0
            105.7976473,20.9347782,0
            105.7977372,20.9347531,0
            105.7978149,20.934693,0
            105.7979088,20.9346229,0
            105.7979947,20.9345665,0
            105.7980765,20.9345327,0
            105.7981677,20.9344813,0
            105.798291,20.934435,0
            105.7984305,20.9344037,0
            105.7985311,20.9343786,0
            105.798696,20.9343135,0
          </coordinates>
        </LineString>
      </Placemark>
      <Placemark>
        <name>đường nhánh</name>
        <styleUrl>#line-000000-3751-nodesc</styleUrl>
        <LineString>
          <tessellate>1</tessellate>
          <coordinates>
            105.7972873,20.9356222,0
            105.7974734,20.9356916,0
            105.7975887,20.9357404,0
            105.7977202,20.9357955,0
            105.7977923,20.9358478,0
          </coordinates>
        </LineString>
      </Placemark>
      <Placemark>
        <name>đường nhánh</name>
        <styleUrl>#line-000000-4914-nodesc</styleUrl>
        <LineString>
          <tessellate>1</tessellate>
          <coordinates>
            105.7990166,20.9346567,0
            105.7989657,20.934802,0
            105.7989134,20.9348984,0
            105.7988015,20.9351395,0
            105.7987117,20.9352823,0
            105.798581,20.9354502,0
            105.7985354,20.9355566,0
            105.7985233,20.935618,0
            105.7984657,20.9357145,0
            105.7983895,20.9357925,0
            105.7982822,20.9358889,0
            105.7981494,20.9360395,0
          </coordinates>
        </LineString>
      </Placemark>
      <Placemark>
        <name>đường nhánh</name>
        <styleUrl>#line-000000-5495-nodesc</styleUrl>
        <LineString>
          <tessellate>1</tessellate>
          <coordinates>
            105.7969429,20.9346947,0
            105.7970749,20.9344341,0
          </coordinates>
        </LineString>
      </Placemark>
      <Placemark>
        <name>đường ngõ</name>
        <styleUrl>#line-000000-3170-nodesc</styleUrl>
        <LineString>
          <tessellate>1</tessellate>
          <coordinates>
            105.7974745,20.9341599,0
            105.7975764,20.9343765,0
            105.7977775,20.9343064,0
            105.7979385,20.9342287,0
            105.7983006,20.9341035,0
            105.7986292,20.9340267,0
          </coordinates>
        </LineString>
      </Placemark>
      <Placemark>
        <name>đường ngõ</name>
        <styleUrl>#line-000000-5495-nodesc</styleUrl>
        <LineString>
          <tessellate>1</tessellate>
          <coordinates>
            105.7957773,20.9332033,0
            105.7965149,20.933161,0
          </coordinates>
        </LineString>
      </Placemark>
      <Placemark>
        <name>đường ngõ</name>
        <styleUrl>#line-000000-4333-nodesc</styleUrl>
        <LineString>
          <tessellate>1</tessellate>
          <coordinates>
            105.7960889,20.9326746,0
            105.7963276,20.9325468,0
            105.7966361,20.932399,0
            105.7969258,20.9322637,0
            105.7971645,20.9321334,0
            105.797422,20.9320032,0
            105.7978163,20.9318303,0
            105.7979397,20.9317727,0
          </coordinates>
        </LineString>
      </Placemark>
      <Placemark>
        <name>đường ngõ</name>
        <description><![CDATA[']]></description>
        <styleUrl>#line-000000-4720</styleUrl>
        <LineString>
          <tessellate>1</tessellate>
          <coordinates>
            105.796616,20.9317395,0
            105.7966952,20.9317871,0
            105.7967394,20.9318572,0
            105.79673,20.9319386,0
            105.7968427,20.9321165,0
            105.7968709,20.9322856,0
          </coordinates>
        </LineString>
      </Placemark>
      <Placemark>
        <name>đường ngõ</name>
        <styleUrl>#line-000000-5689-nodesc</styleUrl>
        <LineString>
          <tessellate>1</tessellate>
          <coordinates>
            105.7965834,20.9324197,0
            105.796688,20.9326351,0
            105.7967685,20.9328907,0
          </coordinates>
        </LineString>
      </Placemark>
      <Placemark>
        <name>đường ngõ</name>
        <styleUrl>#line-000000-5883-nodesc</styleUrl>
        <LineString>
          <tessellate>1</tessellate>
          <coordinates>
            105.798043,20.9321342,0
            105.7975079,20.9323873,0
          </coordinates>
        </LineString>
      </Placemark>
      <Placemark>
        <name>Đường ngõ</name>
        <styleUrl>#line-000000-5883-nodesc</styleUrl>
        <LineString>
          <tessellate>1</tessellate>
          <coordinates>
            105.7981506,20.9324941,0
            105.7980299,20.9325291,0
            105.7978783,20.9325842,0
            105.7977804,20.9326131,0
            105.7976034,20.932692,0
          </coordinates>
        </LineString>
      </Placemark>
      <Placemark>
        <name>đường ngõ </name>
        <styleUrl>#line-000000-4875-nodesc</styleUrl>
        <LineString>
          <tessellate>1</tessellate>
          <coordinates>
            105.7982317,20.9328608,0
            105.7980641,20.9329084,0
            105.7978683,20.9329722,0
          </coordinates>
        </LineString>
      </Placemark>
      <Placemark>
        <name>đường ngõ</name>
        <styleUrl>#line-000000-3751-nodesc</styleUrl>
        <LineString>
          <tessellate>1</tessellate>
          <coordinates>
            105.7987636,20.9344495,0
            105.7986563,20.9345371,0
            105.7984337,20.9347275,0
            105.7981574,20.934968,0
            105.7980528,20.9350457,0
            105.7980501,20.9351033,0
            105.7978195,20.9350883,0
          </coordinates>
        </LineString>
      </Placemark>
      <Placemark>
        <name>đường ngõ</name>
        <styleUrl>#line-000000-4526-nodesc</styleUrl>
        <LineString>
          <tessellate>1</tessellate>
          <coordinates>
            105.7981203,20.934991,0
            105.7983483,20.9351513,0
          </coordinates>
        </LineString>
      </Placemark>
      <Placemark>
        <name>đường ngõ</name>
        <styleUrl>#line-000000-4526-nodesc</styleUrl>
        <LineString>
          <tessellate>1</tessellate>
          <coordinates>
            105.7984337,20.9347275,0
            105.7988579,20.9350261,0
          </coordinates>
        </LineString>
      </Placemark>
      <Placemark>
        <name>đường ngõ</name>
        <styleUrl>#line-000000-3558-nodesc</styleUrl>
        <LineString>
          <tessellate>1</tessellate>
          <coordinates>
            105.7968139,20.9333813,0
            105.7971076,20.9334201,0
            105.7972484,20.9334439,0
            105.7974684,20.9334176,0
            105.7976695,20.9333174,0
            105.7983201,20.9330494,0
          </coordinates>
        </LineString>
      </Placemark>
      <Placemark>
        <name>đường ngõ</name>
        <styleUrl>#line-000000-5495-nodesc</styleUrl>
        <LineString>
          <tessellate>1</tessellate>
          <coordinates>
            105.7984798,20.9333608,0
            105.7983377,20.933431,0
            105.7980923,20.9335525,0
            105.7978401,20.9336903,0
            105.7976819,20.9337892,0
            105.7975102,20.9338769,0
            105.7973131,20.933942,0
          </coordinates>
        </LineString>
      </Placemark>
      <Placemark>
        <name>đường ngõ</name>
        <styleUrl>#line-000000-6270-nodesc</styleUrl>
        <LineString>
          <tessellate>1</tessellate>
          <coordinates>
            105.7973131,20.933942,0
            105.7971696,20.9334306,0
          </coordinates>
        </LineString>
      </Placemark>
      <Placemark>
        <name>đường ngõ</name>
        <styleUrl>#line-000000-3945-nodesc</styleUrl>
        <LineString>
          <tessellate>1</tessellate>
          <coordinates>
            105.7977535,20.9337428,0
            105.7975965,20.9333508,0
          </coordinates>
        </LineString>
      </Placemark>
      <Placemark>
        <name>đường ngõ</name>
        <styleUrl>#line-000000-4333-nodesc</styleUrl>
        <LineString>
          <tessellate>1</tessellate>
          <coordinates>
            105.7978456,20.9339163,0
            105.7985483,20.9335919,0
          </coordinates>
        </LineString>
      </Placemark>
      <Placemark>
        <name>đường ngõ</name>
        <styleUrl>#line-000000-4526-nodesc</styleUrl>
        <LineString>
          <tessellate>1</tessellate>
          <coordinates>
            105.800239,20.9347661,0
            105.8006386,20.9355201,0
            105.8006815,20.9356379,0
          </coordinates>
        </LineString>
      </Placemark>
      <Placemark>
        <name>đường ngõ</name>
        <styleUrl>#line-000000-3558-nodesc</styleUrl>
        <LineString>
          <tessellate>1</tessellate>
          <coordinates>
            105.8006118,20.9354638,0
            105.800365,20.935579,0
          </coordinates>
        </LineString>
      </Placemark>
      <Placemark>
        <name>đường ngõ </name>
        <styleUrl>#line-000000-4333-nodesc</styleUrl>
        <LineString>
          <tessellate>1</tessellate>
          <coordinates>
            105.8004671,20.9346812,0
            105.8005682,20.9348482,0
            105.8006393,20.934991,0
            105.8007305,20.9351238,0
            105.8008451,20.935301,0
            105.8009176,20.9354401,0
          </coordinates>
        </LineString>
      </Placemark>
      <Placemark>
        <name>Đường ngõ </name>
        <styleUrl>#line-000000-2976-nodesc</styleUrl>
        <LineString>
          <tessellate>1</tessellate>
          <coordinates>
            105.8008343,20.9345778,0
            105.8008987,20.9347577,0
            105.8009845,20.9349657,0
            105.801069,20.9352137,0
            105.8010931,20.935225,0
            105.8011173,20.93527,0
            105.8011267,20.9353201,0
            105.8011508,20.9353903,0
          </coordinates>
        </LineString>
      </Placemark>
      <Placemark>
        <name>đường ngõ</name>
        <styleUrl>#line-000000-4526-nodesc</styleUrl>
        <LineString>
          <tessellate>1</tessellate>
          <coordinates>
            105.8020799,20.9345207,0
            105.8021121,20.9345934,0
            105.8021241,20.9347437,0
            105.8021188,20.9348502,0
            105.8021349,20.9352322,0
            105.8021362,20.9353249,0
            105.8021444,20.9355072,0
            105.8022222,20.9355986,0
            105.8022571,20.9356262,0
            105.8022447,20.9357343,0
            105.8021859,20.9360219,0
          </coordinates>
        </LineString>
      </Placemark>
      <Placemark>
        <name>đường ngõ</name>
        <styleUrl>#line-000000-5108-nodesc</styleUrl>
        <LineString>
          <tessellate>1</tessellate>
          <coordinates>
            105.8011579,20.9354013,0
            105.8013524,20.9353487,0
            105.8012384,20.9350381,0
            105.8010305,20.9351032,0
          </coordinates>
        </LineString>
      </Placemark>
      <Placemark>
        <name>đường ngõ</name>
        <styleUrl>#line-000000-3751-nodesc</styleUrl>
        <LineString>
          <tessellate>1</tessellate>
          <coordinates>
            105.8012384,20.9350381,0
            105.801211,20.9349043,0
            105.8011922,20.9346889,0
            105.8011587,20.9345736,0
          </coordinates>
        </LineString>
      </Placemark>
      <Placemark>
        <name>đường ngõ</name>
        <styleUrl>#line-000000-5495-nodesc</styleUrl>
        <LineString>
          <tessellate>1</tessellate>
          <coordinates>
            105.8012384,20.9350381,0
            105.8015079,20.9349968,0
            105.8017051,20.9350156,0
            105.8018539,20.9350456,0
            105.8021074,20.9350719,0
            105.8021289,20.9350744,0
          </coordinates>
        </LineString>
      </Placemark>
    </Folder>
    <Folder>
      <name>đánh dấu</name>
      <Placemark>
        <name>Nhà cổ cụ Mão</name>
        <styleUrl>#icon-1603-FBC02D-nodesc</styleUrl>
        <Point>
          <coordinates>
            105.7978932,20.931917,0
          </coordinates>
        </Point>
      </Placemark>
      <Placemark>
        <name>Nhà cổ 216</name>
        <styleUrl>#icon-1603-FBC02D-nodesc</styleUrl>
        <Point>
          <coordinates>
            105.7976048,20.932026,0
          </coordinates>
        </Point>
      </Placemark>
      <Placemark>
        <name>Cổng ngõ</name>
        <styleUrl>#icon-1899-F57C00-nodesc</styleUrl>
        <Point>
          <coordinates>
            105.7981506,20.9324941,0
          </coordinates>
        </Point>
      </Placemark>
      <Placemark>
        <name>Cổng sau</name>
        <styleUrl>#icon-1899-F57C00-nodesc</styleUrl>
        <Point>
          <coordinates>
            105.7971415,20.9310494,0
          </coordinates>
        </Point>
      </Placemark>
      <Placemark>
        <name>Nhà cổ ông Giao</name>
        <styleUrl>#icon-1603-FBC02D-nodesc</styleUrl>
        <Point>
          <coordinates>
            105.7978415,20.9323682,0
          </coordinates>
        </Point>
      </Placemark>
      <Placemark>
        <name>Chợ</name>
        <styleUrl>#icon-1899-C2185B-nodesc</styleUrl>
        <Point>
          <coordinates>
            105.7994306,20.9350014,0
          </coordinates>
        </Point>
      </Placemark>
      <Placemark>
        <name>Nhà cổ 215</name>
        <styleUrl>#icon-1603-FBC02D-nodesc</styleUrl>
        <Point>
          <coordinates>
            105.7979702,20.9322792,0
          </coordinates>
        </Point>
      </Placemark>
      <Placemark>
        <name>Đình Vật</name>
        <styleUrl>#icon-1671-FF5252-nodesc</styleUrl>
        <Point>
          <coordinates>
            105.7984885,20.9342871,0
          </coordinates>
        </Point>
      </Placemark>
      <Placemark>
        <name>Nhà để đồ cúng của dân</name>
        <styleUrl>#icon-1671-FF5252-nodesc</styleUrl>
        <Point>
          <coordinates>
            105.7984898,20.9341267,0
          </coordinates>
        </Point>
      </Placemark>
      <Placemark>
        <name>Cổng Ngõ</name>
        <styleUrl>#icon-1899-F57C00-nodesc</styleUrl>
        <Point>
          <coordinates>
            105.798043,20.9321342,0
          </coordinates>
        </Point>
      </Placemark>
      <Placemark>
        <name>Cổng giữa</name>
        <styleUrl>#icon-1899-F57C00-nodesc</styleUrl>
        <Point>
          <coordinates>
            105.7986265,20.9339979,0
          </coordinates>
        </Point>
      </Placemark>
      <Placemark>
        <name>Nhà thờ họ Từ</name>
        <styleUrl>#icon-1671-FF5252-nodesc</styleUrl>
        <Point>
          <coordinates>
            105.7990394,20.9348194,0
          </coordinates>
        </Point>
      </Placemark>
      <Placemark>
        <name>Giếng</name>
        <styleUrl>#icon-1669-0288D1-nodesc</styleUrl>
        <Point>
          <coordinates>
            105.80001,20.9345936,0
          </coordinates>
        </Point>
      </Placemark>
      <Placemark>
        <name>Chùa Cự Đà</name>
        <styleUrl>#icon-1671-FF5252-nodesc</styleUrl>
        <Point>
          <coordinates>
            105.7999968,20.9351476,0
          </coordinates>
        </Point>
      </Placemark>
      <Placemark>
        <name>Nhà hội đồng của làng</name>
        <styleUrl>#icon-1899-FF5252-nodesc</styleUrl>
        <Point>
          <coordinates>
            105.7997557,20.9347899,0
          </coordinates>
        </Point>
      </Placemark>
      <Placemark>
        <name>Miếu</name>
        <styleUrl>#icon-1671-FF5252-nodesc</styleUrl>
        <Point>
          <coordinates>
            105.7999632,20.9348194,0
          </coordinates>
        </Point>
      </Placemark>
      <Placemark>
        <name>CSXX Tương Trọng Tình</name>
        <styleUrl>#icon-1899-9C27B0-nodesc</styleUrl>
        <Point>
          <coordinates>
            105.7983583,20.9377248,0
          </coordinates>
        </Point>
      </Placemark>
      <Placemark>
        <name>CSXX Miến Thành Đạt</name>
        <styleUrl>#icon-1899-9C27B0-nodesc</styleUrl>
        <Point>
          <coordinates>
            105.7972345,20.9343014,0
          </coordinates>
        </Point>
      </Placemark>
      <Placemark>
        <name>cam</name>
        <styleUrl>#icon-1535-FFEA00-nodesc</styleUrl>
        <Point>
          <coordinates>
            105.7971797,20.931063,0
          </coordinates>
        </Point>
      </Placemark>
      <Placemark>
        <name>cam</name>
        <styleUrl>#icon-1535-FFEA00-nodesc</styleUrl>
        <Point>
          <coordinates>
            105.7978172,20.932325,0
          </coordinates>
        </Point>
      </Placemark>
      <Placemark>
        <name>cam</name>
        <styleUrl>#icon-1535-FFEA00-nodesc</styleUrl>
        <Point>
          <coordinates>
            105.7985605,20.9342511,0
          </coordinates>
        </Point>
      </Placemark>
      <Placemark>
        <name>cam </name>
        <styleUrl>#icon-1535-FFEA00-nodesc</styleUrl>
        <Point>
          <coordinates>
            105.7986279,20.9340572,0
          </coordinates>
        </Point>
      </Placemark>
      <Placemark>
        <name>cam</name>
        <styleUrl>#icon-1535-FFEA00-nodesc</styleUrl>
        <Point>
          <coordinates>
            105.7990497,20.9347523,0
          </coordinates>
        </Point>
      </Placemark>
      <Placemark>
        <name>cam</name>
        <styleUrl>#icon-1535-FFEA00-nodesc</styleUrl>
        <Point>
          <coordinates>
            105.7990966,20.9346622,0
          </coordinates>
        </Point>
      </Placemark>
      <Placemark>
        <name>Cột cờ Cự Đà</name>
        <styleUrl>#icon-1574-7CB342-nodesc</styleUrl>
        <Point>
          <coordinates>
            105.7990671,20.9346233,0
          </coordinates>
        </Point>
      </Placemark>
      <Placemark>
        <name>cam</name>
        <styleUrl>#icon-1535-FFEA00-nodesc</styleUrl>
        <Point>
          <coordinates>
            105.7994574,20.934785,0
          </coordinates>
        </Point>
      </Placemark>
      <Placemark>
        <name>cam</name>
        <styleUrl>#icon-1535-FFEA00-nodesc</styleUrl>
        <Point>
          <coordinates>
            105.7999777,20.9347324,0
          </coordinates>
        </Point>
      </Placemark>
      <Placemark>
        <name>cam</name>
        <styleUrl>#icon-1535-FFEA00-nodesc</styleUrl>
        <Point>
          <coordinates>
            105.7999507,20.9350526,0
          </coordinates>
        </Point>
      </Placemark>
      <Placemark>
        <name>Miếu</name>
        <styleUrl>#poly-FF5252-1200-64-nodesc</styleUrl>
        <Polygon>
          <outerBoundaryIs>
            <LinearRing>
              <tessellate>1</tessellate>
              <coordinates>
                105.7998804,20.9349067,0
                105.7998764,20.9347026,0
                105.799918,20.9347098,0
                105.8000714,20.9347814,0
                105.8000561,20.9349127,0
                105.7998804,20.9349067,0
              </coordinates>
            </LinearRing>
          </outerBoundaryIs>
        </Polygon>
      </Placemark>
      <Placemark>
        <name>cột mốc</name>
        <styleUrl>#icon-1899-F57C00-nodesc</styleUrl>
        <Point>
          <coordinates>
            105.8018058,20.9345611,0
          </coordinates>
        </Point>
      </Placemark>
      <Placemark>
        <name>Giếng</name>
        <styleUrl>#icon-1669-0288D1-nodesc</styleUrl>
        <Point>
          <coordinates>
            105.799819,20.9350389,0
          </coordinates>
        </Point>
      </Placemark>
      <Placemark>
        <name>cây cổ</name>
        <styleUrl>#icon-1886-7CB342-nodesc</styleUrl>
        <Point>
          <coordinates>
            105.7997063,20.93473,0
          </coordinates>
        </Point>
      </Placemark>
      <Placemark>
        <name>cây cổ</name>
        <styleUrl>#icon-1886-7CB342-nodesc</styleUrl>
        <Point>
          <coordinates>
            105.7998686,20.9346786,0
          </coordinates>
        </Point>
      </Placemark>
      <Placemark>
        <name>cây nhãn</name>
        <styleUrl>#icon-1886-7CB342-nodesc</styleUrl>
        <Point>
          <coordinates>
            105.7996393,20.9347368,0
          </coordinates>
        </Point>
      </Placemark>
      <Placemark>
        <name>cảnh quan đẹp</name>
        <styleUrl>#icon-1899-7CB342-nodesc</styleUrl>
        <Point>
          <coordinates>
            105.8000355,20.9347554,0
          </coordinates>
        </Point>
      </Placemark>
      <Placemark>
        <name>cảnh quan đẹp</name>
        <styleUrl>#icon-1899-7CB342-nodesc</styleUrl>
        <Point>
          <coordinates>
            105.7986317,20.9341445,0
          </coordinates>
        </Point>
      </Placemark>
      <Placemark>
        <name>cảnh quan đẹp</name>
        <styleUrl>#icon-1899-7CB342-nodesc</styleUrl>
        <Point>
          <coordinates>
            105.7990075,20.9346541,0
          </coordinates>
        </Point>
      </Placemark>
    </Folder>
    <Folder>
      <name>Khoanh vùng</name>
      <Placemark>
        <name>Miếu</name>
        <styleUrl>#poly-FF5252-3321-54-nodesc</styleUrl>
        <Polygon>
          <outerBoundaryIs>
            <LinearRing>
              <tessellate>1</tessellate>
              <coordinates>
                105.7996564,20.9349042,0
                105.7996561,20.9347102,0
                105.7997227,20.934685,0
                105.7998764,20.9347026,0
                105.7998804,20.9349067,0
                105.7996564,20.9349042,0
              </coordinates>
            </LinearRing>
          </outerBoundaryIs>
        </Polygon>
      </Placemark>
      <Placemark>
        <name>Nhà cổ 1</name>
        <styleUrl>#poly-FBC02D-4621-0-nodesc</styleUrl>
        <Polygon>
          <outerBoundaryIs>
            <LinearRing>
              <tessellate>1</tessellate>
              <coordinates>
                105.7975815,20.9321299,0
                105.7975117,20.9319746,0
                105.7976351,20.9319245,0
                105.7977102,20.9320723,0
                105.7975815,20.9321299,0
              </coordinates>
            </LinearRing>
          </outerBoundaryIs>
        </Polygon>
      </Placemark>
      <Placemark>
        <name>nhà cổ 2</name>
        <styleUrl>#poly-FBC02D-3321-0-nodesc</styleUrl>
        <Polygon>
          <outerBoundaryIs>
            <LinearRing>
              <tessellate>1</tessellate>
              <coordinates>
                105.7978642,20.9320222,0
                105.7977999,20.9318543,0
                105.7979273,20.9317992,0
                105.7979863,20.9319746,0
                105.7978642,20.9320222,0
              </coordinates>
            </LinearRing>
          </outerBoundaryIs>
        </Polygon>
      </Placemark>
      <Placemark>
        <name>nhà cổ 3</name>
        <styleUrl>#poly-FBC02D-2721-0-nodesc</styleUrl>
        <Polygon>
          <outerBoundaryIs>
            <LinearRing>
              <tessellate>1</tessellate>
              <coordinates>
                105.7978243,20.93247,0
                105.7977398,20.9322783,0
                105.7978511,20.9322307,0
                105.7979343,20.9324286,0
                105.7978243,20.93247,0
              </coordinates>
            </LinearRing>
          </outerBoundaryIs>
        </Polygon>
      </Placemark>
      <Placemark>
        <name>nhà cổ 4</name>
        <styleUrl>#poly-FBC02D-2521-0-nodesc</styleUrl>
        <Polygon>
          <outerBoundaryIs>
            <LinearRing>
              <tessellate>1</tessellate>
              <coordinates>
                105.7979225,20.9323987,0
                105.7978511,20.9322307,0
                105.7980419,20.9321482,0
                105.7981049,20.9323511,0
                105.7979225,20.9323987,0
              </coordinates>
            </LinearRing>
          </outerBoundaryIs>
        </Polygon>
      </Placemark>
      <Placemark>
        <name>Đa giác 11</name>
        <styleUrl>#poly-F48FB1-2801-0-nodesc</styleUrl>
        <Polygon>
          <outerBoundaryIs>
            <LinearRing>
              <tessellate>1</tessellate>
              <coordinates>
                105.7993307,20.9348072,0
                105.7994755,20.9348148,0
                105.7996311,20.9347358,0
                105.7996311,20.9347847,0
                105.7996405,20.9351266,0
                105.7995453,20.9351968,0
                105.7993991,20.9351655,0
                105.7992972,20.9351605,0
                105.7992864,20.9351417,0
                105.7993307,20.9348072,0
              </coordinates>
            </LinearRing>
          </outerBoundaryIs>
        </Polygon>
      </Placemark>
      <Placemark>
        <name>Đình Vật</name>
        <styleUrl>#poly-FF5252-2401-74-nodesc</styleUrl>
        <Polygon>
          <outerBoundaryIs>
            <LinearRing>
              <tessellate>1</tessellate>
              <coordinates>
                105.798291,20.934435,0
                105.7982489,20.9343664,0
                105.7983267,20.9343326,0
                105.7983093,20.9342799,0
                105.7983951,20.9342449,0
                105.7983871,20.9342136,0
                105.7986432,20.9341534,0
                105.7986561,20.9342396,0
                105.798696,20.9343135,0
                105.7984997,20.9343889,0
                105.798291,20.934435,0
              </coordinates>
            </LinearRing>
          </outerBoundaryIs>
        </Polygon>
      </Placemark>
      <Placemark>
        <name>Nhà để đồ cúng của dân</name>
        <styleUrl>#poly-FF5252-2701-77-nodesc</styleUrl>
        <Polygon>
          <outerBoundaryIs>
            <LinearRing>
              <tessellate>1</tessellate>
              <coordinates>
                105.7983871,20.9342136,0
                105.7983495,20.9340933,0
                105.7986292,20.9340267,0
                105.7986432,20.9341534,0
                105.7983871,20.9342136,0
              </coordinates>
            </LinearRing>
          </outerBoundaryIs>
        </Polygon>
      </Placemark>
      <Placemark>
        <name>nhà thờ họ Từ</name>
        <styleUrl>#poly-FF5252-2401-77-nodesc</styleUrl>
        <Polygon>
          <outerBoundaryIs>
            <LinearRing>
              <tessellate>1</tessellate>
              <coordinates>
                105.7990891,20.9350075,0
                105.799002,20.9349925,0
                105.7989966,20.9348873,0
                105.7989322,20.9348747,0
                105.7989657,20.934802,0
                105.7990166,20.9346567,0
                105.799132,20.9347144,0
                105.7990891,20.9350075,0
              </coordinates>
            </LinearRing>
          </outerBoundaryIs>
        </Polygon>
      </Placemark>
      <Placemark>
        <name>Chùa Cự Đà</name>
        <styleUrl>#poly-FF5252-2601-77-nodesc</styleUrl>
        <Polygon>
          <outerBoundaryIs>
            <LinearRing>
              <tessellate>1</tessellate>
              <coordinates>
                105.7996564,20.9349042,0
                105.7998804,20.9349067,0
                105.7998764,20.9347026,0
                105.7999266,20.93471,0
                105.8000701,20.9347814,0
                105.8002377,20.9347661,0
                105.8003873,20.9350493,0
                105.8002894,20.9350919,0
                105.800321,20.9351834,0
                105.8002593,20.9352034,0
                105.8003451,20.9354151,0
                105.7997577,20.9355616,0
                105.7997272,20.935463,0
                105.7996682,20.9351499,0
                105.7996564,20.9349042,0
              </coordinates>
            </LinearRing>
          </outerBoundaryIs>
        </Polygon>
      </Placemark>
      <Placemark>
        <name>csxx tương trọng tình</name>
        <styleUrl>#poly-9C27B0-2201-0-nodesc</styleUrl>
        <Polygon>
          <outerBoundaryIs>
            <LinearRing>
              <tessellate>1</tessellate>
              <coordinates>
                105.7982122,20.9377664,0
                105.7984456,20.9375472,0
                105.7985502,20.9376337,0
                105.7982793,20.9378554,0
                105.7982122,20.9377664,0
              </coordinates>
            </LinearRing>
          </outerBoundaryIs>
        </Polygon>
      </Placemark>
      <Placemark>
        <name>CSXX Miến Thành Đạt</name>
        <styleUrl>#poly-9C27B0-2301-0-nodesc</styleUrl>
        <Polygon>
          <outerBoundaryIs>
            <LinearRing>
              <tessellate>1</tessellate>
              <coordinates>
                105.7971701,20.9344342,0
                105.7970722,20.934215,0
                105.7973511,20.9341473,0
                105.7974397,20.9343502,0
                105.7971701,20.9344342,0
              </coordinates>
            </LinearRing>
          </outerBoundaryIs>
        </Polygon>
      </Placemark>
      <Placemark>
        <name>Phơi Miến</name>
        <styleUrl>#poly-FFEA00-1601-41-nodesc</styleUrl>
        <Polygon>
          <outerBoundaryIs>
            <LinearRing>
              <tessellate>1</tessellate>
              <coordinates>
                105.7967938,20.9353172,0
                105.7967496,20.9353035,0
                105.7966973,20.9352108,0
                105.796539,20.9352333,0
                105.7965229,20.9352922,0
                105.796413,20.9353072,0
                105.7964036,20.9353586,0
                105.7962762,20.9353749,0
                105.79624,20.9350918,0
                105.7963955,20.935068,0
                105.796413,20.9348838,0
                105.7965364,20.9348864,0
                105.7965498,20.9348325,0
                105.7965457,20.9347824,0
                105.7964505,20.9347799,0
                105.796476,20.9346872,0
                105.7966919,20.9346772,0
                105.7966959,20.9348563,0
                105.7967214,20.9348688,0
                105.7967764,20.9350028,0
                105.7967764,20.9350379,0
                105.7967348,20.9350655,0
                105.7967308,20.9350818,0
                105.7967657,20.935093,0
                105.796885,20.9350379,0
                105.7969722,20.9350367,0
                105.7969856,20.9351557,0
                105.7969655,20.9351882,0
                105.7969508,20.935207,0
                105.7969373,20.9352721,0
                105.7969226,20.9353097,0
                105.7967938,20.9353172,0
              </coordinates>
            </LinearRing>
          </outerBoundaryIs>
        </Polygon>
      </Placemark>
      <Placemark>
        <name>Phơi Miến</name>
        <styleUrl>#poly-FFEA00-1200-77-nodesc</styleUrl>
        <Polygon>
          <outerBoundaryIs>
            <LinearRing>
              <tessellate>1</tessellate>
              <coordinates>
                105.7958771,20.9354657,0
                105.7958624,20.9350148,0
                105.7958812,20.9349384,0
                105.7958972,20.9349384,0
                105.7959227,20.9348444,0
                105.796026,20.9348444,0
                105.7960662,20.9351763,0
                105.7960582,20.9353091,0
                105.7960193,20.9354106,0
                105.7960555,20.9354156,0
                105.796144,20.9354006,0
                105.7962339,20.9353993,0
                105.796258,20.9354444,0
                105.7960662,20.9354694,0
                105.7958771,20.9354657,0
              </coordinates>
            </LinearRing>
          </outerBoundaryIs>
        </Polygon>
      </Placemark>
      <Placemark>
        <name>phơi miến</name>
        <styleUrl>#poly-FFEA00-1200-77-nodesc</styleUrl>
        <Polygon>
          <outerBoundaryIs>
            <LinearRing>
              <tessellate>1</tessellate>
              <coordinates>
                105.7958877,20.9359156,0
                105.7958918,20.9356175,0
                105.7959535,20.9355837,0
                105.7964792,20.9355386,0
                105.7968131,20.9355624,0
                105.7968346,20.9356639,0
                105.7966763,20.9356689,0
                105.7966723,20.9357491,0
                105.7966803,20.9358117,0
                105.7965073,20.9358718,0
                105.7965127,20.9357315,0
                105.7964416,20.935729,0
                105.7962646,20.935729,0
                105.7962592,20.9358493,0
                105.7959736,20.9358405,0
                105.7959709,20.9359131,0
                105.7958877,20.9359156,0
              </coordinates>
            </LinearRing>
          </outerBoundaryIs>
        </Polygon>
      </Placemark>
      <Placemark>
        <name>phơi miến</name>
        <styleUrl>#poly-FFEA00-1200-77-nodesc</styleUrl>
        <Polygon>
          <outerBoundaryIs>
            <LinearRing>
              <tessellate>1</tessellate>
              <coordinates>
                105.7953371,20.9365185,0
                105.795321,20.9363106,0
                105.7953934,20.9363156,0
                105.7953948,20.9362868,0
                105.7955114,20.9362818,0
                105.7955182,20.9361552,0
                105.7956737,20.9361515,0
                105.7956777,20.9361728,0
                105.7957354,20.9361703,0
                105.7957488,20.9362767,0
                105.7957488,20.9363795,0
                105.7957555,20.9364283,0
                105.7957032,20.9365072,0
                105.7955369,20.9365085,0
                105.7955061,20.9364984,0
                105.7954994,20.9365222,0
                105.7954323,20.9365373,0
                105.795431,20.9365135,0
                105.7953465,20.9365185,0
                105.7953371,20.9365185,0
              </coordinates>
            </LinearRing>
          </outerBoundaryIs>
        </Polygon>
      </Placemark>
      <Placemark>
        <name>Phơi Miến</name>
        <styleUrl>#poly-FFEA00-1200-77-nodesc</styleUrl>
        <Polygon>
          <outerBoundaryIs>
            <LinearRing>
              <tessellate>1</tessellate>
              <coordinates>
                105.7959004,20.9363437,0
                105.7959004,20.9362485,0
                105.7959232,20.9362171,0
                105.7961163,20.9362071,0
                105.7961579,20.936281,0
                105.7961565,20.9363161,0
                105.7959004,20.9363437,0
              </coordinates>
            </LinearRing>
          </outerBoundaryIs>
        </Polygon>
      </Placemark>
      <Placemark>
        <name>phơi miến</name>
        <styleUrl>#poly-FFEA00-1200-77-nodesc</styleUrl>
        <Polygon>
          <outerBoundaryIs>
            <LinearRing>
              <tessellate>1</tessellate>
              <coordinates>
                105.7960879,20.9374391,0
                105.7961066,20.9373314,0
                105.7960852,20.9372612,0
                105.7959672,20.9372675,0
                105.7959564,20.9371761,0
                105.7960972,20.937166,0
                105.796112,20.937141,0
                105.7961013,20.9371072,0
                105.7960744,20.9370295,0
                105.7961013,20.9368992,0
                105.7961911,20.9368466,0
                105.7962622,20.9368416,0
                105.7964339,20.9368542,0
                105.7967222,20.9368441,0
                105.7967785,20.9369907,0
                105.7969623,20.9369932,0
                105.7970937,20.9370258,0
                105.797095,20.937141,0
                105.7966444,20.937131,0
                105.7964808,20.9371322,0
                105.7964231,20.9372424,0
                105.7962863,20.9373063,0
                105.7962515,20.9373915,0
                105.7961951,20.9374216,0
                105.7961187,20.9374416,0
                105.7960879,20.9374391,0
              </coordinates>
            </LinearRing>
          </outerBoundaryIs>
        </Polygon>
      </Placemark>
      <Placemark>
        <name>phơi miến</name>
        <styleUrl>#poly-FFEA00-1200-77-nodesc</styleUrl>
        <Polygon>
          <outerBoundaryIs>
            <LinearRing>
              <tessellate>1</tessellate>
              <coordinates>
                105.7956815,20.9390548,0
                105.7954039,20.9390298,0
                105.7953463,20.939001,0
                105.7953677,20.9388657,0
                105.7951719,20.9388244,0
                105.7951733,20.9387429,0
                105.7951116,20.9387317,0
                105.7947227,20.9385914,0
                105.7947441,20.9384749,0
                105.7951827,20.9385889,0
                105.7951856,20.9382831,0
                105.7950998,20.938233,0
                105.7947993,20.9381779,0
                105.7948128,20.9381015,0
                105.7946062,20.9380602,0
                105.7946116,20.9380276,0
                105.7951628,20.9381428,0
                105.7951588,20.9381754,0
                105.7951105,20.9381779,0
                105.7951051,20.9382192,0
                105.7951963,20.9382756,0
                105.7952017,20.9384409,0
                105.7952889,20.9384234,0
                105.7954256,20.9384522,0
                105.7957328,20.9384986,0
                105.7957515,20.9387278,0
                105.7957475,20.9388029,0
                105.7956815,20.9390548,0
              </coordinates>
            </LinearRing>
          </outerBoundaryIs>
        </Polygon>
      </Placemark>
      <Placemark>
        <name>phơi miến</name>
        <styleUrl>#poly-FFEA00-1200-77-nodesc</styleUrl>
        <Polygon>
          <outerBoundaryIs>
            <LinearRing>
              <tessellate>1</tessellate>
              <coordinates>
                105.7962022,20.9385423,0
                105.7959632,20.9385327,0
                105.7959236,20.9382536,0
                105.795992,20.9382448,0
                105.7961261,20.9382698,0
                105.7961784,20.9381884,0
                105.796177,20.9381233,0
                105.7962977,20.9381145,0
                105.7963111,20.9379467,0
                105.7970327,20.9379592,0
                105.7970461,20.9381396,0
                105.797031,20.9383056,0
                105.7970002,20.9384634,0
                105.7968929,20.9384822,0
                105.7968151,20.9384083,0
                105.7966153,20.9383983,0
                105.7965992,20.9385248,0
                105.7966153,20.9385962,0
                105.7967078,20.9385999,0
                105.7967172,20.938769,0
                105.7965134,20.938764,0
                105.7964866,20.938541,0
                105.7962022,20.9385423,0
              </coordinates>
            </LinearRing>
          </outerBoundaryIs>
        </Polygon>
      </Placemark>
    </Folder>
  </Document>
</kml>
