<?xml version="1.0" encoding="UTF-8"?>
<kml xmlns="http://www.opengis.net/kml/2.2">
  <Document>
    <name>làng Hạ Thái </name>
    <description/>
    <Style id="icon-1535-FFEA00-nodesc-normal">
      <IconStyle>
        <color>ff00eaff</color>
        <scale>1</scale>
        <Icon>
          <href>https://www.gstatic.com/mapspro/images/stock/503-wht-blank_maps.png</href>
        </Icon>
      </IconStyle>
      <LabelStyle>
        <scale>0</scale>
      </LabelStyle>
      <BalloonStyle>
        <text><![CDATA[<h3>$[name]</h3>]]></text>
      </BalloonStyle>
    </Style>
    <Style id="icon-1535-FFEA00-nodesc-highlight">
      <IconStyle>
        <color>ff00eaff</color>
        <scale>1</scale>
        <Icon>
          <href>https://www.gstatic.com/mapspro/images/stock/503-wht-blank_maps.png</href>
        </Icon>
      </IconStyle>
      <LabelStyle>
        <scale>1</scale>
      </LabelStyle>
      <BalloonStyle>
        <text><![CDATA[<h3>$[name]</h3>]]></text>
      </BalloonStyle>
    </Style>
    <StyleMap id="icon-1535-FFEA00-nodesc">
      <Pair>
        <key>normal</key>
        <styleUrl>#icon-1535-FFEA00-nodesc-normal</styleUrl>
      </Pair>
      <Pair>
        <key>highlight</key>
        <styleUrl>#icon-1535-FFEA00-nodesc-highlight</styleUrl>
      </Pair>
    </StyleMap>
    <Style id="icon-1574-E65100-nodesc-normal">
      <IconStyle>
        <color>ff0051e6</color>
        <scale>1</scale>
        <Icon>
          <href>https://www.gstatic.com/mapspro/images/stock/503-wht-blank_maps.png</href>
        </Icon>
      </IconStyle>
      <LabelStyle>
        <scale>0</scale>
      </LabelStyle>
      <BalloonStyle>
        <text><![CDATA[<h3>$[name]</h3>]]></text>
      </BalloonStyle>
    </Style>
    <Style id="icon-1574-E65100-nodesc-highlight">
      <IconStyle>
        <color>ff0051e6</color>
        <scale>1</scale>
        <Icon>
          <href>https://www.gstatic.com/mapspro/images/stock/503-wht-blank_maps.png</href>
        </Icon>
      </IconStyle>
      <LabelStyle>
        <scale>1</scale>
      </LabelStyle>
      <BalloonStyle>
        <text><![CDATA[<h3>$[name]</h3>]]></text>
      </BalloonStyle>
    </Style>
    <StyleMap id="icon-1574-E65100-nodesc">
      <Pair>
        <key>normal</key>
        <styleUrl>#icon-1574-E65100-nodesc-normal</styleUrl>
      </Pair>
      <Pair>
        <key>highlight</key>
        <styleUrl>#icon-1574-E65100-nodesc-highlight</styleUrl>
      </Pair>
    </StyleMap>
    <Style id="icon-1574-F57C00-nodesc-normal">
      <IconStyle>
        <color>ff007cf5</color>
        <scale>1</scale>
        <Icon>
          <href>https://www.gstatic.com/mapspro/images/stock/503-wht-blank_maps.png</href>
        </Icon>
      </IconStyle>
      <LabelStyle>
        <scale>0</scale>
      </LabelStyle>
      <BalloonStyle>
        <text><![CDATA[<h3>$[name]</h3>]]></text>
      </BalloonStyle>
    </Style>
    <Style id="icon-1574-F57C00-nodesc-highlight">
      <IconStyle>
        <color>ff007cf5</color>
        <scale>1</scale>
        <Icon>
          <href>https://www.gstatic.com/mapspro/images/stock/503-wht-blank_maps.png</href>
        </Icon>
      </IconStyle>
      <LabelStyle>
        <scale>1</scale>
      </LabelStyle>
      <BalloonStyle>
        <text><![CDATA[<h3>$[name]</h3>]]></text>
      </BalloonStyle>
    </Style>
    <StyleMap id="icon-1574-F57C00-nodesc">
      <Pair>
        <key>normal</key>
        <styleUrl>#icon-1574-F57C00-nodesc-normal</styleUrl>
      </Pair>
      <Pair>
        <key>highlight</key>
        <styleUrl>#icon-1574-F57C00-nodesc-highlight</styleUrl>
      </Pair>
    </StyleMap>
    <Style id="icon-1603-F57C00-nodesc-normal">
      <IconStyle>
        <color>ff007cf5</color>
        <scale>1</scale>
        <Icon>
          <href>https://www.gstatic.com/mapspro/images/stock/503-wht-blank_maps.png</href>
        </Icon>
      </IconStyle>
      <LabelStyle>
        <scale>0</scale>
      </LabelStyle>
      <BalloonStyle>
        <text><![CDATA[<h3>$[name]</h3>]]></text>
      </BalloonStyle>
    </Style>
    <Style id="icon-1603-F57C00-nodesc-highlight">
      <IconStyle>
        <color>ff007cf5</color>
        <scale>1</scale>
        <Icon>
          <href>https://www.gstatic.com/mapspro/images/stock/503-wht-blank_maps.png</href>
        </Icon>
      </IconStyle>
      <LabelStyle>
        <scale>1</scale>
      </LabelStyle>
      <BalloonStyle>
        <text><![CDATA[<h3>$[name]</h3>]]></text>
      </BalloonStyle>
    </Style>
    <StyleMap id="icon-1603-F57C00-nodesc">
      <Pair>
        <key>normal</key>
        <styleUrl>#icon-1603-F57C00-nodesc-normal</styleUrl>
      </Pair>
      <Pair>
        <key>highlight</key>
        <styleUrl>#icon-1603-F57C00-nodesc-highlight</styleUrl>
      </Pair>
    </StyleMap>
    <Style id="icon-1603-FFEA00-nodesc-normal">
      <IconStyle>
        <color>ff00eaff</color>
        <scale>1</scale>
        <Icon>
          <href>https://www.gstatic.com/mapspro/images/stock/503-wht-blank_maps.png</href>
        </Icon>
      </IconStyle>
      <LabelStyle>
        <scale>0</scale>
      </LabelStyle>
      <BalloonStyle>
        <text><![CDATA[<h3>$[name]</h3>]]></text>
      </BalloonStyle>
    </Style>
    <Style id="icon-1603-FFEA00-nodesc-highlight">
      <IconStyle>
        <color>ff00eaff</color>
        <scale>1</scale>
        <Icon>
          <href>https://www.gstatic.com/mapspro/images/stock/503-wht-blank_maps.png</href>
        </Icon>
      </IconStyle>
      <LabelStyle>
        <scale>1</scale>
      </LabelStyle>
      <BalloonStyle>
        <text><![CDATA[<h3>$[name]</h3>]]></text>
      </BalloonStyle>
    </Style>
    <StyleMap id="icon-1603-FFEA00-nodesc">
      <Pair>
        <key>normal</key>
        <styleUrl>#icon-1603-FFEA00-nodesc-normal</styleUrl>
      </Pair>
      <Pair>
        <key>highlight</key>
        <styleUrl>#icon-1603-FFEA00-nodesc-highlight</styleUrl>
      </Pair>
    </StyleMap>
    <Style id="icon-1669-0288D1-nodesc-normal">
      <IconStyle>
        <color>ffd18802</color>
        <scale>1</scale>
        <Icon>
          <href>https://www.gstatic.com/mapspro/images/stock/503-wht-blank_maps.png</href>
        </Icon>
      </IconStyle>
      <LabelStyle>
        <scale>0</scale>
      </LabelStyle>
      <BalloonStyle>
        <text><![CDATA[<h3>$[name]</h3>]]></text>
      </BalloonStyle>
    </Style>
    <Style id="icon-1669-0288D1-nodesc-highlight">
      <IconStyle>
        <color>ffd18802</color>
        <scale>1</scale>
        <Icon>
          <href>https://www.gstatic.com/mapspro/images/stock/503-wht-blank_maps.png</href>
        </Icon>
      </IconStyle>
      <LabelStyle>
        <scale>1</scale>
      </LabelStyle>
      <BalloonStyle>
        <text><![CDATA[<h3>$[name]</h3>]]></text>
      </BalloonStyle>
    </Style>
    <StyleMap id="icon-1669-0288D1-nodesc">
      <Pair>
        <key>normal</key>
        <styleUrl>#icon-1669-0288D1-nodesc-normal</styleUrl>
      </Pair>
      <Pair>
        <key>highlight</key>
        <styleUrl>#icon-1669-0288D1-nodesc-highlight</styleUrl>
      </Pair>
    </StyleMap>
    <Style id="icon-1671-FF5252-nodesc-normal">
      <IconStyle>
        <color>ff5252ff</color>
        <scale>1</scale>
        <Icon>
          <href>https://www.gstatic.com/mapspro/images/stock/503-wht-blank_maps.png</href>
        </Icon>
      </IconStyle>
      <LabelStyle>
        <scale>0</scale>
      </LabelStyle>
      <BalloonStyle>
        <text><![CDATA[<h3>$[name]</h3>]]></text>
      </BalloonStyle>
    </Style>
    <Style id="icon-1671-FF5252-nodesc-highlight">
      <IconStyle>
        <color>ff5252ff</color>
        <scale>1</scale>
        <Icon>
          <href>https://www.gstatic.com/mapspro/images/stock/503-wht-blank_maps.png</href>
        </Icon>
      </IconStyle>
      <LabelStyle>
        <scale>1</scale>
      </LabelStyle>
      <BalloonStyle>
        <text><![CDATA[<h3>$[name]</h3>]]></text>
      </BalloonStyle>
    </Style>
    <StyleMap id="icon-1671-FF5252-nodesc">
      <Pair>
        <key>normal</key>
        <styleUrl>#icon-1671-FF5252-nodesc-normal</styleUrl>
      </Pair>
      <Pair>
        <key>highlight</key>
        <styleUrl>#icon-1671-FF5252-nodesc-highlight</styleUrl>
      </Pair>
    </StyleMap>
    <Style id="icon-1886-7CB342-nodesc-normal">
      <IconStyle>
        <color>ff42b37c</color>
        <scale>1</scale>
        <Icon>
          <href>https://www.gstatic.com/mapspro/images/stock/503-wht-blank_maps.png</href>
        </Icon>
      </IconStyle>
      <LabelStyle>
        <scale>0</scale>
      </LabelStyle>
      <BalloonStyle>
        <text><![CDATA[<h3>$[name]</h3>]]></text>
      </BalloonStyle>
    </Style>
    <Style id="icon-1886-7CB342-nodesc-highlight">
      <IconStyle>
        <color>ff42b37c</color>
        <scale>1</scale>
        <Icon>
          <href>https://www.gstatic.com/mapspro/images/stock/503-wht-blank_maps.png</href>
        </Icon>
      </IconStyle>
      <LabelStyle>
        <scale>1</scale>
      </LabelStyle>
      <BalloonStyle>
        <text><![CDATA[<h3>$[name]</h3>]]></text>
      </BalloonStyle>
    </Style>
    <StyleMap id="icon-1886-7CB342-nodesc">
      <Pair>
        <key>normal</key>
        <styleUrl>#icon-1886-7CB342-nodesc-normal</styleUrl>
      </Pair>
      <Pair>
        <key>highlight</key>
        <styleUrl>#icon-1886-7CB342-nodesc-highlight</styleUrl>
      </Pair>
    </StyleMap>
    <Style id="icon-1899-FF5252-nodesc-normal">
      <IconStyle>
        <color>ff5252ff</color>
        <scale>1</scale>
        <Icon>
          <href>https://www.gstatic.com/mapspro/images/stock/503-wht-blank_maps.png</href>
        </Icon>
        <hotSpot x="32" xunits="pixels" y="64" yunits="insetPixels"/>
      </IconStyle>
      <LabelStyle>
        <scale>0</scale>
      </LabelStyle>
      <BalloonStyle>
        <text><![CDATA[<h3>$[name]</h3>]]></text>
      </BalloonStyle>
    </Style>
    <Style id="icon-1899-FF5252-nodesc-highlight">
      <IconStyle>
        <color>ff5252ff</color>
        <scale>1</scale>
        <Icon>
          <href>https://www.gstatic.com/mapspro/images/stock/503-wht-blank_maps.png</href>
        </Icon>
        <hotSpot x="32" xunits="pixels" y="64" yunits="insetPixels"/>
      </IconStyle>
      <LabelStyle>
        <scale>1</scale>
      </LabelStyle>
      <BalloonStyle>
        <text><![CDATA[<h3>$[name]</h3>]]></text>
      </BalloonStyle>
    </Style>
    <StyleMap id="icon-1899-FF5252-nodesc">
      <Pair>
        <key>normal</key>
        <styleUrl>#icon-1899-FF5252-nodesc-normal</styleUrl>
      </Pair>
      <Pair>
        <key>highlight</key>
        <styleUrl>#icon-1899-FF5252-nodesc-highlight</styleUrl>
      </Pair>
    </StyleMap>
    <Style id="line-000000-1581-nodesc-normal">
      <LineStyle>
        <color>ff000000</color>
        <width>1.581</width>
      </LineStyle>
      <BalloonStyle>
        <text><![CDATA[<h3>$[name]</h3>]]></text>
      </BalloonStyle>
    </Style>
    <Style id="line-000000-1581-nodesc-highlight">
      <LineStyle>
        <color>ff000000</color>
        <width>2.3715</width>
      </LineStyle>
      <BalloonStyle>
        <text><![CDATA[<h3>$[name]</h3>]]></text>
      </BalloonStyle>
    </Style>
    <StyleMap id="line-000000-1581-nodesc">
      <Pair>
        <key>normal</key>
        <styleUrl>#line-000000-1581-nodesc-normal</styleUrl>
      </Pair>
      <Pair>
        <key>highlight</key>
        <styleUrl>#line-000000-1581-nodesc-highlight</styleUrl>
      </Pair>
    </StyleMap>
    <Style id="line-000000-2163-nodesc-normal">
      <LineStyle>
        <color>ff000000</color>
        <width>2.163</width>
      </LineStyle>
      <BalloonStyle>
        <text><![CDATA[<h3>$[name]</h3>]]></text>
      </BalloonStyle>
    </Style>
    <Style id="line-000000-2163-nodesc-highlight">
      <LineStyle>
        <color>ff000000</color>
        <width>3.2445</width>
      </LineStyle>
      <BalloonStyle>
        <text><![CDATA[<h3>$[name]</h3>]]></text>
      </BalloonStyle>
    </Style>
    <StyleMap id="line-000000-2163-nodesc">
      <Pair>
        <key>normal</key>
        <styleUrl>#line-000000-2163-nodesc-normal</styleUrl>
      </Pair>
      <Pair>
        <key>highlight</key>
        <styleUrl>#line-000000-2163-nodesc-highlight</styleUrl>
      </Pair>
    </StyleMap>
    <Style id="line-000000-2356-nodesc-normal">
      <LineStyle>
        <color>ff000000</color>
        <width>2.356</width>
      </LineStyle>
      <BalloonStyle>
        <text><![CDATA[<h3>$[name]</h3>]]></text>
      </BalloonStyle>
    </Style>
    <Style id="line-000000-2356-nodesc-highlight">
      <LineStyle>
        <color>ff000000</color>
        <width>3.534</width>
      </LineStyle>
      <BalloonStyle>
        <text><![CDATA[<h3>$[name]</h3>]]></text>
      </BalloonStyle>
    </Style>
    <StyleMap id="line-000000-2356-nodesc">
      <Pair>
        <key>normal</key>
        <styleUrl>#line-000000-2356-nodesc-normal</styleUrl>
      </Pair>
      <Pair>
        <key>highlight</key>
        <styleUrl>#line-000000-2356-nodesc-highlight</styleUrl>
      </Pair>
    </StyleMap>
    <Style id="line-000000-2550-nodesc-normal">
      <LineStyle>
        <color>ff000000</color>
        <width>2.55</width>
      </LineStyle>
      <BalloonStyle>
        <text><![CDATA[<h3>$[name]</h3>]]></text>
      </BalloonStyle>
    </Style>
    <Style id="line-000000-2550-nodesc-highlight">
      <LineStyle>
        <color>ff000000</color>
        <width>3.825</width>
      </LineStyle>
      <BalloonStyle>
        <text><![CDATA[<h3>$[name]</h3>]]></text>
      </BalloonStyle>
    </Style>
    <StyleMap id="line-000000-2550-nodesc">
      <Pair>
        <key>normal</key>
        <styleUrl>#line-000000-2550-nodesc-normal</styleUrl>
      </Pair>
      <Pair>
        <key>highlight</key>
        <styleUrl>#line-000000-2550-nodesc-highlight</styleUrl>
      </Pair>
    </StyleMap>
    <Style id="line-000000-2744-nodesc-normal">
      <LineStyle>
        <color>ff000000</color>
        <width>2.744</width>
      </LineStyle>
      <BalloonStyle>
        <text><![CDATA[<h3>$[name]</h3>]]></text>
      </BalloonStyle>
    </Style>
    <Style id="line-000000-2744-nodesc-highlight">
      <LineStyle>
        <color>ff000000</color>
        <width>4.116</width>
      </LineStyle>
      <BalloonStyle>
        <text><![CDATA[<h3>$[name]</h3>]]></text>
      </BalloonStyle>
    </Style>
    <StyleMap id="line-000000-2744-nodesc">
      <Pair>
        <key>normal</key>
        <styleUrl>#line-000000-2744-nodesc-normal</styleUrl>
      </Pair>
      <Pair>
        <key>highlight</key>
        <styleUrl>#line-000000-2744-nodesc-highlight</styleUrl>
      </Pair>
    </StyleMap>
    <Style id="line-000000-2938-nodesc-normal">
      <LineStyle>
        <color>ff000000</color>
        <width>2.938</width>
      </LineStyle>
      <BalloonStyle>
        <text><![CDATA[<h3>$[name]</h3>]]></text>
      </BalloonStyle>
    </Style>
    <Style id="line-000000-2938-nodesc-highlight">
      <LineStyle>
        <color>ff000000</color>
        <width>4.407</width>
      </LineStyle>
      <BalloonStyle>
        <text><![CDATA[<h3>$[name]</h3>]]></text>
      </BalloonStyle>
    </Style>
    <StyleMap id="line-000000-2938-nodesc">
      <Pair>
        <key>normal</key>
        <styleUrl>#line-000000-2938-nodesc-normal</styleUrl>
      </Pair>
      <Pair>
        <key>highlight</key>
        <styleUrl>#line-000000-2938-nodesc-highlight</styleUrl>
      </Pair>
    </StyleMap>
    <Style id="line-000000-2976-nodesc-normal">
      <LineStyle>
        <color>ff000000</color>
        <width>2.976</width>
      </LineStyle>
      <BalloonStyle>
        <text><![CDATA[<h3>$[name]</h3>]]></text>
      </BalloonStyle>
    </Style>
    <Style id="line-000000-2976-nodesc-highlight">
      <LineStyle>
        <color>ff000000</color>
        <width>4.464</width>
      </LineStyle>
      <BalloonStyle>
        <text><![CDATA[<h3>$[name]</h3>]]></text>
      </BalloonStyle>
    </Style>
    <StyleMap id="line-000000-2976-nodesc">
      <Pair>
        <key>normal</key>
        <styleUrl>#line-000000-2976-nodesc-normal</styleUrl>
      </Pair>
      <Pair>
        <key>highlight</key>
        <styleUrl>#line-000000-2976-nodesc-highlight</styleUrl>
      </Pair>
    </StyleMap>
    <Style id="line-000000-3131-nodesc-normal">
      <LineStyle>
        <color>ff000000</color>
        <width>3.131</width>
      </LineStyle>
      <BalloonStyle>
        <text><![CDATA[<h3>$[name]</h3>]]></text>
      </BalloonStyle>
    </Style>
    <Style id="line-000000-3131-nodesc-highlight">
      <LineStyle>
        <color>ff000000</color>
        <width>4.6965</width>
      </LineStyle>
      <BalloonStyle>
        <text><![CDATA[<h3>$[name]</h3>]]></text>
      </BalloonStyle>
    </Style>
    <StyleMap id="line-000000-3131-nodesc">
      <Pair>
        <key>normal</key>
        <styleUrl>#line-000000-3131-nodesc-normal</styleUrl>
      </Pair>
      <Pair>
        <key>highlight</key>
        <styleUrl>#line-000000-3131-nodesc-highlight</styleUrl>
      </Pair>
    </StyleMap>
    <Style id="line-000000-3325-nodesc-normal">
      <LineStyle>
        <color>ff000000</color>
        <width>3.325</width>
      </LineStyle>
      <BalloonStyle>
        <text><![CDATA[<h3>$[name]</h3>]]></text>
      </BalloonStyle>
    </Style>
    <Style id="line-000000-3325-nodesc-highlight">
      <LineStyle>
        <color>ff000000</color>
        <width>4.9875</width>
      </LineStyle>
      <BalloonStyle>
        <text><![CDATA[<h3>$[name]</h3>]]></text>
      </BalloonStyle>
    </Style>
    <StyleMap id="line-000000-3325-nodesc">
      <Pair>
        <key>normal</key>
        <styleUrl>#line-000000-3325-nodesc-normal</styleUrl>
      </Pair>
      <Pair>
        <key>highlight</key>
        <styleUrl>#line-000000-3325-nodesc-highlight</styleUrl>
      </Pair>
    </StyleMap>
    <Style id="line-000000-3519-nodesc-normal">
      <LineStyle>
        <color>ff000000</color>
        <width>3.519</width>
      </LineStyle>
      <BalloonStyle>
        <text><![CDATA[<h3>$[name]</h3>]]></text>
      </BalloonStyle>
    </Style>
    <Style id="line-000000-3519-nodesc-highlight">
      <LineStyle>
        <color>ff000000</color>
        <width>5.2785</width>
      </LineStyle>
      <BalloonStyle>
        <text><![CDATA[<h3>$[name]</h3>]]></text>
      </BalloonStyle>
    </Style>
    <StyleMap id="line-000000-3519-nodesc">
      <Pair>
        <key>normal</key>
        <styleUrl>#line-000000-3519-nodesc-normal</styleUrl>
      </Pair>
      <Pair>
        <key>highlight</key>
        <styleUrl>#line-000000-3519-nodesc-highlight</styleUrl>
      </Pair>
    </StyleMap>
    <Style id="line-000000-3713-nodesc-normal">
      <LineStyle>
        <color>ff000000</color>
        <width>3.713</width>
      </LineStyle>
      <BalloonStyle>
        <text><![CDATA[<h3>$[name]</h3>]]></text>
      </BalloonStyle>
    </Style>
    <Style id="line-000000-3713-nodesc-highlight">
      <LineStyle>
        <color>ff000000</color>
        <width>5.5695</width>
      </LineStyle>
      <BalloonStyle>
        <text><![CDATA[<h3>$[name]</h3>]]></text>
      </BalloonStyle>
    </Style>
    <StyleMap id="line-000000-3713-nodesc">
      <Pair>
        <key>normal</key>
        <styleUrl>#line-000000-3713-nodesc-normal</styleUrl>
      </Pair>
      <Pair>
        <key>highlight</key>
        <styleUrl>#line-000000-3713-nodesc-highlight</styleUrl>
      </Pair>
    </StyleMap>
    <Style id="line-000000-4294-nodesc-normal">
      <LineStyle>
        <color>ff000000</color>
        <width>4.294</width>
      </LineStyle>
      <BalloonStyle>
        <text><![CDATA[<h3>$[name]</h3>]]></text>
      </BalloonStyle>
    </Style>
    <Style id="line-000000-4294-nodesc-highlight">
      <LineStyle>
        <color>ff000000</color>
        <width>6.441</width>
      </LineStyle>
      <BalloonStyle>
        <text><![CDATA[<h3>$[name]</h3>]]></text>
      </BalloonStyle>
    </Style>
    <StyleMap id="line-000000-4294-nodesc">
      <Pair>
        <key>normal</key>
        <styleUrl>#line-000000-4294-nodesc-normal</styleUrl>
      </Pair>
      <Pair>
        <key>highlight</key>
        <styleUrl>#line-000000-4294-nodesc-highlight</styleUrl>
      </Pair>
    </StyleMap>
    <Style id="line-000000-5650-nodesc-normal">
      <LineStyle>
        <color>ff000000</color>
        <width>5.65</width>
      </LineStyle>
      <BalloonStyle>
        <text><![CDATA[<h3>$[name]</h3>]]></text>
      </BalloonStyle>
    </Style>
    <Style id="line-000000-5650-nodesc-highlight">
      <LineStyle>
        <color>ff000000</color>
        <width>8.475</width>
      </LineStyle>
      <BalloonStyle>
        <text><![CDATA[<h3>$[name]</h3>]]></text>
      </BalloonStyle>
    </Style>
    <StyleMap id="line-000000-5650-nodesc">
      <Pair>
        <key>normal</key>
        <styleUrl>#line-000000-5650-nodesc-normal</styleUrl>
      </Pair>
      <Pair>
        <key>highlight</key>
        <styleUrl>#line-000000-5650-nodesc-highlight</styleUrl>
      </Pair>
    </StyleMap>
    <Style id="line-000000-6038-nodesc-normal">
      <LineStyle>
        <color>ff000000</color>
        <width>6.038</width>
      </LineStyle>
      <BalloonStyle>
        <text><![CDATA[<h3>$[name]</h3>]]></text>
      </BalloonStyle>
    </Style>
    <Style id="line-000000-6038-nodesc-highlight">
      <LineStyle>
        <color>ff000000</color>
        <width>9.057</width>
      </LineStyle>
      <BalloonStyle>
        <text><![CDATA[<h3>$[name]</h3>]]></text>
      </BalloonStyle>
    </Style>
    <StyleMap id="line-000000-6038-nodesc">
      <Pair>
        <key>normal</key>
        <styleUrl>#line-000000-6038-nodesc-normal</styleUrl>
      </Pair>
      <Pair>
        <key>highlight</key>
        <styleUrl>#line-000000-6038-nodesc-highlight</styleUrl>
      </Pair>
    </StyleMap>
    <Style id="line-000000-6270-nodesc-normal">
      <LineStyle>
        <color>ff000000</color>
        <width>6.27</width>
      </LineStyle>
      <BalloonStyle>
        <text><![CDATA[<h3>$[name]</h3>]]></text>
      </BalloonStyle>
    </Style>
    <Style id="line-000000-6270-nodesc-highlight">
      <LineStyle>
        <color>ff000000</color>
        <width>9.405</width>
      </LineStyle>
      <BalloonStyle>
        <text><![CDATA[<h3>$[name]</h3>]]></text>
      </BalloonStyle>
    </Style>
    <StyleMap id="line-000000-6270-nodesc">
      <Pair>
        <key>normal</key>
        <styleUrl>#line-000000-6270-nodesc-normal</styleUrl>
      </Pair>
      <Pair>
        <key>highlight</key>
        <styleUrl>#line-000000-6270-nodesc-highlight</styleUrl>
      </Pair>
    </StyleMap>
    <Style id="poly-F57C00-4201-0-nodesc-normal">
      <LineStyle>
        <color>ff007cf5</color>
        <width>4.201</width>
      </LineStyle>
      <PolyStyle>
        <color>00007cf5</color>
        <fill>1</fill>
        <outline>1</outline>
      </PolyStyle>
      <BalloonStyle>
        <text><![CDATA[<h3>$[name]</h3>]]></text>
      </BalloonStyle>
    </Style>
    <Style id="poly-F57C00-4201-0-nodesc-highlight">
      <LineStyle>
        <color>ff007cf5</color>
        <width>6.3015</width>
      </LineStyle>
      <PolyStyle>
        <color>00007cf5</color>
        <fill>1</fill>
        <outline>1</outline>
      </PolyStyle>
      <BalloonStyle>
        <text><![CDATA[<h3>$[name]</h3>]]></text>
      </BalloonStyle>
    </Style>
    <StyleMap id="poly-F57C00-4201-0-nodesc">
      <Pair>
        <key>normal</key>
        <styleUrl>#poly-F57C00-4201-0-nodesc-normal</styleUrl>
      </Pair>
      <Pair>
        <key>highlight</key>
        <styleUrl>#poly-F57C00-4201-0-nodesc-highlight</styleUrl>
      </Pair>
    </StyleMap>
    <Style id="poly-F57C00-4501-0-nodesc-normal">
      <LineStyle>
        <color>ff007cf5</color>
        <width>4.501</width>
      </LineStyle>
      <PolyStyle>
        <color>00007cf5</color>
        <fill>1</fill>
        <outline>1</outline>
      </PolyStyle>
      <BalloonStyle>
        <text><![CDATA[<h3>$[name]</h3>]]></text>
      </BalloonStyle>
    </Style>
    <Style id="poly-F57C00-4501-0-nodesc-highlight">
      <LineStyle>
        <color>ff007cf5</color>
        <width>6.7515</width>
      </LineStyle>
      <PolyStyle>
        <color>00007cf5</color>
        <fill>1</fill>
        <outline>1</outline>
      </PolyStyle>
      <BalloonStyle>
        <text><![CDATA[<h3>$[name]</h3>]]></text>
      </BalloonStyle>
    </Style>
    <StyleMap id="poly-F57C00-4501-0-nodesc">
      <Pair>
        <key>normal</key>
        <styleUrl>#poly-F57C00-4501-0-nodesc-normal</styleUrl>
      </Pair>
      <Pair>
        <key>highlight</key>
        <styleUrl>#poly-F57C00-4501-0-nodesc-highlight</styleUrl>
      </Pair>
    </StyleMap>
    <Style id="poly-FF5252-4101-112-nodesc-normal">
      <LineStyle>
        <color>ff5252ff</color>
        <width>4.101</width>
      </LineStyle>
      <PolyStyle>
        <color>705252ff</color>
        <fill>1</fill>
        <outline>1</outline>
      </PolyStyle>
      <BalloonStyle>
        <text><![CDATA[<h3>$[name]</h3>]]></text>
      </BalloonStyle>
    </Style>
    <Style id="poly-FF5252-4101-112-nodesc-highlight">
      <LineStyle>
        <color>ff5252ff</color>
        <width>6.1515</width>
      </LineStyle>
      <PolyStyle>
        <color>705252ff</color>
        <fill>1</fill>
        <outline>1</outline>
      </PolyStyle>
      <BalloonStyle>
        <text><![CDATA[<h3>$[name]</h3>]]></text>
      </BalloonStyle>
    </Style>
    <StyleMap id="poly-FF5252-4101-112-nodesc">
      <Pair>
        <key>normal</key>
        <styleUrl>#poly-FF5252-4101-112-nodesc-normal</styleUrl>
      </Pair>
      <Pair>
        <key>highlight</key>
        <styleUrl>#poly-FF5252-4101-112-nodesc-highlight</styleUrl>
      </Pair>
    </StyleMap>
    <Style id="poly-FF5252-4201-115-nodesc-normal">
      <LineStyle>
        <color>ff5252ff</color>
        <width>4.201</width>
      </LineStyle>
      <PolyStyle>
        <color>735252ff</color>
        <fill>1</fill>
        <outline>1</outline>
      </PolyStyle>
      <BalloonStyle>
        <text><![CDATA[<h3>$[name]</h3>]]></text>
      </BalloonStyle>
    </Style>
    <Style id="poly-FF5252-4201-115-nodesc-highlight">
      <LineStyle>
        <color>ff5252ff</color>
        <width>6.3015</width>
      </LineStyle>
      <PolyStyle>
        <color>735252ff</color>
        <fill>1</fill>
        <outline>1</outline>
      </PolyStyle>
      <BalloonStyle>
        <text><![CDATA[<h3>$[name]</h3>]]></text>
      </BalloonStyle>
    </Style>
    <StyleMap id="poly-FF5252-4201-115-nodesc">
      <Pair>
        <key>normal</key>
        <styleUrl>#poly-FF5252-4201-115-nodesc-normal</styleUrl>
      </Pair>
      <Pair>
        <key>highlight</key>
        <styleUrl>#poly-FF5252-4201-115-nodesc-highlight</styleUrl>
      </Pair>
    </StyleMap>
    <Style id="poly-FF5252-4801-115-nodesc-normal">
      <LineStyle>
        <color>ff5252ff</color>
        <width>4.801</width>
      </LineStyle>
      <PolyStyle>
        <color>735252ff</color>
        <fill>1</fill>
        <outline>1</outline>
      </PolyStyle>
      <BalloonStyle>
        <text><![CDATA[<h3>$[name]</h3>]]></text>
      </BalloonStyle>
    </Style>
    <Style id="poly-FF5252-4801-115-nodesc-highlight">
      <LineStyle>
        <color>ff5252ff</color>
        <width>7.2015</width>
      </LineStyle>
      <PolyStyle>
        <color>735252ff</color>
        <fill>1</fill>
        <outline>1</outline>
      </PolyStyle>
      <BalloonStyle>
        <text><![CDATA[<h3>$[name]</h3>]]></text>
      </BalloonStyle>
    </Style>
    <StyleMap id="poly-FF5252-4801-115-nodesc">
      <Pair>
        <key>normal</key>
        <styleUrl>#poly-FF5252-4801-115-nodesc-normal</styleUrl>
      </Pair>
      <Pair>
        <key>highlight</key>
        <styleUrl>#poly-FF5252-4801-115-nodesc-highlight</styleUrl>
      </Pair>
    </StyleMap>
    <Style id="poly-FF5252-5001-125-nodesc-normal">
      <LineStyle>
        <color>ff5252ff</color>
        <width>5.001</width>
      </LineStyle>
      <PolyStyle>
        <color>7d5252ff</color>
        <fill>1</fill>
        <outline>1</outline>
      </PolyStyle>
      <BalloonStyle>
        <text><![CDATA[<h3>$[name]</h3>]]></text>
      </BalloonStyle>
    </Style>
    <Style id="poly-FF5252-5001-125-nodesc-highlight">
      <LineStyle>
        <color>ff5252ff</color>
        <width>7.5015</width>
      </LineStyle>
      <PolyStyle>
        <color>7d5252ff</color>
        <fill>1</fill>
        <outline>1</outline>
      </PolyStyle>
      <BalloonStyle>
        <text><![CDATA[<h3>$[name]</h3>]]></text>
      </BalloonStyle>
    </Style>
    <StyleMap id="poly-FF5252-5001-125-nodesc">
      <Pair>
        <key>normal</key>
        <styleUrl>#poly-FF5252-5001-125-nodesc-normal</styleUrl>
      </Pair>
      <Pair>
        <key>highlight</key>
        <styleUrl>#poly-FF5252-5001-125-nodesc-highlight</styleUrl>
      </Pair>
    </StyleMap>
    <Style id="poly-FF5252-5301-125-nodesc-normal">
      <LineStyle>
        <color>ff5252ff</color>
        <width>5.301</width>
      </LineStyle>
      <PolyStyle>
        <color>7d5252ff</color>
        <fill>1</fill>
        <outline>1</outline>
      </PolyStyle>
      <BalloonStyle>
        <text><![CDATA[<h3>$[name]</h3>]]></text>
      </BalloonStyle>
    </Style>
    <Style id="poly-FF5252-5301-125-nodesc-highlight">
      <LineStyle>
        <color>ff5252ff</color>
        <width>7.9515</width>
      </LineStyle>
      <PolyStyle>
        <color>7d5252ff</color>
        <fill>1</fill>
        <outline>1</outline>
      </PolyStyle>
      <BalloonStyle>
        <text><![CDATA[<h3>$[name]</h3>]]></text>
      </BalloonStyle>
    </Style>
    <StyleMap id="poly-FF5252-5301-125-nodesc">
      <Pair>
        <key>normal</key>
        <styleUrl>#poly-FF5252-5301-125-nodesc-normal</styleUrl>
      </Pair>
      <Pair>
        <key>highlight</key>
        <styleUrl>#poly-FF5252-5301-125-nodesc-highlight</styleUrl>
      </Pair>
    </StyleMap>
    <Style id="poly-FF5252-5501-105-nodesc-normal">
      <LineStyle>
        <color>ff5252ff</color>
        <width>5.501</width>
      </LineStyle>
      <PolyStyle>
        <color>695252ff</color>
        <fill>1</fill>
        <outline>1</outline>
      </PolyStyle>
      <BalloonStyle>
        <text><![CDATA[<h3>$[name]</h3>]]></text>
      </BalloonStyle>
    </Style>
    <Style id="poly-FF5252-5501-105-nodesc-highlight">
      <LineStyle>
        <color>ff5252ff</color>
        <width>8.2515</width>
      </LineStyle>
      <PolyStyle>
        <color>695252ff</color>
        <fill>1</fill>
        <outline>1</outline>
      </PolyStyle>
      <BalloonStyle>
        <text><![CDATA[<h3>$[name]</h3>]]></text>
      </BalloonStyle>
    </Style>
    <StyleMap id="poly-FF5252-5501-105-nodesc">
      <Pair>
        <key>normal</key>
        <styleUrl>#poly-FF5252-5501-105-nodesc-normal</styleUrl>
      </Pair>
      <Pair>
        <key>highlight</key>
        <styleUrl>#poly-FF5252-5501-105-nodesc-highlight</styleUrl>
      </Pair>
    </StyleMap>
    <Style id="poly-FF5252-5701-92-nodesc-normal">
      <LineStyle>
        <color>ff5252ff</color>
        <width>5.701</width>
      </LineStyle>
      <PolyStyle>
        <color>5c5252ff</color>
        <fill>1</fill>
        <outline>1</outline>
      </PolyStyle>
      <BalloonStyle>
        <text><![CDATA[<h3>$[name]</h3>]]></text>
      </BalloonStyle>
    </Style>
    <Style id="poly-FF5252-5701-92-nodesc-highlight">
      <LineStyle>
        <color>ff5252ff</color>
        <width>8.5515</width>
      </LineStyle>
      <PolyStyle>
        <color>5c5252ff</color>
        <fill>1</fill>
        <outline>1</outline>
      </PolyStyle>
      <BalloonStyle>
        <text><![CDATA[<h3>$[name]</h3>]]></text>
      </BalloonStyle>
    </Style>
    <StyleMap id="poly-FF5252-5701-92-nodesc">
      <Pair>
        <key>normal</key>
        <styleUrl>#poly-FF5252-5701-92-nodesc-normal</styleUrl>
      </Pair>
      <Pair>
        <key>highlight</key>
        <styleUrl>#poly-FF5252-5701-92-nodesc-highlight</styleUrl>
      </Pair>
    </StyleMap>
    <Style id="poly-FFEA00-3701-0-nodesc-normal">
      <LineStyle>
        <color>ff00eaff</color>
        <width>3.701</width>
      </LineStyle>
      <PolyStyle>
        <color>0000eaff</color>
        <fill>1</fill>
        <outline>1</outline>
      </PolyStyle>
      <BalloonStyle>
        <text><![CDATA[<h3>$[name]</h3>]]></text>
      </BalloonStyle>
    </Style>
    <Style id="poly-FFEA00-3701-0-nodesc-highlight">
      <LineStyle>
        <color>ff00eaff</color>
        <width>5.5515</width>
      </LineStyle>
      <PolyStyle>
        <color>0000eaff</color>
        <fill>1</fill>
        <outline>1</outline>
      </PolyStyle>
      <BalloonStyle>
        <text><![CDATA[<h3>$[name]</h3>]]></text>
      </BalloonStyle>
    </Style>
    <StyleMap id="poly-FFEA00-3701-0-nodesc">
      <Pair>
        <key>normal</key>
        <styleUrl>#poly-FFEA00-3701-0-nodesc-normal</styleUrl>
      </Pair>
      <Pair>
        <key>highlight</key>
        <styleUrl>#poly-FFEA00-3701-0-nodesc-highlight</styleUrl>
      </Pair>
    </StyleMap>
    <Style id="poly-FFEA00-4401-0-nodesc-normal">
      <LineStyle>
        <color>ff00eaff</color>
        <width>4.401</width>
      </LineStyle>
      <PolyStyle>
        <color>0000eaff</color>
        <fill>1</fill>
        <outline>1</outline>
      </PolyStyle>
      <BalloonStyle>
        <text><![CDATA[<h3>$[name]</h3>]]></text>
      </BalloonStyle>
    </Style>
    <Style id="poly-FFEA00-4401-0-nodesc-highlight">
      <LineStyle>
        <color>ff00eaff</color>
        <width>6.6015</width>
      </LineStyle>
      <PolyStyle>
        <color>0000eaff</color>
        <fill>1</fill>
        <outline>1</outline>
      </PolyStyle>
      <BalloonStyle>
        <text><![CDATA[<h3>$[name]</h3>]]></text>
      </BalloonStyle>
    </Style>
    <StyleMap id="poly-FFEA00-4401-0-nodesc">
      <Pair>
        <key>normal</key>
        <styleUrl>#poly-FFEA00-4401-0-nodesc-normal</styleUrl>
      </Pair>
      <Pair>
        <key>highlight</key>
        <styleUrl>#poly-FFEA00-4401-0-nodesc-highlight</styleUrl>
      </Pair>
    </StyleMap>
    <Style id="poly-FFEA00-4901-0-nodesc-normal">
      <LineStyle>
        <color>ff00eaff</color>
        <width>4.901</width>
      </LineStyle>
      <PolyStyle>
        <color>0000eaff</color>
        <fill>1</fill>
        <outline>1</outline>
      </PolyStyle>
      <BalloonStyle>
        <text><![CDATA[<h3>$[name]</h3>]]></text>
      </BalloonStyle>
    </Style>
    <Style id="poly-FFEA00-4901-0-nodesc-highlight">
      <LineStyle>
        <color>ff00eaff</color>
        <width>7.3515</width>
      </LineStyle>
      <PolyStyle>
        <color>0000eaff</color>
        <fill>1</fill>
        <outline>1</outline>
      </PolyStyle>
      <BalloonStyle>
        <text><![CDATA[<h3>$[name]</h3>]]></text>
      </BalloonStyle>
    </Style>
    <StyleMap id="poly-FFEA00-4901-0-nodesc">
      <Pair>
        <key>normal</key>
        <styleUrl>#poly-FFEA00-4901-0-nodesc-normal</styleUrl>
      </Pair>
      <Pair>
        <key>highlight</key>
        <styleUrl>#poly-FFEA00-4901-0-nodesc-highlight</styleUrl>
      </Pair>
    </StyleMap>
    <Style id="poly-FFEA00-5001-0-nodesc-normal">
      <LineStyle>
        <color>ff00eaff</color>
        <width>5.001</width>
      </LineStyle>
      <PolyStyle>
        <color>0000eaff</color>
        <fill>1</fill>
        <outline>1</outline>
      </PolyStyle>
      <BalloonStyle>
        <text><![CDATA[<h3>$[name]</h3>]]></text>
      </BalloonStyle>
    </Style>
    <Style id="poly-FFEA00-5001-0-nodesc-highlight">
      <LineStyle>
        <color>ff00eaff</color>
        <width>7.5015</width>
      </LineStyle>
      <PolyStyle>
        <color>0000eaff</color>
        <fill>1</fill>
        <outline>1</outline>
      </PolyStyle>
      <BalloonStyle>
        <text><![CDATA[<h3>$[name]</h3>]]></text>
      </BalloonStyle>
    </Style>
    <StyleMap id="poly-FFEA00-5001-0-nodesc">
      <Pair>
        <key>normal</key>
        <styleUrl>#poly-FFEA00-5001-0-nodesc-normal</styleUrl>
      </Pair>
      <Pair>
        <key>highlight</key>
        <styleUrl>#poly-FFEA00-5001-0-nodesc-highlight</styleUrl>
      </Pair>
    </StyleMap>
    <Style id="poly-FFEA00-5101-0-nodesc-normal">
      <LineStyle>
        <color>ff00eaff</color>
        <width>5.101</width>
      </LineStyle>
      <PolyStyle>
        <color>0000eaff</color>
        <fill>1</fill>
        <outline>1</outline>
      </PolyStyle>
      <BalloonStyle>
        <text><![CDATA[<h3>$[name]</h3>]]></text>
      </BalloonStyle>
    </Style>
    <Style id="poly-FFEA00-5101-0-nodesc-highlight">
      <LineStyle>
        <color>ff00eaff</color>
        <width>7.6515</width>
      </LineStyle>
      <PolyStyle>
        <color>0000eaff</color>
        <fill>1</fill>
        <outline>1</outline>
      </PolyStyle>
      <BalloonStyle>
        <text><![CDATA[<h3>$[name]</h3>]]></text>
      </BalloonStyle>
    </Style>
    <StyleMap id="poly-FFEA00-5101-0-nodesc">
      <Pair>
        <key>normal</key>
        <styleUrl>#poly-FFEA00-5101-0-nodesc-normal</styleUrl>
      </Pair>
      <Pair>
        <key>highlight</key>
        <styleUrl>#poly-FFEA00-5101-0-nodesc-highlight</styleUrl>
      </Pair>
    </StyleMap>
    <Folder>
      <name>Đường </name>
      <Placemark>
        <name>đường trục chính</name>
        <styleUrl>#line-000000-6270-nodesc</styleUrl>
        <LineString>
          <tessellate>1</tessellate>
          <coordinates>
            105.8688508,20.9102178,0
            105.8680032,20.9088748,0
            105.8674024,20.9077724,0
            105.8670269,20.9070207,0
            105.866469,20.9062089,0
            105.8658467,20.9056075,0
            105.8654283,20.9052968,0
            105.8649884,20.9046754,0
            105.8641286,20.9037232,0
            105.8633014,20.9024248,0
          </coordinates>
        </LineString>
      </Placemark>
      <Placemark>
        <name>Đường trục chính </name>
        <styleUrl>#line-000000-5650-nodesc</styleUrl>
        <LineString>
          <tessellate>1</tessellate>
          <coordinates>
            105.863426,20.9022088,0
            105.8647135,20.9018781,0
            105.8658293,20.9014271,0
            105.8667974,20.9010514,0
            105.86724,20.9010188,0
            105.8676933,20.9009236,0
            105.8690816,20.901073,0
            105.8693467,20.9005772,0
          </coordinates>
        </LineString>
      </Placemark>
      <Placemark>
        <name>Đường trục chính </name>
        <styleUrl>#line-000000-4294-nodesc</styleUrl>
        <LineString>
          <tessellate>1</tessellate>
          <coordinates>
            105.8658467,20.9056075,0
            105.8672433,20.90458,0
            105.8677637,20.9042693,0
            105.8679326,20.9041916,0
            105.868056,20.9040814,0
            105.8685748,20.9037934,0
            105.8688725,20.903593,0
            105.8690254,20.9034527,0
            105.8690649,20.902809,0
            105.8691561,20.9021475,0
            105.8691963,20.9018268,0
            105.8692525,20.901466,0
            105.8693115,20.9013257,0
            105.8693598,20.9011704,0
            105.869452,20.9008844,0
            105.8694332,20.900729,0
            105.8694198,20.9006488,0
            105.8693467,20.9005772,0
            105.8692092,20.9001006,0
            105.8639358,20.9012742,0
          </coordinates>
        </LineString>
      </Placemark>
      <Placemark>
        <name>Đường trục chính</name>
        <styleUrl>#line-000000-6038-nodesc</styleUrl>
        <LineString>
          <tessellate>1</tessellate>
          <coordinates>
            105.8649068,20.8990268,0
            105.8655398,20.900871,0
            105.8658105,20.901397,0
            105.8660869,20.9020637,0
            105.8664732,20.9029557,0
            105.8673422,20.90485,0
            105.8679511,20.9062391,0
            105.8681993,20.9066939,0
            105.8684661,20.9076096,0
            105.8682274,20.9077049,0
            105.8680906,20.9077775,0
            105.8678331,20.9079128,0
            105.8675508,20.9080108,0
          </coordinates>
        </LineString>
      </Placemark>
      <Placemark>
        <name>Đường nhánh</name>
        <styleUrl>#line-000000-3131-nodesc</styleUrl>
        <LineString>
          <tessellate>1</tessellate>
          <coordinates>
            105.8647135,20.9018781,0
            105.8648402,20.9022928,0
            105.8634938,20.9027288,0
          </coordinates>
        </LineString>
      </Placemark>
      <Placemark>
        <name>Đường nhánh </name>
        <styleUrl>#line-000000-2744-nodesc</styleUrl>
        <LineString>
          <tessellate>1</tessellate>
          <coordinates>
            105.8648402,20.9022928,0
            105.8649636,20.9024231,0
            105.8660794,20.9020572,0
            105.8666481,20.9018418,0
            105.8666062,20.901574,0
            105.866566,20.9014612,0
            105.8664587,20.9011844,0
          </coordinates>
        </LineString>
      </Placemark>
      <Placemark>
        <name>Đường nhánh </name>
        <styleUrl>#line-000000-2356-nodesc</styleUrl>
        <LineString>
          <tessellate>1</tessellate>
          <coordinates>
            105.8649636,20.9024231,0
            105.8653258,20.9032869,0
            105.8657978,20.9043944,0
            105.8649884,20.9046754,0
          </coordinates>
        </LineString>
      </Placemark>
      <Placemark>
        <name>Đường nhánh </name>
        <styleUrl>#line-000000-2356-nodesc</styleUrl>
        <LineString>
          <tessellate>1</tessellate>
          <coordinates>
            105.8645801,20.904234,0
            105.8655752,20.9038657,0
            105.8667125,20.9034673,0
          </coordinates>
        </LineString>
      </Placemark>
      <Placemark>
        <name>Đường nhánh </name>
        <styleUrl>#line-000000-2163-nodesc</styleUrl>
        <LineString>
          <tessellate>1</tessellate>
          <coordinates>
            105.8657978,20.9043944,0
            105.8669484,20.9039872,0
          </coordinates>
        </LineString>
      </Placemark>
      <Placemark>
        <name>Đường nhánh </name>
        <styleUrl>#line-000000-2550-nodesc</styleUrl>
        <LineString>
          <tessellate>1</tessellate>
          <coordinates>
            105.864103,20.9036905,0
            105.865318,20.9032621,0
            105.8664392,20.9028687,0
          </coordinates>
        </LineString>
      </Placemark>
      <Placemark>
        <name>Đường nhánh </name>
        <styleUrl>#line-000000-2163-nodesc</styleUrl>
        <LineString>
          <tessellate>1</tessellate>
          <coordinates>
            105.8650834,20.9027115,0
            105.8637852,20.9031876,0
          </coordinates>
        </LineString>
      </Placemark>
      <Placemark>
        <name>Đường nhánh </name>
        <styleUrl>#line-000000-2356-nodesc</styleUrl>
        <LineString>
          <tessellate>1</tessellate>
          <coordinates>
            105.864645,20.9018945,0
            105.8643929,20.9011717,0
          </coordinates>
        </LineString>
      </Placemark>
      <Placemark>
        <name>Đường nhánh</name>
        <styleUrl>#line-000000-3131-nodesc</styleUrl>
        <LineString>
          <tessellate>1</tessellate>
          <coordinates>
            105.8667826,20.903622,0
            105.8671286,20.9035143,0
            105.8669878,20.9029919,0
            105.8668567,20.902635,0
            105.8666695,20.9021001,0
            105.8666481,20.9018418,0
          </coordinates>
        </LineString>
      </Placemark>
      <Placemark>
        <name>Đường nhánh</name>
        <styleUrl>#line-000000-2356-nodesc</styleUrl>
        <LineString>
          <tessellate>1</tessellate>
          <coordinates>
            105.8671286,20.9035143,0
            105.8673502,20.9034444,0
            105.8674763,20.9034131,0
            105.8676453,20.903373,0
            105.86777,20.9033755,0
            105.8679454,20.9033716,0
            105.8679585,20.9035838,0
            105.8679853,20.9037479,0
            105.8680049,20.9039346,0
            105.8680599,20.9040687,0
            105.868056,20.9040814,0
          </coordinates>
        </LineString>
      </Placemark>
      <Placemark>
        <name>Đường nhánh</name>
        <styleUrl>#line-000000-3713-nodesc</styleUrl>
        <LineString>
          <tessellate>1</tessellate>
          <coordinates>
            105.8679454,20.9033716,0
            105.8679677,20.9030857,0
            105.868024,20.9029879,0
            105.8680508,20.9028426,0
            105.8680455,20.9026772,0
            105.8680702,20.9024059,0
            105.8681276,20.9020542,0
            105.8681892,20.9017304,0
            105.8682268,20.9016176,0
            105.8682616,20.9015775,0
            105.86833,20.9015337,0
            105.8684239,20.9015562,0
            105.8686009,20.901603,0
            105.8685951,20.901743,0
          </coordinates>
        </LineString>
      </Placemark>
      <Placemark>
        <name>Đường nhánh</name>
        <styleUrl>#line-000000-2938-nodesc</styleUrl>
        <LineString>
          <tessellate>1</tessellate>
          <coordinates>
            105.8667408,20.9010763,0
            105.8669687,20.9018706,0
            105.8670378,20.9021544,0
            105.8672819,20.9021093,0
            105.8673516,20.9023474,0
            105.8671907,20.9023875,0
          </coordinates>
        </LineString>
      </Placemark>
      <Placemark>
        <name>Đường nhánh</name>
        <styleUrl>#line-000000-2356-nodesc</styleUrl>
        <LineString>
          <tessellate>1</tessellate>
          <coordinates>
            105.8668849,20.9027057,0
            105.8664392,20.9028687,0
          </coordinates>
        </LineString>
      </Placemark>
      <Placemark>
        <name>Đường nhánh</name>
        <styleUrl>#line-000000-2744-nodesc</styleUrl>
        <LineString>
          <tessellate>1</tessellate>
          <coordinates>
            105.8667866,20.9024308,0
            105.8669759,20.9023492,0
          </coordinates>
        </LineString>
      </Placemark>
      <Placemark>
        <name>Đường nhánh </name>
        <styleUrl>#line-000000-3131-nodesc</styleUrl>
        <LineString>
          <tessellate>1</tessellate>
          <coordinates>
            105.8669687,20.9018706,0
            105.8673326,20.9018038,0
            105.8675568,20.9017788,0
            105.8677392,20.9018029,0
            105.8678612,20.901818,0
            105.8681523,20.9019044,0
          </coordinates>
        </LineString>
      </Placemark>
      <Placemark>
        <name>Đường nhánh </name>
        <styleUrl>#line-000000-3131-nodesc</styleUrl>
        <LineString>
          <tessellate>1</tessellate>
          <coordinates>
            105.86724,20.9010188,0
            105.8672385,20.9011506,0
            105.8672676,20.9013355,0
            105.8672861,20.9014974,0
            105.8672949,20.9018119,0
          </coordinates>
        </LineString>
      </Placemark>
      <Placemark>
        <name>Đường nhánh </name>
        <styleUrl>#line-000000-3325-nodesc</styleUrl>
        <LineString>
          <tessellate>1</tessellate>
          <coordinates>
            105.8675505,20.9004466,0
            105.8676189,20.9006608,0
            105.8676632,20.9007122,0
            105.8677007,20.9008324,0
            105.8677061,20.9009226,0
            105.867734,20.9009625,0
            105.8677917,20.9009888,0
            105.8678332,20.901198,0
            105.8676768,20.9012553,0
            105.8672676,20.9013355,0
          </coordinates>
        </LineString>
      </Placemark>
      <Placemark>
        <name>Đường nhánh </name>
        <styleUrl>#line-000000-3325-nodesc</styleUrl>
        <LineString>
          <tessellate>1</tessellate>
          <coordinates>
            105.8679523,20.9032922,0
            105.8681079,20.9032834,0
            105.8682098,20.9032367,0
            105.8684981,20.9032767,0
            105.868702,20.9032868,0
            105.8690399,20.9032442,0
            105.8699333,20.9030466,0
            105.871666,20.9026708,0
          </coordinates>
        </LineString>
      </Placemark>
      <Placemark>
        <name>Đường nhánh </name>
        <styleUrl>#line-000000-3519-nodesc</styleUrl>
        <LineString>
          <tessellate>1</tessellate>
          <coordinates>
            105.869336,20.901247,0
            105.8695345,20.9013072,0
            105.8695989,20.9016279,0
            105.8701666,20.9041048,0
          </coordinates>
        </LineString>
      </Placemark>
      <Placemark>
        <name>Đường nhánh</name>
        <styleUrl>#line-000000-2163-nodesc</styleUrl>
        <LineString>
          <tessellate>1</tessellate>
          <coordinates>
            105.8695989,20.9016279,0
            105.8699509,20.9015717,0
            105.8701655,20.9016795,0
            105.8704954,20.9018674,0
            105.8708879,20.9020919,0
            105.8711749,20.9021846,0
          </coordinates>
        </LineString>
      </Placemark>
      <Placemark>
        <name>Đường trục chính </name>
        <styleUrl>#line-000000-3325-nodesc</styleUrl>
        <LineString>
          <tessellate>1</tessellate>
          <coordinates>
            105.8692092,20.9001006,0
            105.8698335,20.8999643,0
            105.8703994,20.899839,0
            105.8706972,20.8997839,0
            105.8712655,20.8996594,0
          </coordinates>
        </LineString>
      </Placemark>
      <Placemark>
        <name>Đường nhánh </name>
        <styleUrl>#line-000000-2356-nodesc</styleUrl>
        <LineString>
          <tessellate>1</tessellate>
          <coordinates>
            105.8705767,20.8992427,0
            105.8707188,20.899779,0
          </coordinates>
        </LineString>
      </Placemark>
      <Placemark>
        <name>Đường nhánh </name>
        <styleUrl>#line-000000-2744-nodesc</styleUrl>
        <LineString>
          <tessellate>1</tessellate>
          <coordinates>
            105.8706594,20.8997852,0
            105.8708123,20.9003464,0
            105.8708986,20.900725,0
            105.8709871,20.9010758,0
            105.8711857,20.9021573,0
            105.8715049,20.9039439,0
          </coordinates>
        </LineString>
      </Placemark>
      <Placemark>
        <name>Đường nhánh </name>
        <styleUrl>#line-000000-2938-nodesc</styleUrl>
        <LineString>
          <tessellate>1</tessellate>
          <coordinates>
            105.8694525,20.9008485,0
            105.8694672,20.9008535,0
            105.869777,20.9010088,0
            105.8700653,20.9012475,0
            105.8702894,20.9013738,0
            105.8705489,20.9014767,0
          </coordinates>
        </LineString>
      </Placemark>
      <Placemark>
        <name>Đường nhánh </name>
        <styleUrl>#line-000000-3325-nodesc</styleUrl>
        <LineString>
          <tessellate>1</tessellate>
          <coordinates>
            105.867791,20.9042519,0
            105.8676556,20.9039449,0
          </coordinates>
        </LineString>
      </Placemark>
      <Placemark>
        <name>Đường nhánh </name>
        <styleUrl>#line-000000-3519-nodesc</styleUrl>
        <LineString>
          <tessellate>1</tessellate>
          <coordinates>
            105.8698659,20.89999,0
            105.870005,20.9001293,0
            105.8700988,20.9001995,0
            105.8701203,20.9002696,0
            105.8701091,20.9004073,0
            105.8700729,20.9005627,0
            105.870034,20.9006729,0
            105.869777,20.9010088,0
          </coordinates>
        </LineString>
      </Placemark>
      <Placemark>
        <name>Đường nhánh </name>
        <styleUrl>#line-000000-3325-nodesc</styleUrl>
        <LineString>
          <tessellate>1</tessellate>
          <coordinates>
            105.870034,20.9006729,0
            105.8703133,20.9008068,0
            105.8706928,20.900996,0
            105.8709101,20.9010762,0
            105.8709932,20.9010862,0
          </coordinates>
        </LineString>
      </Placemark>
      <Placemark>
        <name>Đường nhánh </name>
        <styleUrl>#line-000000-3519-nodesc</styleUrl>
        <LineString>
          <tessellate>1</tessellate>
          <coordinates>
            105.8681776,20.9003301,0
            105.8680488,20.8998014,0
          </coordinates>
        </LineString>
      </Placemark>
      <Placemark>
        <name>Đường nhánh </name>
        <styleUrl>#line-000000-2744-nodesc</styleUrl>
        <LineString>
          <tessellate>1</tessellate>
          <coordinates>
            105.8692092,20.9001006,0
            105.8690534,20.8993474,0
          </coordinates>
        </LineString>
      </Placemark>
      <Placemark>
        <name>Đường nhánh</name>
        <styleUrl>#line-000000-2938-nodesc</styleUrl>
        <LineString>
          <tessellate>1</tessellate>
          <coordinates>
            105.8683948,20.9015493,0
            105.8684444,20.9014704,0
            105.8684672,20.9013677,0
            105.8685276,20.9011221,0
            105.8685356,20.9010131,0
          </coordinates>
        </LineString>
      </Placemark>
      <Placemark>
        <name>Đường nhánh </name>
        <styleUrl>#line-000000-3325-nodesc</styleUrl>
        <LineString>
          <tessellate>1</tessellate>
          <coordinates>
            105.8684652,20.901387,0
            105.8687951,20.9014359,0
            105.8687978,20.901357,0
            105.8692779,20.9014196,0
          </coordinates>
        </LineString>
      </Placemark>
      <Placemark>
        <name>Đường nhánh </name>
        <styleUrl>#line-000000-2744-nodesc</styleUrl>
        <LineString>
          <tessellate>1</tessellate>
          <coordinates>
            105.8691995,20.9018119,0
            105.8688548,20.9018043,0
          </coordinates>
        </LineString>
      </Placemark>
      <Placemark>
        <name>Đường nhánh </name>
        <styleUrl>#line-000000-2938-nodesc</styleUrl>
        <LineString>
          <tessellate>1</tessellate>
          <coordinates>
            105.8691043,20.9025575,0
            105.8689299,20.9025074,0
            105.868895,20.9024898,0
            105.8689111,20.9024322,0
            105.8687368,20.9023771,0
            105.868372,20.9022869,0
            105.8684174,20.9020176,0
          </coordinates>
        </LineString>
      </Placemark>
      <Placemark>
        <name>Đường nhánh </name>
        <styleUrl>#line-000000-2356-nodesc</styleUrl>
        <LineString>
          <tessellate>1</tessellate>
          <coordinates>
            105.8687842,20.9023909,0
            105.868815,20.9022102,0
          </coordinates>
        </LineString>
      </Placemark>
      <Placemark>
        <name>Đường nhánh </name>
        <styleUrl>#line-000000-2976-nodesc</styleUrl>
        <LineString>
          <tessellate>1</tessellate>
          <coordinates>
            105.8687079,20.9023668,0
            105.8686448,20.9026361,0
          </coordinates>
        </LineString>
      </Placemark>
      <Placemark>
        <name>Đường nhánh </name>
        <styleUrl>#line-000000-2550-nodesc</styleUrl>
        <LineString>
          <tessellate>1</tessellate>
          <coordinates>
            105.8680455,20.9026772,0
            105.8682561,20.9026831,0
            105.8685163,20.9027194,0
          </coordinates>
        </LineString>
      </Placemark>
      <Placemark>
        <name>Đường nhánh </name>
        <styleUrl>#line-000000-3325-nodesc</styleUrl>
        <LineString>
          <tessellate>1</tessellate>
          <coordinates>
            105.8680455,20.9026894,0
            105.8678752,20.9026794,0
          </coordinates>
        </LineString>
      </Placemark>
      <Placemark>
        <name>Đường nhánh </name>
        <styleUrl>#line-000000-1581-nodesc</styleUrl>
        <LineString>
          <tessellate>1</tessellate>
          <coordinates>
            105.8684483,20.9032696,0
            105.8684576,20.9031155,0
            105.8684657,20.9030015,0
            105.8684845,20.9029463,0
            105.8687017,20.9029789,0
            105.8687916,20.9029752,0
          </coordinates>
        </LineString>
      </Placemark>
      <Placemark>
        <name>Đường nhánh </name>
        <styleUrl>#line-000000-2356-nodesc</styleUrl>
        <LineString>
          <tessellate>1</tessellate>
          <coordinates>
            105.8669986,20.9030237,0
            105.8672775,20.9030011,0
            105.867295,20.9030049,0
            105.8673285,20.903169,0
          </coordinates>
        </LineString>
      </Placemark>
      <Placemark>
        <name>Đường nhánh </name>
        <styleUrl>#line-000000-2744-nodesc</styleUrl>
        <LineString>
          <tessellate>1</tessellate>
          <coordinates>
            105.867295,20.9030049,0
            105.8673835,20.9029259,0
          </coordinates>
        </LineString>
      </Placemark>
      <Placemark>
        <name>Đường nhánh </name>
        <styleUrl>#line-000000-3131-nodesc</styleUrl>
        <LineString>
          <tessellate>1</tessellate>
          <coordinates>
            105.8679565,20.9062538,0
            105.8676185,20.9065495,0
            105.8673828,20.9067772,0
            105.8672299,20.9068912,0
            105.8670269,20.9070207,0
          </coordinates>
        </LineString>
      </Placemark>
      <Placemark>
        <name>Đường nhánh </name>
        <styleUrl>#line-000000-2744-nodesc</styleUrl>
        <LineString>
          <tessellate>1</tessellate>
          <coordinates>
            105.8673686,20.9067848,0
            105.8675014,20.906964,0
          </coordinates>
        </LineString>
      </Placemark>
      <Placemark>
        <name>Đường nhánh </name>
        <styleUrl>#line-000000-2938-nodesc</styleUrl>
        <LineString>
          <tessellate>1</tessellate>
          <coordinates>
            105.8665939,20.9050604,0
            105.8667159,20.9051794,0
            105.8668111,20.9053135,0
            105.8668795,20.9055691,0
            105.8670553,20.905848,0
            105.8671759,20.9060279,0
            105.8671531,20.9060868,0
            105.867358,20.9063865,0
            105.8674545,20.9064905,0
            105.8675699,20.9065995,0
          </coordinates>
        </LineString>
      </Placemark>
      <Placemark>
        <name>Đường nhánh </name>
        <styleUrl>#line-000000-2550-nodesc</styleUrl>
        <LineString>
          <tessellate>1</tessellate>
          <coordinates>
            105.8661851,20.905935,0
            105.8663327,20.9057959,0
          </coordinates>
        </LineString>
      </Placemark>
      <Placemark>
        <name>Đường nhánh </name>
        <styleUrl>#line-000000-2744-nodesc</styleUrl>
        <LineString>
          <tessellate>1</tessellate>
          <coordinates>
            105.8662862,20.9060224,0
            105.866434,20.9059082,0
          </coordinates>
        </LineString>
      </Placemark>
      <Placemark>
        <name>Đường nhánh </name>
        <styleUrl>#line-000000-2550-nodesc</styleUrl>
        <LineString>
          <tessellate>1</tessellate>
          <coordinates>
            105.866485,20.9062302,0
            105.8666138,20.90614,0
            105.8670553,20.905848,0
            105.8673114,20.9056918,0
            105.8675032,20.9056154,0
            105.8676521,20.9055628,0
          </coordinates>
        </LineString>
      </Placemark>
      <Placemark>
        <name>Đường nhánh </name>
        <styleUrl>#line-000000-2550-nodesc</styleUrl>
        <LineString>
          <tessellate>1</tessellate>
          <coordinates>
            105.867784,20.9058504,0
            105.8675909,20.9059481,0
            105.8674635,20.9060358,0
          </coordinates>
        </LineString>
      </Placemark>
      <Placemark>
        <name>Đường nhánh </name>
        <styleUrl>#line-000000-2938-nodesc</styleUrl>
        <LineString>
          <tessellate>1</tessellate>
          <coordinates>
            105.8670837,20.9071284,0
            105.867207,20.907057,0
            105.8673009,20.9069856,0
          </coordinates>
        </LineString>
      </Placemark>
      <Placemark>
        <name>Đường nhánh </name>
        <styleUrl>#line-000000-2744-nodesc</styleUrl>
        <LineString>
          <tessellate>1</tessellate>
          <coordinates>
            105.8682426,20.9068395,0
            105.8680549,20.906971,0
            105.8679623,20.9070462,0
          </coordinates>
        </LineString>
      </Placemark>
      <Placemark>
        <name>Đường nhánh </name>
        <styleUrl>#line-000000-2938-nodesc</styleUrl>
        <LineString>
          <tessellate>1</tessellate>
          <coordinates>
            105.8681993,20.9066939,0
            105.8690655,20.9065068,0
            105.8695805,20.9063965,0
            105.8706461,20.9061626,0
          </coordinates>
        </LineString>
      </Placemark>
      <Placemark>
        <name>Đường nhánh </name>
        <styleUrl>#line-000000-3519-nodesc</styleUrl>
        <LineString>
          <tessellate>1</tessellate>
          <coordinates>
            105.8690516,20.906511,0
            105.8690918,20.9066713,0
          </coordinates>
        </LineString>
      </Placemark>
      <Placemark>
        <name>Đường nhánh </name>
        <styleUrl>#line-000000-2744-nodesc</styleUrl>
        <LineString>
          <tessellate>1</tessellate>
          <coordinates>
            105.8684661,20.9076096,0
            105.8686416,20.9075706,0
            105.8687373,20.9075581,0
            105.8688433,20.9075343,0
            105.8688124,20.9074115,0
            105.8690055,20.907394,0
            105.8692939,20.907419,0
            105.8692671,20.9077009,0
          </coordinates>
        </LineString>
      </Placemark>
      <Placemark>
        <name>Đường nhánh </name>
        <styleUrl>#line-000000-2356-nodesc</styleUrl>
        <LineString>
          <tessellate>1</tessellate>
          <coordinates>
            105.8680558,20.9089494,0
            105.8685413,20.9087264,0
          </coordinates>
        </LineString>
      </Placemark>
      <Placemark>
        <name>Đường nhánh </name>
        <styleUrl>#line-000000-2744-nodesc</styleUrl>
        <LineString>
          <tessellate>1</tessellate>
          <coordinates>
            105.8677551,20.908418,0
            105.8679429,20.908408,0
            105.8682913,20.90827,0
            105.8684339,20.9082009,0
            105.8684787,20.908231,0
            105.8686584,20.9081245,0
            105.8687175,20.9080834,0
            105.8688339,20.9079701,0
            105.8690425,20.9079183,0
            105.8690599,20.9079508,0
            105.8693925,20.9078757,0
            105.8694073,20.9078143,0
          </coordinates>
        </LineString>
      </Placemark>
      <Placemark>
        <name>Đường nhánh </name>
        <styleUrl>#line-000000-3519-nodesc</styleUrl>
        <LineString>
          <tessellate>1</tessellate>
          <coordinates>
            105.8704304,20.9008648,0
            105.8705605,20.9007045,0
          </coordinates>
        </LineString>
      </Placemark>
    </Folder>
    <Folder>
      <name>điểm </name>
      <Placemark>
        <name>miếu nghè </name>
        <styleUrl>#icon-1671-FF5252-nodesc</styleUrl>
        <Point>
          <coordinates>
            105.8657309,20.9051645,0
          </coordinates>
        </Point>
      </Placemark>
      <Placemark>
        <name>nhà cổ - nhà bà Đỗ Thị Dịp </name>
        <styleUrl>#icon-1603-F57C00-nodesc</styleUrl>
        <Point>
          <coordinates>
            105.8706678,20.9006744,0
          </coordinates>
        </Point>
      </Placemark>
      <Placemark>
        <name>đình làng hạ thái </name>
        <styleUrl>#icon-1671-FF5252-nodesc</styleUrl>
        <Point>
          <coordinates>
            105.8692059,20.9011775,0
          </coordinates>
        </Point>
      </Placemark>
      <Placemark>
        <name>chùa phúc thái </name>
        <styleUrl>#icon-1671-FF5252-nodesc</styleUrl>
        <Point>
          <coordinates>
            105.8696913,20.9011774,0
          </coordinates>
        </Point>
      </Placemark>
      <Placemark>
        <name>miếu trình </name>
        <styleUrl>#icon-1899-FF5252-nodesc</styleUrl>
        <Point>
          <coordinates>
            105.8677744,20.9088457,0
          </coordinates>
        </Point>
      </Placemark>
      <Placemark>
        <name>chùa duyên trường </name>
        <styleUrl>#icon-1671-FF5252-nodesc</styleUrl>
        <Point>
          <coordinates>
            105.865609,20.9005787,0
          </coordinates>
        </Point>
      </Placemark>
      <Placemark>
        <name>văn chỉ họ Nguyễn đình làng Hạ Thái </name>
        <styleUrl>#icon-1671-FF5252-nodesc</styleUrl>
        <Point>
          <coordinates>
            105.8668466,20.9051284,0
          </coordinates>
        </Point>
      </Placemark>
      <Placemark>
        <name>công xóm mỹ lộc </name>
        <styleUrl>#icon-1574-E65100-nodesc</styleUrl>
        <Point>
          <coordinates>
            105.8695042,20.9008601,0
          </coordinates>
        </Point>
      </Placemark>
      <Placemark>
        <name>miếu </name>
        <styleUrl>#icon-1671-FF5252-nodesc</styleUrl>
        <Point>
          <coordinates>
            105.8695593,20.9009493,0
          </coordinates>
        </Point>
      </Placemark>
      <Placemark>
        <name>nhà bia </name>
        <styleUrl>#icon-1899-FF5252-nodesc</styleUrl>
        <Point>
          <coordinates>
            105.8693249,20.9008674,0
          </coordinates>
        </Point>
      </Placemark>
      <Placemark>
        <name>cổng xóm mỹ lộc</name>
        <styleUrl>#icon-1574-E65100-nodesc</styleUrl>
        <Point>
          <coordinates>
            105.8685326,20.9010678,0
          </coordinates>
        </Point>
      </Placemark>
      <Placemark>
        <name>giếng </name>
        <styleUrl>#icon-1669-0288D1-nodesc</styleUrl>
        <Point>
          <coordinates>
            105.869225,20.9009942,0
          </coordinates>
        </Point>
      </Placemark>
      <Placemark>
        <name>cổng đình làng Hạ Thái </name>
        <styleUrl>#icon-1574-E65100-nodesc</styleUrl>
        <Point>
          <coordinates>
            105.8692005,20.9001431,0
          </coordinates>
        </Point>
      </Placemark>
      <Placemark>
        <name>Cổng làng Hạ Thái </name>
        <styleUrl>#icon-1574-E65100-nodesc</styleUrl>
        <Point>
          <coordinates>
            105.8659046,20.9014107,0
          </coordinates>
        </Point>
      </Placemark>
      <Placemark>
        <name>cổng du lịch nghệ thuật làng nghề thủ công </name>
        <styleUrl>#icon-1574-E65100-nodesc</styleUrl>
        <Point>
          <coordinates>
            105.8659285,20.9021254,0
          </coordinates>
        </Point>
      </Placemark>
      <Placemark>
        <name>cổng làng nghề sơn màI Hạ Thái  </name>
        <styleUrl>#icon-1574-F57C00-nodesc</styleUrl>
        <Point>
          <coordinates>
            105.8634597,20.9026395,0
          </coordinates>
        </Point>
      </Placemark>
      <Placemark>
        <name>nhà nghệ nhân Trần Hùng </name>
        <styleUrl>#icon-1603-FFEA00-nodesc</styleUrl>
        <Point>
          <coordinates>
            105.8656921,20.9045509,0
          </coordinates>
        </Point>
      </Placemark>
      <Placemark>
        <name>nhà nghệ nhân Dũng Dị </name>
        <styleUrl>#icon-1603-FFEA00-nodesc</styleUrl>
        <Point>
          <coordinates>
            105.8674461,20.9031723,0
          </coordinates>
        </Point>
      </Placemark>
      <Placemark>
        <name>nhà nghệ nhân Huy Mến </name>
        <styleUrl>#icon-1603-FFEA00-nodesc</styleUrl>
        <Point>
          <coordinates>
            105.8662351,20.9028187,0
          </coordinates>
        </Point>
      </Placemark>
      <Placemark>
        <name>nhà nghệ nhân Nguyễn Thị Hồi </name>
        <styleUrl>#icon-1603-FFEA00-nodesc</styleUrl>
        <Point>
          <coordinates>
            105.8661637,20.9026055,0
          </coordinates>
        </Point>
      </Placemark>
      <Placemark>
        <name>xưởng nghệ nhân Hà Thị Chung </name>
        <styleUrl>#icon-1603-FFEA00-nodesc</styleUrl>
        <Point>
          <coordinates>
            105.8655637,20.9024727,0
          </coordinates>
        </Point>
      </Placemark>
      <Placemark>
        <name>nhà thờ họ Nguyễn Đình Đời thứ 10 </name>
        <styleUrl>#icon-1603-F57C00-nodesc</styleUrl>
        <Point>
          <coordinates>
            105.8682322,20.9020549,0
          </coordinates>
        </Point>
      </Placemark>
      <Placemark>
        <name>giếng </name>
        <styleUrl>#icon-1669-0288D1-nodesc</styleUrl>
        <Point>
          <coordinates>
            105.867571,20.908364,0
          </coordinates>
        </Point>
      </Placemark>
      <Placemark>
        <name>cây cổ thụ </name>
        <styleUrl>#icon-1886-7CB342-nodesc</styleUrl>
        <Point>
          <coordinates>
            105.8678484,20.9089578,0
          </coordinates>
        </Point>
      </Placemark>
      <Placemark>
        <name>Điểm gắn cam </name>
        <styleUrl>#icon-1535-FFEA00-nodesc</styleUrl>
        <Point>
          <coordinates>
            105.8656619,20.9045109,0
          </coordinates>
        </Point>
      </Placemark>
      <Placemark>
        <name>Điểm cam 360 </name>
        <styleUrl>#icon-1535-FFEA00-nodesc</styleUrl>
        <Point>
          <coordinates>
            105.8655761,20.9052474,0
          </coordinates>
        </Point>
      </Placemark>
      <Placemark>
        <name>Điểm cam 360 </name>
        <styleUrl>#icon-1535-FFEA00-nodesc</styleUrl>
        <Point>
          <coordinates>
            105.86921,20.9011447,0
          </coordinates>
        </Point>
      </Placemark>
      <Placemark>
        <name>Điểm cam 360</name>
        <styleUrl>#icon-1535-FFEA00-nodesc</styleUrl>
        <Point>
          <coordinates>
            105.8694192,20.9010833,0
          </coordinates>
        </Point>
      </Placemark>
      <Placemark>
        <name>Điểm cam 360</name>
        <styleUrl>#icon-1535-FFEA00-nodesc</styleUrl>
        <Point>
          <coordinates>
            105.8705428,20.9007283,0
          </coordinates>
        </Point>
      </Placemark>
      <Placemark>
        <name>Điểm cam 360</name>
        <styleUrl>#icon-1535-FFEA00-nodesc</styleUrl>
        <Point>
          <coordinates>
            105.8706675,20.9006469,0
          </coordinates>
        </Point>
      </Placemark>
      <Placemark>
        <name>giếng</name>
        <styleUrl>#icon-1669-0288D1-nodesc</styleUrl>
        <Point>
          <coordinates>
            105.8661951,20.9061741,0
          </coordinates>
        </Point>
      </Placemark>
    </Folder>
    <Folder>
      <name>khoanh vùng </name>
      <Placemark>
        <name>miếu nghè</name>
        <styleUrl>#poly-FF5252-5701-92-nodesc</styleUrl>
        <Polygon>
          <outerBoundaryIs>
            <LinearRing>
              <tessellate>1</tessellate>
              <coordinates>
                105.8658328,20.9055504,0
                105.8658089,20.9055682,0
                105.8656049,20.9054126,0
                105.8654734,20.9052948,0
                105.8652991,20.9050793,0
                105.8658221,20.9048012,0
                105.8661842,20.9052647,0
                105.8658328,20.9055504,0
              </coordinates>
            </LinearRing>
          </outerBoundaryIs>
        </Polygon>
      </Placemark>
      <Placemark>
        <name>nhà cổ </name>
        <styleUrl>#poly-F57C00-4501-0-nodesc</styleUrl>
        <Polygon>
          <outerBoundaryIs>
            <LinearRing>
              <tessellate>1</tessellate>
              <coordinates>
                105.8705404,20.9007107,0
                105.8707093,20.9005027,0
                105.8707992,20.9005591,0
                105.8708247,20.9005466,0
                105.8708622,20.9005742,0
                105.8706758,20.9008147,0
                105.8705404,20.9007107,0
              </coordinates>
            </LinearRing>
          </outerBoundaryIs>
        </Polygon>
      </Placemark>
      <Placemark>
        <name>đình làng </name>
        <styleUrl>#poly-FF5252-4801-115-nodesc</styleUrl>
        <Polygon>
          <outerBoundaryIs>
            <LinearRing>
              <tessellate>1</tessellate>
              <coordinates>
                105.8691295,20.9010773,0
                105.8693173,20.9010861,0
                105.8693115,20.9013257,0
                105.8692462,20.9013304,0
                105.8692448,20.9014055,0
                105.8691469,20.901398,0
                105.8691563,20.9013304,0
                105.8691094,20.9013254,0
                105.8691054,20.9012189,0
                105.8691107,20.9011161,0
                105.8691295,20.9010773,0
              </coordinates>
            </LinearRing>
          </outerBoundaryIs>
        </Polygon>
      </Placemark>
      <Placemark>
        <name>chùa phúc thái </name>
        <styleUrl>#poly-FF5252-5301-125-nodesc</styleUrl>
        <Polygon>
          <outerBoundaryIs>
            <LinearRing>
              <tessellate>1</tessellate>
              <coordinates>
                105.8693748,20.9012425,0
                105.8694794,20.9009419,0
                105.869584,20.9009945,0
                105.8695666,20.9010421,0
                105.8697262,20.9010947,0
                105.869761,20.9010371,0
                105.8699997,20.9012288,0
                105.8699273,20.9013553,0
                105.86982,20.9013177,0
                105.8697583,20.9015107,0
                105.8695666,20.9014092,0
                105.8695491,20.9013102,0
                105.8694848,20.9012588,0
                105.8693748,20.9012425,0
              </coordinates>
            </LinearRing>
          </outerBoundaryIs>
        </Polygon>
      </Placemark>
      <Placemark>
        <name>miếu trình </name>
        <styleUrl>#poly-FF5252-5001-125-nodesc</styleUrl>
        <Polygon>
          <outerBoundaryIs>
            <LinearRing>
              <tessellate>1</tessellate>
              <coordinates>
                105.8677606,20.9088795,0
                105.8677418,20.9088394,0
                105.8677941,20.9088194,0
                105.8678155,20.9088645,0
                105.8677606,20.9088795,0
              </coordinates>
            </LinearRing>
          </outerBoundaryIs>
        </Polygon>
      </Placemark>
      <Placemark>
        <name>chùa duyên trường</name>
        <styleUrl>#poly-FF5252-5501-105-nodesc</styleUrl>
        <Polygon>
          <outerBoundaryIs>
            <LinearRing>
              <tessellate>1</tessellate>
              <coordinates>
                105.8655808,20.9008606,0
                105.8655593,20.9008593,0
                105.8653877,20.9004171,0
                105.8655835,20.9003682,0
                105.8655634,20.9002993,0
                105.8659188,20.9003469,0
                105.8660569,20.9006789,0
                105.8659952,20.9006877,0
                105.8660234,20.9007679,0
                105.8655808,20.9008606,0
              </coordinates>
            </LinearRing>
          </outerBoundaryIs>
        </Polygon>
      </Placemark>
      <Placemark>
        <name>văn chỉ họ Nguyễn đình làng Hạ Thái </name>
        <styleUrl>#poly-FF5252-4101-112-nodesc</styleUrl>
        <Polygon>
          <outerBoundaryIs>
            <LinearRing>
              <tessellate>1</tessellate>
              <coordinates>
                105.8666389,20.9050809,0
                105.8668843,20.9049143,0
                105.867052,20.9052237,0
                105.866832,20.9053077,0
                105.8666389,20.9050809,0
              </coordinates>
            </LinearRing>
          </outerBoundaryIs>
        </Polygon>
      </Placemark>
      <Placemark>
        <name>miếu </name>
        <styleUrl>#poly-FF5252-4201-115-nodesc</styleUrl>
        <Polygon>
          <outerBoundaryIs>
            <LinearRing>
              <tessellate>1</tessellate>
              <coordinates>
                105.8694976,20.9009392,0
                105.8695244,20.9008929,0
                105.8696156,20.9009455,0
                105.869584,20.9009945,0
                105.8694976,20.9009392,0
              </coordinates>
            </LinearRing>
          </outerBoundaryIs>
        </Polygon>
      </Placemark>
      <Placemark>
        <name>nhà nghệ nhân Trần Hùng </name>
        <styleUrl>#poly-FFEA00-5001-0-nodesc</styleUrl>
        <Polygon>
          <outerBoundaryIs>
            <LinearRing>
              <tessellate>1</tessellate>
              <coordinates>
                105.8655674,20.9045095,0
                105.8657296,20.9044569,0
                105.8658557,20.9047037,0
                105.8657176,20.9047651,0
                105.8655674,20.9045095,0
              </coordinates>
            </LinearRing>
          </outerBoundaryIs>
        </Polygon>
      </Placemark>
      <Placemark>
        <name>nhà nghệ nhân Dũng Dị </name>
        <styleUrl>#poly-FFEA00-4401-0-nodesc</styleUrl>
        <Polygon>
          <outerBoundaryIs>
            <LinearRing>
              <tessellate>1</tessellate>
              <coordinates>
                105.867324,20.9030921,0
                105.8674581,20.9030771,0
                105.8674662,20.9032337,0
                105.8673522,20.9032613,0
                105.867324,20.9030921,0
              </coordinates>
            </LinearRing>
          </outerBoundaryIs>
        </Polygon>
      </Placemark>
      <Placemark>
        <name>nhà nghệ nhân Huy Mến </name>
        <styleUrl>#poly-FFEA00-3701-0-nodesc</styleUrl>
        <Polygon>
          <outerBoundaryIs>
            <LinearRing>
              <tessellate>1</tessellate>
              <coordinates>
                105.8661774,20.9027736,0
                105.8662418,20.9027536,0
                105.8662901,20.9028588,0
                105.8662204,20.9028839,0
                105.8661774,20.9027736,0
              </coordinates>
            </LinearRing>
          </outerBoundaryIs>
        </Polygon>
      </Placemark>
      <Placemark>
        <name>nhà nghệ nhẫn Nguyễn Thị Hồi </name>
        <styleUrl>#poly-FFEA00-5101-0-nodesc</styleUrl>
        <Polygon>
          <outerBoundaryIs>
            <LinearRing>
              <tessellate>1</tessellate>
              <coordinates>
                105.8662716,20.9026079,0
                105.8659779,20.9027056,0
                105.8659417,20.9026266,0
                105.8662273,20.9025277,0
                105.8662716,20.9026079,0
              </coordinates>
            </LinearRing>
          </outerBoundaryIs>
        </Polygon>
      </Placemark>
      <Placemark>
        <name>xưởng nghệ nhân Hà Thị Chung </name>
        <styleUrl>#poly-FFEA00-4901-0-nodesc</styleUrl>
        <Polygon>
          <outerBoundaryIs>
            <LinearRing>
              <tessellate>1</tessellate>
              <coordinates>
                105.8656066,20.9026656,0
                105.8654537,20.9023023,0
                105.8655248,20.9022885,0
                105.8656924,20.9026468,0
                105.8656066,20.9026656,0
              </coordinates>
            </LinearRing>
          </outerBoundaryIs>
        </Polygon>
      </Placemark>
      <Placemark>
        <name>nhà thờ họ Nguyễn đời thứ 10 </name>
        <styleUrl>#poly-F57C00-4201-0-nodesc</styleUrl>
        <Polygon>
          <outerBoundaryIs>
            <LinearRing>
              <tessellate>1</tessellate>
              <coordinates>
                105.8681289,20.9021225,0
                105.8681477,20.9019784,0
                105.8683167,20.9019997,0
                105.8682832,20.9021538,0
                105.8681289,20.9021225,0
              </coordinates>
            </LinearRing>
          </outerBoundaryIs>
        </Polygon>
      </Placemark>
    </Folder>
  </Document>
</kml>
