<?xml version="1.0" encoding="UTF-8"?>
<kml xmlns="http://www.opengis.net/kml/2.2">
  <Document>
    <name>Phú Vinh</name>
    <description/>
    <Style id="icon-1499-0288D1-nodesc-normal">
      <IconStyle>
        <color>ffd18802</color>
        <scale>1</scale>
        <Icon>
          <href>https://www.gstatic.com/mapspro/images/stock/503-wht-blank_maps.png</href>
        </Icon>
      </IconStyle>
      <LabelStyle>
        <scale>0</scale>
      </LabelStyle>
      <BalloonStyle>
        <text><![CDATA[<h3>$[name]</h3>]]></text>
      </BalloonStyle>
    </Style>
    <Style id="icon-1499-0288D1-nodesc-highlight">
      <IconStyle>
        <color>ffd18802</color>
        <scale>1</scale>
        <Icon>
          <href>https://www.gstatic.com/mapspro/images/stock/503-wht-blank_maps.png</href>
        </Icon>
      </IconStyle>
      <LabelStyle>
        <scale>1</scale>
      </LabelStyle>
      <BalloonStyle>
        <text><![CDATA[<h3>$[name]</h3>]]></text>
      </BalloonStyle>
    </Style>
    <StyleMap id="icon-1499-0288D1-nodesc">
      <Pair>
        <key>normal</key>
        <styleUrl>#icon-1499-0288D1-nodesc-normal</styleUrl>
      </Pair>
      <Pair>
        <key>highlight</key>
        <styleUrl>#icon-1499-0288D1-nodesc-highlight</styleUrl>
      </Pair>
    </StyleMap>
    <Style id="icon-1502-0097A7-nodesc-normal">
      <IconStyle>
        <color>ffa79700</color>
        <scale>1</scale>
        <Icon>
          <href>https://www.gstatic.com/mapspro/images/stock/503-wht-blank_maps.png</href>
        </Icon>
      </IconStyle>
      <LabelStyle>
        <scale>0</scale>
      </LabelStyle>
      <BalloonStyle>
        <text><![CDATA[<h3>$[name]</h3>]]></text>
      </BalloonStyle>
    </Style>
    <Style id="icon-1502-0097A7-nodesc-highlight">
      <IconStyle>
        <color>ffa79700</color>
        <scale>1</scale>
        <Icon>
          <href>https://www.gstatic.com/mapspro/images/stock/503-wht-blank_maps.png</href>
        </Icon>
      </IconStyle>
      <LabelStyle>
        <scale>1</scale>
      </LabelStyle>
      <BalloonStyle>
        <text><![CDATA[<h3>$[name]</h3>]]></text>
      </BalloonStyle>
    </Style>
    <StyleMap id="icon-1502-0097A7-nodesc">
      <Pair>
        <key>normal</key>
        <styleUrl>#icon-1502-0097A7-nodesc-normal</styleUrl>
      </Pair>
      <Pair>
        <key>highlight</key>
        <styleUrl>#icon-1502-0097A7-nodesc-highlight</styleUrl>
      </Pair>
    </StyleMap>
    <Style id="icon-1535-0F9D58-nodesc-normal">
      <IconStyle>
        <color>ff589d0f</color>
        <scale>1</scale>
        <Icon>
          <href>https://www.gstatic.com/mapspro/images/stock/503-wht-blank_maps.png</href>
        </Icon>
      </IconStyle>
      <LabelStyle>
        <scale>0</scale>
      </LabelStyle>
      <BalloonStyle>
        <text><![CDATA[<h3>$[name]</h3>]]></text>
      </BalloonStyle>
    </Style>
    <Style id="icon-1535-0F9D58-nodesc-highlight">
      <IconStyle>
        <color>ff589d0f</color>
        <scale>1</scale>
        <Icon>
          <href>https://www.gstatic.com/mapspro/images/stock/503-wht-blank_maps.png</href>
        </Icon>
      </IconStyle>
      <LabelStyle>
        <scale>1</scale>
      </LabelStyle>
      <BalloonStyle>
        <text><![CDATA[<h3>$[name]</h3>]]></text>
      </BalloonStyle>
    </Style>
    <StyleMap id="icon-1535-0F9D58-nodesc">
      <Pair>
        <key>normal</key>
        <styleUrl>#icon-1535-0F9D58-nodesc-normal</styleUrl>
      </Pair>
      <Pair>
        <key>highlight</key>
        <styleUrl>#icon-1535-0F9D58-nodesc-highlight</styleUrl>
      </Pair>
    </StyleMap>
    <Style id="icon-1899-0288D1-nodesc-normal">
      <IconStyle>
        <color>ffd18802</color>
        <scale>1</scale>
        <Icon>
          <href>https://www.gstatic.com/mapspro/images/stock/503-wht-blank_maps.png</href>
        </Icon>
        <hotSpot x="32" xunits="pixels" y="64" yunits="insetPixels"/>
      </IconStyle>
      <LabelStyle>
        <scale>0</scale>
      </LabelStyle>
      <BalloonStyle>
        <text><![CDATA[<h3>$[name]</h3>]]></text>
      </BalloonStyle>
    </Style>
    <Style id="icon-1899-0288D1-nodesc-highlight">
      <IconStyle>
        <color>ffd18802</color>
        <scale>1</scale>
        <Icon>
          <href>https://www.gstatic.com/mapspro/images/stock/503-wht-blank_maps.png</href>
        </Icon>
        <hotSpot x="32" xunits="pixels" y="64" yunits="insetPixels"/>
      </IconStyle>
      <LabelStyle>
        <scale>1</scale>
      </LabelStyle>
      <BalloonStyle>
        <text><![CDATA[<h3>$[name]</h3>]]></text>
      </BalloonStyle>
    </Style>
    <StyleMap id="icon-1899-0288D1-nodesc">
      <Pair>
        <key>normal</key>
        <styleUrl>#icon-1899-0288D1-nodesc-normal</styleUrl>
      </Pair>
      <Pair>
        <key>highlight</key>
        <styleUrl>#icon-1899-0288D1-nodesc-highlight</styleUrl>
      </Pair>
    </StyleMap>
    <Style id="icon-1899-E65100-nodesc-normal">
      <IconStyle>
        <color>ff0051e6</color>
        <scale>1</scale>
        <Icon>
          <href>https://www.gstatic.com/mapspro/images/stock/503-wht-blank_maps.png</href>
        </Icon>
        <hotSpot x="32" xunits="pixels" y="64" yunits="insetPixels"/>
      </IconStyle>
      <LabelStyle>
        <scale>0</scale>
      </LabelStyle>
      <BalloonStyle>
        <text><![CDATA[<h3>$[name]</h3>]]></text>
      </BalloonStyle>
    </Style>
    <Style id="icon-1899-E65100-nodesc-highlight">
      <IconStyle>
        <color>ff0051e6</color>
        <scale>1</scale>
        <Icon>
          <href>https://www.gstatic.com/mapspro/images/stock/503-wht-blank_maps.png</href>
        </Icon>
        <hotSpot x="32" xunits="pixels" y="64" yunits="insetPixels"/>
      </IconStyle>
      <LabelStyle>
        <scale>1</scale>
      </LabelStyle>
      <BalloonStyle>
        <text><![CDATA[<h3>$[name]</h3>]]></text>
      </BalloonStyle>
    </Style>
    <StyleMap id="icon-1899-E65100-nodesc">
      <Pair>
        <key>normal</key>
        <styleUrl>#icon-1899-E65100-nodesc-normal</styleUrl>
      </Pair>
      <Pair>
        <key>highlight</key>
        <styleUrl>#icon-1899-E65100-nodesc-highlight</styleUrl>
      </Pair>
    </StyleMap>
    <Style id="line-000000-10106-nodesc-normal">
      <LineStyle>
        <color>ff000000</color>
        <width>10.106</width>
      </LineStyle>
      <BalloonStyle>
        <text><![CDATA[<h3>$[name]</h3>]]></text>
      </BalloonStyle>
    </Style>
    <Style id="line-000000-10106-nodesc-highlight">
      <LineStyle>
        <color>ff000000</color>
        <width>15.159</width>
      </LineStyle>
      <BalloonStyle>
        <text><![CDATA[<h3>$[name]</h3>]]></text>
      </BalloonStyle>
    </Style>
    <StyleMap id="line-000000-10106-nodesc">
      <Pair>
        <key>normal</key>
        <styleUrl>#line-000000-10106-nodesc-normal</styleUrl>
      </Pair>
      <Pair>
        <key>highlight</key>
        <styleUrl>#line-000000-10106-nodesc-highlight</styleUrl>
      </Pair>
    </StyleMap>
    <Style id="line-000000-11463-nodesc-normal">
      <LineStyle>
        <color>ff000000</color>
        <width>11.463</width>
      </LineStyle>
      <BalloonStyle>
        <text><![CDATA[<h3>$[name]</h3>]]></text>
      </BalloonStyle>
    </Style>
    <Style id="line-000000-11463-nodesc-highlight">
      <LineStyle>
        <color>ff000000</color>
        <width>17.1945</width>
      </LineStyle>
      <BalloonStyle>
        <text><![CDATA[<h3>$[name]</h3>]]></text>
      </BalloonStyle>
    </Style>
    <StyleMap id="line-000000-11463-nodesc">
      <Pair>
        <key>normal</key>
        <styleUrl>#line-000000-11463-nodesc-normal</styleUrl>
      </Pair>
      <Pair>
        <key>highlight</key>
        <styleUrl>#line-000000-11463-nodesc-highlight</styleUrl>
      </Pair>
    </StyleMap>
    <Style id="line-000000-11656-nodesc-normal">
      <LineStyle>
        <color>ff000000</color>
        <width>11.656</width>
      </LineStyle>
      <BalloonStyle>
        <text><![CDATA[<h3>$[name]</h3>]]></text>
      </BalloonStyle>
    </Style>
    <Style id="line-000000-11656-nodesc-highlight">
      <LineStyle>
        <color>ff000000</color>
        <width>17.484</width>
      </LineStyle>
      <BalloonStyle>
        <text><![CDATA[<h3>$[name]</h3>]]></text>
      </BalloonStyle>
    </Style>
    <StyleMap id="line-000000-11656-nodesc">
      <Pair>
        <key>normal</key>
        <styleUrl>#line-000000-11656-nodesc-normal</styleUrl>
      </Pair>
      <Pair>
        <key>highlight</key>
        <styleUrl>#line-000000-11656-nodesc-highlight</styleUrl>
      </Pair>
    </StyleMap>
    <Style id="line-000000-14950-nodesc-normal">
      <LineStyle>
        <color>ff000000</color>
        <width>14.95</width>
      </LineStyle>
      <BalloonStyle>
        <text><![CDATA[<h3>$[name]</h3>]]></text>
      </BalloonStyle>
    </Style>
    <Style id="line-000000-14950-nodesc-highlight">
      <LineStyle>
        <color>ff000000</color>
        <width>22.425</width>
      </LineStyle>
      <BalloonStyle>
        <text><![CDATA[<h3>$[name]</h3>]]></text>
      </BalloonStyle>
    </Style>
    <StyleMap id="line-000000-14950-nodesc">
      <Pair>
        <key>normal</key>
        <styleUrl>#line-000000-14950-nodesc-normal</styleUrl>
      </Pair>
      <Pair>
        <key>highlight</key>
        <styleUrl>#line-000000-14950-nodesc-highlight</styleUrl>
      </Pair>
    </StyleMap>
    <Style id="line-000000-15919-nodesc-normal">
      <LineStyle>
        <color>ff000000</color>
        <width>15.919</width>
      </LineStyle>
      <BalloonStyle>
        <text><![CDATA[<h3>$[name]</h3>]]></text>
      </BalloonStyle>
    </Style>
    <Style id="line-000000-15919-nodesc-highlight">
      <LineStyle>
        <color>ff000000</color>
        <width>23.8785</width>
      </LineStyle>
      <BalloonStyle>
        <text><![CDATA[<h3>$[name]</h3>]]></text>
      </BalloonStyle>
    </Style>
    <StyleMap id="line-000000-15919-nodesc">
      <Pair>
        <key>normal</key>
        <styleUrl>#line-000000-15919-nodesc-normal</styleUrl>
      </Pair>
      <Pair>
        <key>highlight</key>
        <styleUrl>#line-000000-15919-nodesc-highlight</styleUrl>
      </Pair>
    </StyleMap>
    <Style id="line-000000-16500-nodesc-normal">
      <LineStyle>
        <color>ff000000</color>
        <width>16.5</width>
      </LineStyle>
      <BalloonStyle>
        <text><![CDATA[<h3>$[name]</h3>]]></text>
      </BalloonStyle>
    </Style>
    <Style id="line-000000-16500-nodesc-highlight">
      <LineStyle>
        <color>ff000000</color>
        <width>24.75</width>
      </LineStyle>
      <BalloonStyle>
        <text><![CDATA[<h3>$[name]</h3>]]></text>
      </BalloonStyle>
    </Style>
    <StyleMap id="line-000000-16500-nodesc">
      <Pair>
        <key>normal</key>
        <styleUrl>#line-000000-16500-nodesc-normal</styleUrl>
      </Pair>
      <Pair>
        <key>highlight</key>
        <styleUrl>#line-000000-16500-nodesc-highlight</styleUrl>
      </Pair>
    </StyleMap>
    <Style id="line-000000-17275-nodesc-normal">
      <LineStyle>
        <color>ff000000</color>
        <width>17.275</width>
      </LineStyle>
      <BalloonStyle>
        <text><![CDATA[<h3>$[name]</h3>]]></text>
      </BalloonStyle>
    </Style>
    <Style id="line-000000-17275-nodesc-highlight">
      <LineStyle>
        <color>ff000000</color>
        <width>25.9125</width>
      </LineStyle>
      <BalloonStyle>
        <text><![CDATA[<h3>$[name]</h3>]]></text>
      </BalloonStyle>
    </Style>
    <StyleMap id="line-000000-17275-nodesc">
      <Pair>
        <key>normal</key>
        <styleUrl>#line-000000-17275-nodesc-normal</styleUrl>
      </Pair>
      <Pair>
        <key>highlight</key>
        <styleUrl>#line-000000-17275-nodesc-highlight</styleUrl>
      </Pair>
    </StyleMap>
    <Style id="line-000000-5263-nodesc-normal">
      <LineStyle>
        <color>ff000000</color>
        <width>5.263</width>
      </LineStyle>
      <BalloonStyle>
        <text><![CDATA[<h3>$[name]</h3>]]></text>
      </BalloonStyle>
    </Style>
    <Style id="line-000000-5263-nodesc-highlight">
      <LineStyle>
        <color>ff000000</color>
        <width>7.8945</width>
      </LineStyle>
      <BalloonStyle>
        <text><![CDATA[<h3>$[name]</h3>]]></text>
      </BalloonStyle>
    </Style>
    <StyleMap id="line-000000-5263-nodesc">
      <Pair>
        <key>normal</key>
        <styleUrl>#line-000000-5263-nodesc-normal</styleUrl>
      </Pair>
      <Pair>
        <key>highlight</key>
        <styleUrl>#line-000000-5263-nodesc-highlight</styleUrl>
      </Pair>
    </StyleMap>
    <Style id="line-000000-5844-nodesc-normal">
      <LineStyle>
        <color>ff000000</color>
        <width>5.844</width>
      </LineStyle>
      <BalloonStyle>
        <text><![CDATA[<h3>$[name]</h3>]]></text>
      </BalloonStyle>
    </Style>
    <Style id="line-000000-5844-nodesc-highlight">
      <LineStyle>
        <color>ff000000</color>
        <width>8.766</width>
      </LineStyle>
      <BalloonStyle>
        <text><![CDATA[<h3>$[name]</h3>]]></text>
      </BalloonStyle>
    </Style>
    <StyleMap id="line-000000-5844-nodesc">
      <Pair>
        <key>normal</key>
        <styleUrl>#line-000000-5844-nodesc-normal</styleUrl>
      </Pair>
      <Pair>
        <key>highlight</key>
        <styleUrl>#line-000000-5844-nodesc-highlight</styleUrl>
      </Pair>
    </StyleMap>
    <Style id="line-000000-6038-nodesc-normal">
      <LineStyle>
        <color>ff000000</color>
        <width>6.038</width>
      </LineStyle>
      <BalloonStyle>
        <text><![CDATA[<h3>$[name]</h3>]]></text>
      </BalloonStyle>
    </Style>
    <Style id="line-000000-6038-nodesc-highlight">
      <LineStyle>
        <color>ff000000</color>
        <width>9.057</width>
      </LineStyle>
      <BalloonStyle>
        <text><![CDATA[<h3>$[name]</h3>]]></text>
      </BalloonStyle>
    </Style>
    <StyleMap id="line-000000-6038-nodesc">
      <Pair>
        <key>normal</key>
        <styleUrl>#line-000000-6038-nodesc-normal</styleUrl>
      </Pair>
      <Pair>
        <key>highlight</key>
        <styleUrl>#line-000000-6038-nodesc-highlight</styleUrl>
      </Pair>
    </StyleMap>
    <Style id="line-000000-6231-nodesc-normal">
      <LineStyle>
        <color>ff000000</color>
        <width>6.231</width>
      </LineStyle>
      <BalloonStyle>
        <text><![CDATA[<h3>$[name]</h3>]]></text>
      </BalloonStyle>
    </Style>
    <Style id="line-000000-6231-nodesc-highlight">
      <LineStyle>
        <color>ff000000</color>
        <width>9.3465</width>
      </LineStyle>
      <BalloonStyle>
        <text><![CDATA[<h3>$[name]</h3>]]></text>
      </BalloonStyle>
    </Style>
    <StyleMap id="line-000000-6231-nodesc">
      <Pair>
        <key>normal</key>
        <styleUrl>#line-000000-6231-nodesc-normal</styleUrl>
      </Pair>
      <Pair>
        <key>highlight</key>
        <styleUrl>#line-000000-6231-nodesc-highlight</styleUrl>
      </Pair>
    </StyleMap>
    <Style id="line-000000-6425-nodesc-normal">
      <LineStyle>
        <color>ff000000</color>
        <width>6.425</width>
      </LineStyle>
      <BalloonStyle>
        <text><![CDATA[<h3>$[name]</h3>]]></text>
      </BalloonStyle>
    </Style>
    <Style id="line-000000-6425-nodesc-highlight">
      <LineStyle>
        <color>ff000000</color>
        <width>9.6375</width>
      </LineStyle>
      <BalloonStyle>
        <text><![CDATA[<h3>$[name]</h3>]]></text>
      </BalloonStyle>
    </Style>
    <StyleMap id="line-000000-6425-nodesc">
      <Pair>
        <key>normal</key>
        <styleUrl>#line-000000-6425-nodesc-normal</styleUrl>
      </Pair>
      <Pair>
        <key>highlight</key>
        <styleUrl>#line-000000-6425-nodesc-highlight</styleUrl>
      </Pair>
    </StyleMap>
    <Style id="line-000000-6619-nodesc-normal">
      <LineStyle>
        <color>ff000000</color>
        <width>6.619</width>
      </LineStyle>
      <BalloonStyle>
        <text><![CDATA[<h3>$[name]</h3>]]></text>
      </BalloonStyle>
    </Style>
    <Style id="line-000000-6619-nodesc-highlight">
      <LineStyle>
        <color>ff000000</color>
        <width>9.9285</width>
      </LineStyle>
      <BalloonStyle>
        <text><![CDATA[<h3>$[name]</h3>]]></text>
      </BalloonStyle>
    </Style>
    <StyleMap id="line-000000-6619-nodesc">
      <Pair>
        <key>normal</key>
        <styleUrl>#line-000000-6619-nodesc-normal</styleUrl>
      </Pair>
      <Pair>
        <key>highlight</key>
        <styleUrl>#line-000000-6619-nodesc-highlight</styleUrl>
      </Pair>
    </StyleMap>
    <Style id="line-000000-6813-nodesc-normal">
      <LineStyle>
        <color>ff000000</color>
        <width>6.813</width>
      </LineStyle>
      <BalloonStyle>
        <text><![CDATA[<h3>$[name]</h3>]]></text>
      </BalloonStyle>
    </Style>
    <Style id="line-000000-6813-nodesc-highlight">
      <LineStyle>
        <color>ff000000</color>
        <width>10.2195</width>
      </LineStyle>
      <BalloonStyle>
        <text><![CDATA[<h3>$[name]</h3>]]></text>
      </BalloonStyle>
    </Style>
    <StyleMap id="line-000000-6813-nodesc">
      <Pair>
        <key>normal</key>
        <styleUrl>#line-000000-6813-nodesc-normal</styleUrl>
      </Pair>
      <Pair>
        <key>highlight</key>
        <styleUrl>#line-000000-6813-nodesc-highlight</styleUrl>
      </Pair>
    </StyleMap>
    <Style id="line-000000-7006-nodesc-normal">
      <LineStyle>
        <color>ff000000</color>
        <width>7.006</width>
      </LineStyle>
      <BalloonStyle>
        <text><![CDATA[<h3>$[name]</h3>]]></text>
      </BalloonStyle>
    </Style>
    <Style id="line-000000-7006-nodesc-highlight">
      <LineStyle>
        <color>ff000000</color>
        <width>10.509</width>
      </LineStyle>
      <BalloonStyle>
        <text><![CDATA[<h3>$[name]</h3>]]></text>
      </BalloonStyle>
    </Style>
    <StyleMap id="line-000000-7006-nodesc">
      <Pair>
        <key>normal</key>
        <styleUrl>#line-000000-7006-nodesc-normal</styleUrl>
      </Pair>
      <Pair>
        <key>highlight</key>
        <styleUrl>#line-000000-7006-nodesc-highlight</styleUrl>
      </Pair>
    </StyleMap>
    <Style id="line-000000-7200-nodesc-normal">
      <LineStyle>
        <color>ff000000</color>
        <width>7.2</width>
      </LineStyle>
      <BalloonStyle>
        <text><![CDATA[<h3>$[name]</h3>]]></text>
      </BalloonStyle>
    </Style>
    <Style id="line-000000-7200-nodesc-highlight">
      <LineStyle>
        <color>ff000000</color>
        <width>10.8</width>
      </LineStyle>
      <BalloonStyle>
        <text><![CDATA[<h3>$[name]</h3>]]></text>
      </BalloonStyle>
    </Style>
    <StyleMap id="line-000000-7200-nodesc">
      <Pair>
        <key>normal</key>
        <styleUrl>#line-000000-7200-nodesc-normal</styleUrl>
      </Pair>
      <Pair>
        <key>highlight</key>
        <styleUrl>#line-000000-7200-nodesc-highlight</styleUrl>
      </Pair>
    </StyleMap>
    <Style id="line-000000-7394-nodesc-normal">
      <LineStyle>
        <color>ff000000</color>
        <width>7.394</width>
      </LineStyle>
      <BalloonStyle>
        <text><![CDATA[<h3>$[name]</h3>]]></text>
      </BalloonStyle>
    </Style>
    <Style id="line-000000-7394-nodesc-highlight">
      <LineStyle>
        <color>ff000000</color>
        <width>11.091</width>
      </LineStyle>
      <BalloonStyle>
        <text><![CDATA[<h3>$[name]</h3>]]></text>
      </BalloonStyle>
    </Style>
    <StyleMap id="line-000000-7394-nodesc">
      <Pair>
        <key>normal</key>
        <styleUrl>#line-000000-7394-nodesc-normal</styleUrl>
      </Pair>
      <Pair>
        <key>highlight</key>
        <styleUrl>#line-000000-7394-nodesc-highlight</styleUrl>
      </Pair>
    </StyleMap>
    <Style id="line-000000-7588-nodesc-normal">
      <LineStyle>
        <color>ff000000</color>
        <width>7.588</width>
      </LineStyle>
      <BalloonStyle>
        <text><![CDATA[<h3>$[name]</h3>]]></text>
      </BalloonStyle>
    </Style>
    <Style id="line-000000-7588-nodesc-highlight">
      <LineStyle>
        <color>ff000000</color>
        <width>11.382</width>
      </LineStyle>
      <BalloonStyle>
        <text><![CDATA[<h3>$[name]</h3>]]></text>
      </BalloonStyle>
    </Style>
    <StyleMap id="line-000000-7588-nodesc">
      <Pair>
        <key>normal</key>
        <styleUrl>#line-000000-7588-nodesc-normal</styleUrl>
      </Pair>
      <Pair>
        <key>highlight</key>
        <styleUrl>#line-000000-7588-nodesc-highlight</styleUrl>
      </Pair>
    </StyleMap>
    <Style id="line-000000-7781-nodesc-normal">
      <LineStyle>
        <color>ff000000</color>
        <width>7.781</width>
      </LineStyle>
      <BalloonStyle>
        <text><![CDATA[<h3>$[name]</h3>]]></text>
      </BalloonStyle>
    </Style>
    <Style id="line-000000-7781-nodesc-highlight">
      <LineStyle>
        <color>ff000000</color>
        <width>11.6715</width>
      </LineStyle>
      <BalloonStyle>
        <text><![CDATA[<h3>$[name]</h3>]]></text>
      </BalloonStyle>
    </Style>
    <StyleMap id="line-000000-7781-nodesc">
      <Pair>
        <key>normal</key>
        <styleUrl>#line-000000-7781-nodesc-normal</styleUrl>
      </Pair>
      <Pair>
        <key>highlight</key>
        <styleUrl>#line-000000-7781-nodesc-highlight</styleUrl>
      </Pair>
    </StyleMap>
    <Style id="line-000000-7975-nodesc-normal">
      <LineStyle>
        <color>ff000000</color>
        <width>7.975</width>
      </LineStyle>
      <BalloonStyle>
        <text><![CDATA[<h3>$[name]</h3>]]></text>
      </BalloonStyle>
    </Style>
    <Style id="line-000000-7975-nodesc-highlight">
      <LineStyle>
        <color>ff000000</color>
        <width>11.9625</width>
      </LineStyle>
      <BalloonStyle>
        <text><![CDATA[<h3>$[name]</h3>]]></text>
      </BalloonStyle>
    </Style>
    <StyleMap id="line-000000-7975-nodesc">
      <Pair>
        <key>normal</key>
        <styleUrl>#line-000000-7975-nodesc-normal</styleUrl>
      </Pair>
      <Pair>
        <key>highlight</key>
        <styleUrl>#line-000000-7975-nodesc-highlight</styleUrl>
      </Pair>
    </StyleMap>
    <Style id="line-000000-8169-nodesc-normal">
      <LineStyle>
        <color>ff000000</color>
        <width>8.169</width>
      </LineStyle>
      <BalloonStyle>
        <text><![CDATA[<h3>$[name]</h3>]]></text>
      </BalloonStyle>
    </Style>
    <Style id="line-000000-8169-nodesc-highlight">
      <LineStyle>
        <color>ff000000</color>
        <width>12.2535</width>
      </LineStyle>
      <BalloonStyle>
        <text><![CDATA[<h3>$[name]</h3>]]></text>
      </BalloonStyle>
    </Style>
    <StyleMap id="line-000000-8169-nodesc">
      <Pair>
        <key>normal</key>
        <styleUrl>#line-000000-8169-nodesc-normal</styleUrl>
      </Pair>
      <Pair>
        <key>highlight</key>
        <styleUrl>#line-000000-8169-nodesc-highlight</styleUrl>
      </Pair>
    </StyleMap>
    <Style id="line-000000-8363-nodesc-normal">
      <LineStyle>
        <color>ff000000</color>
        <width>8.363</width>
      </LineStyle>
      <BalloonStyle>
        <text><![CDATA[<h3>$[name]</h3>]]></text>
      </BalloonStyle>
    </Style>
    <Style id="line-000000-8363-nodesc-highlight">
      <LineStyle>
        <color>ff000000</color>
        <width>12.5445</width>
      </LineStyle>
      <BalloonStyle>
        <text><![CDATA[<h3>$[name]</h3>]]></text>
      </BalloonStyle>
    </Style>
    <StyleMap id="line-000000-8363-nodesc">
      <Pair>
        <key>normal</key>
        <styleUrl>#line-000000-8363-nodesc-normal</styleUrl>
      </Pair>
      <Pair>
        <key>highlight</key>
        <styleUrl>#line-000000-8363-nodesc-highlight</styleUrl>
      </Pair>
    </StyleMap>
    <Style id="line-000000-8556-nodesc-normal">
      <LineStyle>
        <color>ff000000</color>
        <width>8.556</width>
      </LineStyle>
      <BalloonStyle>
        <text><![CDATA[<h3>$[name]</h3>]]></text>
      </BalloonStyle>
    </Style>
    <Style id="line-000000-8556-nodesc-highlight">
      <LineStyle>
        <color>ff000000</color>
        <width>12.834</width>
      </LineStyle>
      <BalloonStyle>
        <text><![CDATA[<h3>$[name]</h3>]]></text>
      </BalloonStyle>
    </Style>
    <StyleMap id="line-000000-8556-nodesc">
      <Pair>
        <key>normal</key>
        <styleUrl>#line-000000-8556-nodesc-normal</styleUrl>
      </Pair>
      <Pair>
        <key>highlight</key>
        <styleUrl>#line-000000-8556-nodesc-highlight</styleUrl>
      </Pair>
    </StyleMap>
    <Style id="line-000000-8750-nodesc-normal">
      <LineStyle>
        <color>ff000000</color>
        <width>8.75</width>
      </LineStyle>
      <BalloonStyle>
        <text><![CDATA[<h3>$[name]</h3>]]></text>
      </BalloonStyle>
    </Style>
    <Style id="line-000000-8750-nodesc-highlight">
      <LineStyle>
        <color>ff000000</color>
        <width>13.125</width>
      </LineStyle>
      <BalloonStyle>
        <text><![CDATA[<h3>$[name]</h3>]]></text>
      </BalloonStyle>
    </Style>
    <StyleMap id="line-000000-8750-nodesc">
      <Pair>
        <key>normal</key>
        <styleUrl>#line-000000-8750-nodesc-normal</styleUrl>
      </Pair>
      <Pair>
        <key>highlight</key>
        <styleUrl>#line-000000-8750-nodesc-highlight</styleUrl>
      </Pair>
    </StyleMap>
    <Style id="line-000000-8944-nodesc-normal">
      <LineStyle>
        <color>ff000000</color>
        <width>8.944</width>
      </LineStyle>
      <BalloonStyle>
        <text><![CDATA[<h3>$[name]</h3>]]></text>
      </BalloonStyle>
    </Style>
    <Style id="line-000000-8944-nodesc-highlight">
      <LineStyle>
        <color>ff000000</color>
        <width>13.416</width>
      </LineStyle>
      <BalloonStyle>
        <text><![CDATA[<h3>$[name]</h3>]]></text>
      </BalloonStyle>
    </Style>
    <StyleMap id="line-000000-8944-nodesc">
      <Pair>
        <key>normal</key>
        <styleUrl>#line-000000-8944-nodesc-normal</styleUrl>
      </Pair>
      <Pair>
        <key>highlight</key>
        <styleUrl>#line-000000-8944-nodesc-highlight</styleUrl>
      </Pair>
    </StyleMap>
    <Style id="line-000000-9138-nodesc-normal">
      <LineStyle>
        <color>ff000000</color>
        <width>9.138</width>
      </LineStyle>
      <BalloonStyle>
        <text><![CDATA[<h3>$[name]</h3>]]></text>
      </BalloonStyle>
    </Style>
    <Style id="line-000000-9138-nodesc-highlight">
      <LineStyle>
        <color>ff000000</color>
        <width>13.707</width>
      </LineStyle>
      <BalloonStyle>
        <text><![CDATA[<h3>$[name]</h3>]]></text>
      </BalloonStyle>
    </Style>
    <StyleMap id="line-000000-9138-nodesc">
      <Pair>
        <key>normal</key>
        <styleUrl>#line-000000-9138-nodesc-normal</styleUrl>
      </Pair>
      <Pair>
        <key>highlight</key>
        <styleUrl>#line-000000-9138-nodesc-highlight</styleUrl>
      </Pair>
    </StyleMap>
    <Style id="line-000000-9525-nodesc-normal">
      <LineStyle>
        <color>ff000000</color>
        <width>9.525</width>
      </LineStyle>
      <BalloonStyle>
        <text><![CDATA[<h3>$[name]</h3>]]></text>
      </BalloonStyle>
    </Style>
    <Style id="line-000000-9525-nodesc-highlight">
      <LineStyle>
        <color>ff000000</color>
        <width>14.2875</width>
      </LineStyle>
      <BalloonStyle>
        <text><![CDATA[<h3>$[name]</h3>]]></text>
      </BalloonStyle>
    </Style>
    <StyleMap id="line-000000-9525-nodesc">
      <Pair>
        <key>normal</key>
        <styleUrl>#line-000000-9525-nodesc-normal</styleUrl>
      </Pair>
      <Pair>
        <key>highlight</key>
        <styleUrl>#line-000000-9525-nodesc-highlight</styleUrl>
      </Pair>
    </StyleMap>
    <Style id="poly-CE93D8-1200-77-nodesc-normal">
      <LineStyle>
        <color>ffd893ce</color>
        <width>1.2</width>
      </LineStyle>
      <PolyStyle>
        <color>4dd893ce</color>
        <fill>1</fill>
        <outline>1</outline>
      </PolyStyle>
      <BalloonStyle>
        <text><![CDATA[<h3>$[name]</h3>]]></text>
      </BalloonStyle>
    </Style>
    <Style id="poly-CE93D8-1200-77-nodesc-highlight">
      <LineStyle>
        <color>ffd893ce</color>
        <width>1.8</width>
      </LineStyle>
      <PolyStyle>
        <color>4dd893ce</color>
        <fill>1</fill>
        <outline>1</outline>
      </PolyStyle>
      <BalloonStyle>
        <text><![CDATA[<h3>$[name]</h3>]]></text>
      </BalloonStyle>
    </Style>
    <StyleMap id="poly-CE93D8-1200-77-nodesc">
      <Pair>
        <key>normal</key>
        <styleUrl>#poly-CE93D8-1200-77-nodesc-normal</styleUrl>
      </Pair>
      <Pair>
        <key>highlight</key>
        <styleUrl>#poly-CE93D8-1200-77-nodesc-highlight</styleUrl>
      </Pair>
    </StyleMap>
    <Style id="poly-CE93D8-2301-77-nodesc-normal">
      <LineStyle>
        <color>ffd893ce</color>
        <width>2.301</width>
      </LineStyle>
      <PolyStyle>
        <color>4dd893ce</color>
        <fill>1</fill>
        <outline>1</outline>
      </PolyStyle>
      <BalloonStyle>
        <text><![CDATA[<h3>$[name]</h3>]]></text>
      </BalloonStyle>
    </Style>
    <Style id="poly-CE93D8-2301-77-nodesc-highlight">
      <LineStyle>
        <color>ffd893ce</color>
        <width>3.4515</width>
      </LineStyle>
      <PolyStyle>
        <color>4dd893ce</color>
        <fill>1</fill>
        <outline>1</outline>
      </PolyStyle>
      <BalloonStyle>
        <text><![CDATA[<h3>$[name]</h3>]]></text>
      </BalloonStyle>
    </Style>
    <StyleMap id="poly-CE93D8-2301-77-nodesc">
      <Pair>
        <key>normal</key>
        <styleUrl>#poly-CE93D8-2301-77-nodesc-normal</styleUrl>
      </Pair>
      <Pair>
        <key>highlight</key>
        <styleUrl>#poly-CE93D8-2301-77-nodesc-highlight</styleUrl>
      </Pair>
    </StyleMap>
    <Style id="poly-FADA80-3301-77-nodesc-normal">
      <LineStyle>
        <color>ff80dafa</color>
        <width>3.301</width>
      </LineStyle>
      <PolyStyle>
        <color>4d80dafa</color>
        <fill>1</fill>
        <outline>1</outline>
      </PolyStyle>
      <BalloonStyle>
        <text><![CDATA[<h3>$[name]</h3>]]></text>
      </BalloonStyle>
    </Style>
    <Style id="poly-FADA80-3301-77-nodesc-highlight">
      <LineStyle>
        <color>ff80dafa</color>
        <width>4.9515</width>
      </LineStyle>
      <PolyStyle>
        <color>4d80dafa</color>
        <fill>1</fill>
        <outline>1</outline>
      </PolyStyle>
      <BalloonStyle>
        <text><![CDATA[<h3>$[name]</h3>]]></text>
      </BalloonStyle>
    </Style>
    <StyleMap id="poly-FADA80-3301-77-nodesc">
      <Pair>
        <key>normal</key>
        <styleUrl>#poly-FADA80-3301-77-nodesc-normal</styleUrl>
      </Pair>
      <Pair>
        <key>highlight</key>
        <styleUrl>#poly-FADA80-3301-77-nodesc-highlight</styleUrl>
      </Pair>
    </StyleMap>
    <Style id="poly-FADA80-3801-77-nodesc-normal">
      <LineStyle>
        <color>ff80dafa</color>
        <width>3.801</width>
      </LineStyle>
      <PolyStyle>
        <color>4d80dafa</color>
        <fill>1</fill>
        <outline>1</outline>
      </PolyStyle>
      <BalloonStyle>
        <text><![CDATA[<h3>$[name]</h3>]]></text>
      </BalloonStyle>
    </Style>
    <Style id="poly-FADA80-3801-77-nodesc-highlight">
      <LineStyle>
        <color>ff80dafa</color>
        <width>5.7015</width>
      </LineStyle>
      <PolyStyle>
        <color>4d80dafa</color>
        <fill>1</fill>
        <outline>1</outline>
      </PolyStyle>
      <BalloonStyle>
        <text><![CDATA[<h3>$[name]</h3>]]></text>
      </BalloonStyle>
    </Style>
    <StyleMap id="poly-FADA80-3801-77-nodesc">
      <Pair>
        <key>normal</key>
        <styleUrl>#poly-FADA80-3801-77-nodesc-normal</styleUrl>
      </Pair>
      <Pair>
        <key>highlight</key>
        <styleUrl>#poly-FADA80-3801-77-nodesc-highlight</styleUrl>
      </Pair>
    </StyleMap>
    <Style id="poly-FF5252-2701-77-nodesc-normal">
      <LineStyle>
        <color>ff5252ff</color>
        <width>2.701</width>
      </LineStyle>
      <PolyStyle>
        <color>4d5252ff</color>
        <fill>1</fill>
        <outline>1</outline>
      </PolyStyle>
      <BalloonStyle>
        <text><![CDATA[<h3>$[name]</h3>]]></text>
      </BalloonStyle>
    </Style>
    <Style id="poly-FF5252-2701-77-nodesc-highlight">
      <LineStyle>
        <color>ff5252ff</color>
        <width>4.0515</width>
      </LineStyle>
      <PolyStyle>
        <color>4d5252ff</color>
        <fill>1</fill>
        <outline>1</outline>
      </PolyStyle>
      <BalloonStyle>
        <text><![CDATA[<h3>$[name]</h3>]]></text>
      </BalloonStyle>
    </Style>
    <StyleMap id="poly-FF5252-2701-77-nodesc">
      <Pair>
        <key>normal</key>
        <styleUrl>#poly-FF5252-2701-77-nodesc-normal</styleUrl>
      </Pair>
      <Pair>
        <key>highlight</key>
        <styleUrl>#poly-FF5252-2701-77-nodesc-highlight</styleUrl>
      </Pair>
    </StyleMap>
    <Style id="poly-FF5252-3501-77-nodesc-normal">
      <LineStyle>
        <color>ff5252ff</color>
        <width>3.501</width>
      </LineStyle>
      <PolyStyle>
        <color>4d5252ff</color>
        <fill>1</fill>
        <outline>1</outline>
      </PolyStyle>
      <BalloonStyle>
        <text><![CDATA[<h3>$[name]</h3>]]></text>
      </BalloonStyle>
    </Style>
    <Style id="poly-FF5252-3501-77-nodesc-highlight">
      <LineStyle>
        <color>ff5252ff</color>
        <width>5.2515</width>
      </LineStyle>
      <PolyStyle>
        <color>4d5252ff</color>
        <fill>1</fill>
        <outline>1</outline>
      </PolyStyle>
      <BalloonStyle>
        <text><![CDATA[<h3>$[name]</h3>]]></text>
      </BalloonStyle>
    </Style>
    <StyleMap id="poly-FF5252-3501-77-nodesc">
      <Pair>
        <key>normal</key>
        <styleUrl>#poly-FF5252-3501-77-nodesc-normal</styleUrl>
      </Pair>
      <Pair>
        <key>highlight</key>
        <styleUrl>#poly-FF5252-3501-77-nodesc-highlight</styleUrl>
      </Pair>
    </StyleMap>
    <Style id="poly-FF5252-3601-77-nodesc-normal">
      <LineStyle>
        <color>ff5252ff</color>
        <width>3.601</width>
      </LineStyle>
      <PolyStyle>
        <color>4d5252ff</color>
        <fill>1</fill>
        <outline>1</outline>
      </PolyStyle>
      <BalloonStyle>
        <text><![CDATA[<h3>$[name]</h3>]]></text>
      </BalloonStyle>
    </Style>
    <Style id="poly-FF5252-3601-77-nodesc-highlight">
      <LineStyle>
        <color>ff5252ff</color>
        <width>5.4015</width>
      </LineStyle>
      <PolyStyle>
        <color>4d5252ff</color>
        <fill>1</fill>
        <outline>1</outline>
      </PolyStyle>
      <BalloonStyle>
        <text><![CDATA[<h3>$[name]</h3>]]></text>
      </BalloonStyle>
    </Style>
    <StyleMap id="poly-FF5252-3601-77-nodesc">
      <Pair>
        <key>normal</key>
        <styleUrl>#poly-FF5252-3601-77-nodesc-normal</styleUrl>
      </Pair>
      <Pair>
        <key>highlight</key>
        <styleUrl>#poly-FF5252-3601-77-nodesc-highlight</styleUrl>
      </Pair>
    </StyleMap>
    <Style id="poly-FF5252-4101-36-nodesc-normal">
      <LineStyle>
        <color>ff5252ff</color>
        <width>4.101</width>
      </LineStyle>
      <PolyStyle>
        <color>245252ff</color>
        <fill>1</fill>
        <outline>1</outline>
      </PolyStyle>
      <BalloonStyle>
        <text><![CDATA[<h3>$[name]</h3>]]></text>
      </BalloonStyle>
    </Style>
    <Style id="poly-FF5252-4101-36-nodesc-highlight">
      <LineStyle>
        <color>ff5252ff</color>
        <width>6.1515</width>
      </LineStyle>
      <PolyStyle>
        <color>245252ff</color>
        <fill>1</fill>
        <outline>1</outline>
      </PolyStyle>
      <BalloonStyle>
        <text><![CDATA[<h3>$[name]</h3>]]></text>
      </BalloonStyle>
    </Style>
    <StyleMap id="poly-FF5252-4101-36-nodesc">
      <Pair>
        <key>normal</key>
        <styleUrl>#poly-FF5252-4101-36-nodesc-normal</styleUrl>
      </Pair>
      <Pair>
        <key>highlight</key>
        <styleUrl>#poly-FF5252-4101-36-nodesc-highlight</styleUrl>
      </Pair>
    </StyleMap>
    <Style id="poly-FF5252-5001-43-nodesc-normal">
      <LineStyle>
        <color>ff5252ff</color>
        <width>5.001</width>
      </LineStyle>
      <PolyStyle>
        <color>2b5252ff</color>
        <fill>1</fill>
        <outline>1</outline>
      </PolyStyle>
      <BalloonStyle>
        <text><![CDATA[<h3>$[name]</h3>]]></text>
      </BalloonStyle>
    </Style>
    <Style id="poly-FF5252-5001-43-nodesc-highlight">
      <LineStyle>
        <color>ff5252ff</color>
        <width>7.5015</width>
      </LineStyle>
      <PolyStyle>
        <color>2b5252ff</color>
        <fill>1</fill>
        <outline>1</outline>
      </PolyStyle>
      <BalloonStyle>
        <text><![CDATA[<h3>$[name]</h3>]]></text>
      </BalloonStyle>
    </Style>
    <StyleMap id="poly-FF5252-5001-43-nodesc">
      <Pair>
        <key>normal</key>
        <styleUrl>#poly-FF5252-5001-43-nodesc-normal</styleUrl>
      </Pair>
      <Pair>
        <key>highlight</key>
        <styleUrl>#poly-FF5252-5001-43-nodesc-highlight</styleUrl>
      </Pair>
    </StyleMap>
    <Folder>
      <name>giao thong</name>
      <Placemark>
        <name>Đường chính</name>
        <styleUrl>#line-000000-15919-nodesc</styleUrl>
        <LineString>
          <tessellate>1</tessellate>
          <coordinates>
            105.6507872,20.9328204,0
            105.6514873,20.9328129,0
            105.6522464,20.9327252,0
            105.6531503,20.9325924,0
          </coordinates>
        </LineString>
      </Placemark>
      <Placemark>
        <name>Đường chính</name>
        <styleUrl>#line-000000-14950-nodesc</styleUrl>
        <LineString>
          <tessellate>1</tessellate>
          <coordinates>
            105.6551674,20.9314775,0
            105.6544459,20.9319334,0
            105.6535393,20.932462,0
            105.6531503,20.9325924,0
          </coordinates>
        </LineString>
      </Placemark>
      <Placemark>
        <name>Đường chính</name>
        <styleUrl>#line-000000-17275-nodesc</styleUrl>
        <LineString>
          <tessellate>1</tessellate>
          <coordinates>
            105.6496011,20.9328257,0
            105.6502288,20.9328257,0
            105.6507872,20.9328204,0
          </coordinates>
        </LineString>
      </Placemark>
      <Placemark>
        <name>duong</name>
        <styleUrl>#line-000000-5844-nodesc</styleUrl>
        <LineString>
          <tessellate>1</tessellate>
          <coordinates>
            105.6493476,20.9324424,0
            105.6494308,20.9326365,0
            105.6494455,20.9326854,0
            105.6494607,20.9327355,0
          </coordinates>
        </LineString>
      </Placemark>
      <Placemark>
        <name>Đường nhánh</name>
        <styleUrl>#line-000000-11463-nodesc</styleUrl>
        <LineString>
          <tessellate>1</tessellate>
          <coordinates>
            105.6484505,20.9308716,0
            105.648885,20.9310219,0
            105.6492417,20.9311647,0
            105.6495984,20.9313601,0
            105.649923,20.9315555,0
            105.6501242,20.9318461,0
            105.6503242,20.9322186,0
            105.6504985,20.9325543,0
            105.6505602,20.9326983,0
            105.6505991,20.9328198,0
          </coordinates>
        </LineString>
      </Placemark>
      <Placemark>
        <name>duong</name>
        <styleUrl>#line-000000-6619-nodesc</styleUrl>
        <LineString>
          <tessellate>1</tessellate>
          <coordinates>
            105.6493626,20.9324765,0
            105.649494,20.9324173,0
            105.6495611,20.9323108,0
            105.6496027,20.9322306,0
            105.6496389,20.9321906,0
            105.6498079,20.9320666,0
            105.649954,20.9319501,0
            105.6501109,20.9318273,0
          </coordinates>
        </LineString>
      </Placemark>
      <Placemark>
        <name>duong</name>
        <styleUrl>#line-000000-6425-nodesc</styleUrl>
        <LineString>
          <tessellate>1</tessellate>
          <coordinates>
            105.6493961,20.9318386,0
            105.649435,20.9318311,0
            105.6494739,20.9318486,0
            105.6495262,20.9319238,0
            105.6495906,20.9320177,0
            105.6496067,20.9320791,0
            105.6496107,20.9321605,0
            105.6496027,20.9322306,0
          </coordinates>
        </LineString>
      </Placemark>
      <Placemark>
        <name>duong</name>
        <styleUrl>#line-000000-7200-nodesc</styleUrl>
        <LineString>
          <tessellate>1</tessellate>
          <coordinates>
            105.6480215,20.932659,0
            105.6481811,20.9326753,0
            105.648338,20.9326666,0
            105.6485137,20.9326164,0
            105.648676,20.9325638,0
            105.6488101,20.932535,0
            105.6490609,20.9324624,0
            105.6492218,20.9324411,0
            105.6493476,20.9324424,0
          </coordinates>
        </LineString>
      </Placemark>
      <Placemark>
        <name>duong</name>
        <styleUrl>#line-000000-6619-nodesc</styleUrl>
        <LineString>
          <tessellate>1</tessellate>
          <coordinates>
            105.6488868,20.932513,0
            105.6488358,20.9322662,0
            105.6488305,20.9320883,0
            105.6488358,20.9316524,0
            105.6488412,20.931581,0
            105.6488667,20.9315559,0
            105.6491389,20.9315772,0
            105.6493146,20.9313117,0
            105.649375,20.931239,0
          </coordinates>
        </LineString>
      </Placemark>
      <Placemark>
        <name>Đường chính</name>
        <styleUrl>#line-000000-16500-nodesc</styleUrl>
        <LineString>
          <tessellate>1</tessellate>
          <coordinates>
            105.6496011,20.9328257,0
            105.6494607,20.9327355,0
            105.6492903,20.9327506,0
            105.649175,20.9327869,0
            105.6486815,20.9330287,0
            105.6482425,20.9332444,0
            105.6482023,20.9332557,0
            105.6480065,20.9332294,0
            105.6479461,20.933252,0
            105.6472477,20.9335843,0
          </coordinates>
        </LineString>
      </Placemark>
      <Placemark>
        <name>duong</name>
        <styleUrl>#line-000000-8556-nodesc</styleUrl>
        <LineString>
          <tessellate>1</tessellate>
          <coordinates>
            105.650459,20.9328216,0
            105.6504282,20.9330094,0
            105.6503477,20.9334529,0
            105.6502927,20.933771,0
            105.6502096,20.9341844,0
            105.6501833,20.9342926,0
            105.6501149,20.9343816,0
            105.6500197,20.9344705,0
            105.6499285,20.9345356,0
            105.6498923,20.9345469,0
            105.6498521,20.9353516,0
          </coordinates>
        </LineString>
      </Placemark>
      <Placemark>
        <name>Đường chính</name>
        <styleUrl>#line-000000-11656-nodesc</styleUrl>
        <LineString>
          <tessellate>1</tessellate>
          <coordinates>
            105.6515218,20.9284785,0
            105.6513582,20.9294029,0
            105.6512749,20.9299135,0
            105.6511998,20.9303757,0
            105.6510925,20.9310646,0
            105.6509919,20.9316459,0
            105.6508954,20.9322534,0
            105.6508203,20.932683,0
            105.6508015,20.9328221,0
          </coordinates>
        </LineString>
      </Placemark>
      <Placemark>
        <name>duong</name>
        <styleUrl>#line-000000-6619-nodesc</styleUrl>
        <LineString>
          <tessellate>1</tessellate>
          <coordinates>
            105.6501109,20.9318273,0
            105.6503168,20.9317251,0
            105.6505341,20.9316462,0
            105.6508546,20.9315272,0
            105.6509632,20.9314909,0
            105.6510169,20.9314971,0
          </coordinates>
        </LineString>
      </Placemark>
      <Placemark>
        <name>duong</name>
        <styleUrl>#line-000000-6619-nodesc</styleUrl>
        <LineString>
          <tessellate>1</tessellate>
          <coordinates>
            105.6510924,20.9315866,0
            105.6508832,20.9328242,0
          </coordinates>
        </LineString>
      </Placemark>
      <Placemark>
        <name>duong</name>
        <styleUrl>#line-000000-8169-nodesc</styleUrl>
        <LineString>
          <tessellate>1</tessellate>
          <coordinates>
            105.6522752,20.9327195,0
            105.6522014,20.9326043,0
            105.6520847,20.9325141,0
            105.6519868,20.9323387,0
            105.651956,20.9322022,0
            105.6518286,20.9315346,0
            105.6516851,20.9311838,0
            105.6516703,20.9311337,0
            105.6516676,20.9310686,0
            105.6516931,20.9310022,0
            105.6517561,20.9309396,0
            105.651897,20.9308181,0
            105.6520619,20.9306953,0
            105.6519828,20.9306264,0
            105.6518782,20.9305299,0
            105.6518179,20.9305274,0
            105.6517575,20.9305198,0
            105.6516744,20.9304597,0
            105.6516027,20.9303829,0
          </coordinates>
        </LineString>
      </Placemark>
      <Placemark>
        <name>duong </name>
        <styleUrl>#line-000000-8363-nodesc</styleUrl>
        <LineString>
          <tessellate>1</tessellate>
          <coordinates>
            105.6511235,20.9308315,0
            105.6503685,20.9308917,0
            105.6499876,20.9309217,0
            105.6499688,20.9307676,0
            105.6499554,20.9307175,0
            105.6499098,20.9307063,0
            105.6496845,20.9307188,0
            105.6496577,20.9307651,0
            105.649663,20.9309668,0
            105.6497234,20.9311196,0
            105.6498682,20.9313539,0
            105.6499272,20.9314992,0
            105.649923,20.9315555,0
          </coordinates>
        </LineString>
      </Placemark>
      <Placemark>
        <name>duong</name>
        <styleUrl>#line-000000-6619-nodesc</styleUrl>
        <LineString>
          <tessellate>1</tessellate>
          <coordinates>
            105.648885,20.9310219,0
            105.6489478,20.9308986,0
            105.6490524,20.9307996,0
            105.649149,20.9307182,0
            105.6492053,20.9306606,0
            105.6493488,20.9306117,0
            105.6494588,20.9305804,0
            105.6495419,20.9305704,0
            105.6495781,20.930608,0
            105.6495969,20.9306756,0
            105.6496465,20.9307094,0
            105.6496845,20.9307188,0
          </coordinates>
        </LineString>
      </Placemark>
      <Placemark>
        <name>duong</name>
        <styleUrl>#line-000000-6619-nodesc</styleUrl>
        <LineString>
          <tessellate>1</tessellate>
          <coordinates>
            105.6498016,20.9295166,0
            105.6498418,20.9297671,0
            105.6498539,20.9299701,0
            105.649874,20.9301284,0
            105.6499021,20.9302136,0
            105.6499142,20.9304165,0
            105.6499209,20.9305167,0
            105.6498981,20.9307096,0
          </coordinates>
        </LineString>
      </Placemark>
      <Placemark>
        <name>duong</name>
        <styleUrl>#line-000000-7200-nodesc</styleUrl>
        <LineString>
          <tessellate>1</tessellate>
          <coordinates>
            105.6499095,20.9303467,0
            105.6500677,20.9303392,0
            105.650183,20.930338,0
            105.6502796,20.930368,0
            105.6503332,20.9303693,0
            105.6503547,20.9303467,0
            105.6503641,20.9302891,0
            105.6503721,20.9302252,0
            105.6503547,20.9301852,0
            105.6503158,20.9301526,0
            105.650289,20.9301037,0
            105.6502877,20.9300461,0
            105.6502944,20.929981,0
          </coordinates>
        </LineString>
      </Placemark>
      <Placemark>
        <name>duong</name>
        <styleUrl>#line-000000-6619-nodesc</styleUrl>
        <LineString>
          <tessellate>1</tessellate>
          <coordinates>
            105.6512931,20.9297865,0
            105.6512059,20.9297728,0
            105.6510825,20.9297828,0
            105.6509484,20.9297615,0
            105.6507902,20.9297264,0
            105.6507607,20.9297828,0
            105.6506378,20.9301102,0
            105.6506123,20.9301903,0
            105.6506781,20.9302179,0
            105.6507679,20.930263,0
            105.65078,20.9303118,0
            105.6507612,20.9304321,0
            105.6508122,20.9304584,0
            105.6511756,20.9305135,0
          </coordinates>
        </LineString>
      </Placemark>
      <Placemark>
        <name>duong</name>
        <styleUrl>#line-000000-8169-nodesc</styleUrl>
        <LineString>
          <tessellate>1</tessellate>
          <coordinates>
            105.6499363,20.9328279,0
            105.6497338,20.9330584,0
            105.6497003,20.9332012,0
            105.6496748,20.933349,0
            105.6496345,20.9335105,0
            105.649428,20.9335957,0
            105.649247,20.9335782,0
            105.6491504,20.9335431,0
            105.6489425,20.9333302,0
            105.6488808,20.9332325,0
            105.6487964,20.9331435,0
            105.6487172,20.9330145,0
          </coordinates>
        </LineString>
      </Placemark>
      <Placemark>
        <name>duong</name>
        <styleUrl>#line-000000-10106-nodesc</styleUrl>
        <LineString>
          <tessellate>1</tessellate>
          <coordinates>
            105.6485489,20.9303248,0
            105.6484403,20.9308735,0
            105.6483303,20.9312931,0
            105.648174,20.9320183,0
            105.6480215,20.932659,0
            105.6479765,20.9329519,0
            105.6479872,20.9332337,0
          </coordinates>
        </LineString>
      </Placemark>
      <Placemark>
        <name>duong</name>
        <styleUrl>#line-000000-7006-nodesc</styleUrl>
        <LineString>
          <tessellate>1</tessellate>
          <coordinates>
            105.6508015,20.9328221,0
            105.650653,20.9336914,0
          </coordinates>
        </LineString>
      </Placemark>
      <Placemark>
        <name>duong</name>
        <styleUrl>#line-000000-8363-nodesc</styleUrl>
        <LineString>
          <tessellate>1</tessellate>
          <coordinates>
            105.6479856,20.9332421,0
            105.6479306,20.9333762,0
            105.647881,20.9335327,0
            105.6479185,20.9337256,0
            105.6479829,20.9337895,0
            105.6482264,20.9339752,0
            105.6483565,20.9340792,0
          </coordinates>
        </LineString>
      </Placemark>
      <Placemark>
        <name>duong</name>
        <styleUrl>#line-000000-6231-nodesc</styleUrl>
        <LineString>
          <tessellate>1</tessellate>
          <coordinates>
            105.6483565,20.9340792,0
            105.6484755,20.9339416,0
            105.6485439,20.9338414,0
            105.6486216,20.9336861,0
            105.6486726,20.9335984,0
            105.6487611,20.9334744,0
            105.6488429,20.933388,0
            105.6489341,20.9333166,0
          </coordinates>
        </LineString>
      </Placemark>
      <Placemark>
        <name>duong</name>
        <styleUrl>#line-000000-7394-nodesc</styleUrl>
        <LineString>
          <tessellate>1</tessellate>
          <coordinates>
            105.6496345,20.9335105,0
            105.6496864,20.9335449,0
            105.6498969,20.93359,0
            105.6501852,20.9336501,0
            105.65031,20.9336714,0
          </coordinates>
        </LineString>
      </Placemark>
      <Placemark>
        <name>duong</name>
        <styleUrl>#line-000000-7200-nodesc</styleUrl>
        <LineString>
          <tessellate>1</tessellate>
          <coordinates>
            105.6482689,20.9341866,0
            105.6485693,20.9342818,0
            105.6489475,20.9343945,0
            105.6493096,20.9344797,0
            105.649602,20.9345298,0
            105.6498923,20.9345469,0
          </coordinates>
        </LineString>
      </Placemark>
      <Placemark>
        <name>duong</name>
        <styleUrl>#line-000000-8944-nodesc</styleUrl>
        <LineString>
          <tessellate>1</tessellate>
          <coordinates>
            105.6483565,20.9340792,0
            105.6482689,20.9341866,0
            105.6479714,20.9345369,0
            105.6477568,20.9347749,0
          </coordinates>
        </LineString>
      </Placemark>
      <Placemark>
        <name>duong</name>
        <styleUrl>#line-000000-6619-nodesc</styleUrl>
        <LineString>
          <tessellate>1</tessellate>
          <coordinates>
            105.6503566,20.9303267,0
            105.6505188,20.9303543,0
            105.6507307,20.9304269,0
            105.6507612,20.9304321,0
          </coordinates>
        </LineString>
      </Placemark>
      <Placemark>
        <name>duong</name>
        <styleUrl>#line-000000-7200-nodesc</styleUrl>
        <LineString>
          <tessellate>1</tessellate>
          <coordinates>
            105.6505993,20.9308703,0
            105.6505979,20.9307714,0
            105.65061,20.9307075,0
            105.6506422,20.9306348,0
            105.6506851,20.9305472,0
            105.6507347,20.9304733,0
            105.6507612,20.9304321,0
          </coordinates>
        </LineString>
      </Placemark>
      <Placemark>
        <name>duong</name>
        <styleUrl>#line-000000-5263-nodesc</styleUrl>
        <LineString>
          <tessellate>1</tessellate>
          <coordinates>
            105.6498923,20.9345469,0
            105.6499035,20.9344132,0
            105.6499464,20.9341952,0
            105.6499813,20.9340424,0
            105.6500403,20.933847,0
            105.6500873,20.9337004,0
            105.650106,20.9336366,0
          </coordinates>
        </LineString>
      </Placemark>
      <Placemark>
        <name>duong</name>
        <styleUrl>#line-000000-6038-nodesc</styleUrl>
        <LineString>
          <tessellate>1</tessellate>
          <coordinates>
            105.6514976,20.9328152,0
            105.6514989,20.9329467,0
            105.6514976,20.9331984,0
            105.6514775,20.9334114,0
            105.6514526,20.933623,0
            105.6514392,20.9336781,0
            105.6512649,20.9336694,0
            105.6511576,20.9336731,0
            105.6510798,20.9336831,0
          </coordinates>
        </LineString>
      </Placemark>
      <Placemark>
        <name>duong</name>
        <styleUrl>#line-000000-7200-nodesc</styleUrl>
        <LineString>
          <tessellate>1</tessellate>
          <coordinates>
            105.6522752,20.9327195,0
            105.6523665,20.9329661,0
            105.6525221,20.9332768,0
            105.6527554,20.9338379,0
            105.6528574,20.9341035,0
          </coordinates>
        </LineString>
      </Placemark>
      <Placemark>
        <name>duong</name>
        <styleUrl>#line-000000-8750-nodesc</styleUrl>
        <LineString>
          <tessellate>1</tessellate>
          <coordinates>
            105.6516935,20.9345923,0
            105.651837,20.9345247,0
            105.6519886,20.9344596,0
            105.6521348,20.9343706,0
            105.6522622,20.9342942,0
            105.6523896,20.9342354,0
            105.6524714,20.9342053,0
            105.6525991,20.9341654,0
            105.6527319,20.9341329,0
            105.6528574,20.9341035,0
            105.652992,20.9340978,0
            105.653161,20.9341128,0
            105.6533152,20.9341091,0
            105.653381,20.9341091,0
            105.6534695,20.9342155,0
            105.6535392,20.9343032,0
            105.653621,20.9343621,0
            105.6536264,20.934436,0
            105.6536559,20.9346439,0
            105.6536841,20.9347905,0
          </coordinates>
        </LineString>
      </Placemark>
      <Placemark>
        <name>duong</name>
        <styleUrl>#line-000000-8363-nodesc</styleUrl>
        <LineString>
          <tessellate>1</tessellate>
          <coordinates>
            105.6521242,20.9335746,0
            105.6522221,20.9337274,0
            105.6522958,20.9338827,0
            105.6523682,20.9340731,0
            105.6524353,20.9342196,0
          </coordinates>
        </LineString>
      </Placemark>
      <Placemark>
        <name>duong</name>
        <styleUrl>#line-000000-6619-nodesc</styleUrl>
        <LineString>
          <tessellate>1</tessellate>
          <coordinates>
            105.6524514,20.9336948,0
            105.6525117,20.9338426,0
            105.6525721,20.9339654,0
            105.652607,20.9340593,0
            105.6526391,20.9341533,0
          </coordinates>
        </LineString>
      </Placemark>
      <Placemark>
        <name>duong</name>
        <styleUrl>#line-000000-7781-nodesc</styleUrl>
        <LineString>
          <tessellate>1</tessellate>
          <coordinates>
            105.6520272,20.9338607,0
            105.6520902,20.9339872,0
            105.6521452,20.9340598,0
            105.6522096,20.9342039,0
            105.6522622,20.9342942,0
          </coordinates>
        </LineString>
      </Placemark>
      <Placemark>
        <name>duong</name>
        <styleUrl>#line-000000-8363-nodesc</styleUrl>
        <LineString>
          <tessellate>1</tessellate>
          <coordinates>
            105.6518344,20.9338817,0
            105.6518975,20.9340082,0
            105.6519511,20.9341009,0
            105.6519994,20.9341798,0
            105.652053,20.9342449,0
            105.6520933,20.9343176,0
            105.6521134,20.9343802,0
          </coordinates>
        </LineString>
      </Placemark>
      <Placemark>
        <name>duong</name>
        <styleUrl>#line-000000-7781-nodesc</styleUrl>
        <LineString>
          <tessellate>1</tessellate>
          <coordinates>
            105.6510552,20.9312704,0
            105.6511826,20.9312879,0
            105.6513811,20.9313393,0
            105.6515138,20.9313631,0
            105.6516573,20.9313493,0
            105.6517391,20.9313155,0
          </coordinates>
        </LineString>
      </Placemark>
      <Placemark>
        <name>duong</name>
        <styleUrl>#line-000000-7781-nodesc</styleUrl>
        <LineString>
          <tessellate>1</tessellate>
          <coordinates>
            105.649254,20.9306422,0
            105.6492191,20.9305295,0
            105.6491614,20.930383,0
            105.6490796,20.9301725,0
            105.6489871,20.929942,0
            105.6491116,20.9299083,0
            105.6492793,20.9298883,0
            105.6494335,20.9298532,0
            105.6496159,20.9297943,0
          </coordinates>
        </LineString>
      </Placemark>
      <Placemark>
        <name>duong</name>
        <styleUrl>#line-000000-6813-nodesc</styleUrl>
        <LineString>
          <tessellate>1</tessellate>
          <coordinates>
            105.650361,20.93228,0
            105.65053,20.9322236,0
            105.6507124,20.9321873,0
            105.6509095,20.932151,0
          </coordinates>
        </LineString>
      </Placemark>
      <Placemark>
        <name>duong</name>
        <styleUrl>#line-000000-7975-nodesc</styleUrl>
        <LineString>
          <tessellate>1</tessellate>
          <coordinates>
            105.6503078,20.9337063,0
            105.6504808,20.9337438,0
            105.6505948,20.9337752,0
          </coordinates>
        </LineString>
      </Placemark>
      <Placemark>
        <name>duong</name>
        <styleUrl>#line-000000-6619-nodesc</styleUrl>
        <LineString>
          <tessellate>1</tessellate>
          <coordinates>
            105.6531503,20.9325924,0
            105.6532255,20.9329092,0
            105.6532845,20.9332223,0
            105.653314,20.9334704,0
            105.6533207,20.933558,0
            105.6533086,20.9336958,0
            105.6533127,20.9337735,0
            105.6533328,20.9338536,0
            105.6533502,20.9339275,0
            105.653365,20.9340365,0
            105.653381,20.9341091,0
          </coordinates>
        </LineString>
      </Placemark>
      <Placemark>
        <name>duong</name>
        <styleUrl>#line-000000-6425-nodesc</styleUrl>
        <LineString>
          <tessellate>1</tessellate>
          <coordinates>
            105.6527256,20.9337724,0
            105.6529228,20.9336747,0
            105.6530623,20.933597,0
            105.6532058,20.9335218,0
            105.653314,20.9334704,0
          </coordinates>
        </LineString>
      </Placemark>
      <Placemark>
        <name>duong</name>
        <styleUrl>#line-000000-6813-nodesc</styleUrl>
        <LineString>
          <tessellate>1</tessellate>
          <coordinates>
            105.6520619,20.9306953,0
            105.6521576,20.9306149,0
            105.6522367,20.9305473,0
            105.6522944,20.9305385,0
            105.6524097,20.9305749,0
            105.6524567,20.9305936,0
            105.6525734,20.9305961,0
            105.6526243,20.9306037,0
          </coordinates>
        </LineString>
      </Placemark>
      <Placemark>
        <name>duong</name>
        <styleUrl>#line-000000-6619-nodesc</styleUrl>
        <LineString>
          <tessellate>1</tessellate>
          <coordinates>
            105.6526243,20.9306037,0
            105.6526781,20.9307705,0
            105.6527089,20.9308845,0
            105.6527304,20.9309935,0
            105.6527344,20.93113,0
            105.652729,20.9312152,0
            105.6527451,20.9313342,0
            105.6527922,20.9315327,0
            105.6528606,20.931787,0
            105.6529088,20.9319192,0
            105.652941,20.9319606,0
            105.6529732,20.9319819,0
            105.6530255,20.9319919,0
            105.6531315,20.9320094,0
            105.6531905,20.9320119,0
            105.6532428,20.9320295,0
            105.6532991,20.9320558,0
            105.6533259,20.9320858,0
            105.6533679,20.9322377,0
            105.6534001,20.9323529,0
            105.6534322,20.9324469,0
            105.6534497,20.9324907,0
          </coordinates>
        </LineString>
      </Placemark>
      <Placemark>
        <name>duong</name>
        <styleUrl>#line-000000-8363-nodesc</styleUrl>
        <LineString>
          <tessellate>1</tessellate>
          <coordinates>
            105.6518286,20.9315346,0
            105.6520205,20.9314538,0
            105.6521626,20.93141,0
            105.6521439,20.9313173,0
            105.6523008,20.931316,0
            105.6524671,20.9312672,0
            105.6526736,20.9312221,0
            105.652729,20.9312152,0
          </coordinates>
        </LineString>
      </Placemark>
      <Placemark>
        <name>duong</name>
        <styleUrl>#line-000000-6619-nodesc</styleUrl>
        <LineString>
          <tessellate>1</tessellate>
          <coordinates>
            105.6529732,20.9319819,0
            105.6529751,20.9320569,0
            105.6529832,20.9321358,0
            105.652896,20.9321734,0
            105.652782,20.9322285,0
            105.6526747,20.9322887,0
            105.6525849,20.9323363,0
            105.6525084,20.9323425,0
            105.6524534,20.9322999,0
            105.6524079,20.9322649,0
            105.6523529,20.9322285,0
            105.652318,20.9322035,0
            105.6522979,20.9321183,0
            105.6522925,20.9320494,0
            105.6523368,20.9319931,0
            105.652432,20.9319805,0
            105.6524964,20.9319893,0
            105.6525406,20.9319793,0
            105.6525125,20.9318277,0
            105.65266,20.9317989,0
            105.6526962,20.9317713,0
            105.6528477,20.9317338,0
          </coordinates>
        </LineString>
      </Placemark>
      <Placemark>
        <name>duong</name>
        <styleUrl>#line-000000-8556-nodesc</styleUrl>
        <LineString>
          <tessellate>1</tessellate>
          <coordinates>
            105.6495419,20.9305704,0
            105.649514,20.9303706,0
            105.6494751,20.9302967,0
          </coordinates>
        </LineString>
      </Placemark>
      <Placemark>
        <name>duong</name>
        <styleUrl>#line-000000-7588-nodesc</styleUrl>
        <LineString>
          <tessellate>1</tessellate>
          <coordinates>
            105.6506095,20.9297808,0
            105.6506243,20.9297081,0
            105.6507208,20.9297106,0
            105.6507902,20.9297264,0
          </coordinates>
        </LineString>
      </Placemark>
      <Placemark>
        <name>duong</name>
        <styleUrl>#line-000000-10106-nodesc</styleUrl>
        <LineString>
          <tessellate>1</tessellate>
          <coordinates>
            105.6521439,20.9313173,0
            105.6521031,20.9310939,0
          </coordinates>
        </LineString>
      </Placemark>
      <Placemark>
        <name>duong</name>
        <styleUrl>#line-000000-7781-nodesc</styleUrl>
        <LineString>
          <tessellate>1</tessellate>
          <coordinates>
            105.6489597,20.9338965,0
            105.6490884,20.9336974,0
            105.6491504,20.9335431,0
            105.6492587,20.9332502,0
            105.6493432,20.9331174,0
            105.649484,20.9330084,0
            105.6496011,20.9328257,0
          </coordinates>
        </LineString>
      </Placemark>
      <Placemark>
        <name>duong</name>
        <styleUrl>#line-000000-9525-nodesc</styleUrl>
        <LineString>
          <tessellate>1</tessellate>
          <coordinates>
            105.6488357,20.9329439,0
            105.6487378,20.9327435,0
          </coordinates>
        </LineString>
      </Placemark>
      <Placemark>
        <name>duong</name>
        <styleUrl>#line-000000-9138-nodesc</styleUrl>
        <LineString>
          <tessellate>1</tessellate>
          <coordinates>
            105.6484364,20.9331564,0
            105.6485088,20.9332679,0
            105.6485866,20.9333568,0
            105.6487515,20.9334833,0
          </coordinates>
        </LineString>
      </Placemark>
      <Placemark>
        <name>duong</name>
        <styleUrl>#line-000000-7975-nodesc</styleUrl>
        <LineString>
          <tessellate>1</tessellate>
          <coordinates>
            105.6483066,20.9313873,0
            105.6486164,20.9314136,0
            105.6486674,20.9315814,0
            105.6488412,20.931581,0
          </coordinates>
        </LineString>
      </Placemark>
      <Placemark>
        <name>duong</name>
        <styleUrl>#line-000000-7200-nodesc</styleUrl>
        <LineString>
          <tessellate>1</tessellate>
          <coordinates>
            105.653314,20.9334704,0
            105.6541416,20.9330425,0
            105.6550643,20.9325515,0
          </coordinates>
        </LineString>
      </Placemark>
      <Placemark>
        <name>duong</name>
        <styleUrl>#line-000000-6425-nodesc</styleUrl>
        <LineString>
          <tessellate>1</tessellate>
          <coordinates>
            105.653621,20.9343621,0
            105.6538055,20.9343003,0
            105.6540509,20.9341562,0
            105.6548287,20.9337767,0
            105.6550943,20.9336189,0
            105.6551989,20.9334698,0
            105.6553196,20.9333395,0
          </coordinates>
        </LineString>
      </Placemark>
      <Placemark>
        <name>duong</name>
        <styleUrl>#line-000000-6813-nodesc</styleUrl>
        <LineString>
          <tessellate>1</tessellate>
          <coordinates>
            105.6538538,20.93319,0
            105.6539034,20.9333115,0
            105.6539772,20.9335657,0
            105.6540255,20.933696,0
            105.6540898,20.9338826,0
            105.6541757,20.9340142,0
            105.6542139,20.9340787,0
          </coordinates>
        </LineString>
      </Placemark>
      <Placemark>
        <name>duong</name>
        <styleUrl>#line-000000-7006-nodesc</styleUrl>
        <LineString>
          <tessellate>1</tessellate>
          <coordinates>
            105.6539836,20.9335845,0
            105.6540107,20.9335745,0
            105.6540777,20.9335394,0
            105.6541127,20.9335495,0
            105.6541515,20.9336422,0
            105.6542306,20.93382,0
            105.6542588,20.9338575,0
            105.6543111,20.9338889,0
            105.6543634,20.9339253,0
            105.6543997,20.9339841,0
          </coordinates>
        </LineString>
      </Placemark>
      <Placemark>
        <name>duong</name>
        <styleUrl>#line-000000-7006-nodesc</styleUrl>
        <LineString>
          <tessellate>1</tessellate>
          <coordinates>
            105.6546368,20.9327785,0
            105.6546891,20.932875,0
            105.6547213,20.9329426,0
            105.6547562,20.9329577,0
            105.6548313,20.9330385,0
            105.654901,20.9330059,0
            105.6550097,20.9331136,0
            105.6550576,20.9330923,0
            105.6551257,20.9331675,0
          </coordinates>
        </LineString>
      </Placemark>
      <Placemark>
        <name>duong</name>
        <styleUrl>#line-000000-7200-nodesc</styleUrl>
        <LineString>
          <tessellate>1</tessellate>
          <coordinates>
            105.6543802,20.9329143,0
            105.6545072,20.9331718,0
            105.6545662,20.9331442,0
            105.6546145,20.9332281,0
          </coordinates>
        </LineString>
      </Placemark>
      <Placemark>
        <name>duong</name>
        <styleUrl>#line-000000-7588-nodesc</styleUrl>
        <LineString>
          <tessellate>1</tessellate>
          <coordinates>
            105.6536579,20.9323937,0
            105.6538295,20.9326805,0
            105.6539864,20.9329498,0
            105.6540575,20.9330839,0
          </coordinates>
        </LineString>
      </Placemark>
      <Placemark>
        <name>duong</name>
        <styleUrl>#line-000000-6813-nodesc</styleUrl>
        <LineString>
          <tessellate>1</tessellate>
          <coordinates>
            105.6536775,20.9332787,0
            105.6537579,20.9334841,0
            105.6538451,20.9337309,0
          </coordinates>
        </LineString>
      </Placemark>
      <Placemark>
        <name>duong</name>
        <styleUrl>#line-000000-8363-nodesc</styleUrl>
        <LineString>
          <tessellate>1</tessellate>
          <coordinates>
            105.65324,20.9329817,0
            105.65346,20.9328859,0
            105.6536585,20.9327738,0
            105.6536611,20.9327587,0
            105.6536571,20.9327443,0
            105.6536437,20.9327186,0
            105.6534965,20.9324761,0
          </coordinates>
        </LineString>
      </Placemark>
      <Placemark>
        <name>duong</name>
        <styleUrl>#line-000000-8556-nodesc</styleUrl>
        <LineString>
          <tessellate>1</tessellate>
          <coordinates>
            105.6540364,20.9330954,0
            105.6541638,20.9332707,0
            105.6542483,20.9333972,0
            105.6543448,20.9335713,0
            105.6543582,20.9336415,0
            105.6543127,20.9336941,0
          </coordinates>
        </LineString>
      </Placemark>
      <Placemark>
        <name>duong</name>
        <styleUrl>#line-000000-6619-nodesc</styleUrl>
        <LineString>
          <tessellate>1</tessellate>
          <coordinates>
            105.6529359,20.9334416,0
            105.6532886,20.9332663,0
          </coordinates>
        </LineString>
      </Placemark>
      <Placemark>
        <name>duong</name>
        <styleUrl>#line-000000-7200-nodesc</styleUrl>
        <LineString>
          <tessellate>1</tessellate>
          <coordinates>
            105.6528328,20.9329354,0
            105.6531976,20.9327964,0
          </coordinates>
        </LineString>
      </Placemark>
      <Placemark>
        <name>duong</name>
        <styleUrl>#line-000000-6038-nodesc</styleUrl>
        <LineString>
          <tessellate>1</tessellate>
          <coordinates>
            105.6523068,20.9339049,0
            105.6525117,20.9338426,0
          </coordinates>
        </LineString>
      </Placemark>
      <Placemark>
        <name>duong</name>
        <styleUrl>#line-000000-8169-nodesc</styleUrl>
        <LineString>
          <tessellate>1</tessellate>
          <coordinates>
            105.6494308,20.9326365,0
            105.6497965,20.9324545,0
            105.6498582,20.9324051,0
          </coordinates>
        </LineString>
      </Placemark>
      <Placemark>
        <name>duong</name>
        <styleUrl>#line-000000-7975-nodesc</styleUrl>
        <LineString>
          <tessellate>1</tessellate>
          <coordinates>
            105.6489794,20.9344011,0
            105.64908,20.9341092,0
          </coordinates>
        </LineString>
      </Placemark>
      <Placemark>
        <name>duong</name>
        <styleUrl>#line-000000-7006-nodesc</styleUrl>
        <LineString>
          <tessellate>1</tessellate>
          <coordinates>
            105.6494097,20.9344978,0
            105.6494848,20.9341646,0
          </coordinates>
        </LineString>
      </Placemark>
      <Placemark>
        <name>duong</name>
        <styleUrl>#line-000000-6619-nodesc</styleUrl>
        <LineString>
          <tessellate>1</tessellate>
          <coordinates>
            105.6497681,20.9335644,0
            105.6496903,20.9338638,0
          </coordinates>
        </LineString>
      </Placemark>
      <Placemark>
        <name>duong</name>
        <styleUrl>#line-000000-7394-nodesc</styleUrl>
        <LineString>
          <tessellate>1</tessellate>
          <coordinates>
            105.6493242,20.933587,0
            105.6492987,20.9339289,0
          </coordinates>
        </LineString>
      </Placemark>
      <Placemark>
        <name>duong</name>
        <styleUrl>#line-000000-7588-nodesc</styleUrl>
        <LineString>
          <tessellate>1</tessellate>
          <coordinates>
            105.6496257,20.9345305,0
            105.6496894,20.9342994,0
          </coordinates>
        </LineString>
      </Placemark>
      <Placemark>
        <name>duong</name>
        <styleUrl>#line-000000-7200-nodesc</styleUrl>
        <LineString>
          <tessellate>1</tessellate>
          <coordinates>
            105.6496318,20.9334994,0
            105.6494615,20.9334719,0
            105.6494306,20.9334456,0
            105.6494212,20.9334068,0
            105.6494467,20.9333303,0
          </coordinates>
        </LineString>
      </Placemark>
      <Placemark>
        <name>duong</name>
        <styleUrl>#line-000000-6813-nodesc</styleUrl>
        <LineString>
          <tessellate>1</tessellate>
          <coordinates>
            105.6497149,20.9331412,0
            105.6500703,20.9331938,0
          </coordinates>
        </LineString>
      </Placemark>
      <Placemark>
        <name>duong</name>
        <styleUrl>#line-000000-7006-nodesc</styleUrl>
        <LineString>
          <tessellate>1</tessellate>
          <coordinates>
            105.6524341,20.9305866,0
            105.6523885,20.9307682,0
            105.6523885,20.9308897,0
            105.6523899,20.9311076,0
          </coordinates>
        </LineString>
      </Placemark>
      <Placemark>
        <name>duong</name>
        <styleUrl>#line-000000-7588-nodesc</styleUrl>
        <LineString>
          <tessellate>1</tessellate>
          <coordinates>
            105.6524945,20.9309582,0
            105.6525414,20.9310521,0
            105.6526353,20.9310646,0
            105.6527305,20.9310584,0
          </coordinates>
        </LineString>
      </Placemark>
      <Placemark>
        <name>duong</name>
        <styleUrl>#line-000000-7588-nodesc</styleUrl>
        <LineString>
          <tessellate>1</tessellate>
          <coordinates>
            105.6514392,20.9336781,0
            105.6514308,20.9337753,0
            105.6514818,20.9338053,0
            105.651628,20.9338842,0
          </coordinates>
        </LineString>
      </Placemark>
      <Placemark>
        <name>duong</name>
        <styleUrl>#line-000000-8556-nodesc</styleUrl>
        <LineString>
          <tessellate>1</tessellate>
          <coordinates>
            105.6550255,20.9325677,0
            105.6544744,20.9319164,0
          </coordinates>
        </LineString>
      </Placemark>
      <Placemark>
        <name>duong</name>
        <styleUrl>#line-000000-7588-nodesc</styleUrl>
        <LineString>
          <tessellate>1</tessellate>
          <coordinates>
            105.6537582,20.9325577,0
            105.6541069,20.9323635,0
            105.6545951,20.9320654,0
          </coordinates>
        </LineString>
      </Placemark>
      <Placemark>
        <name>duong</name>
        <styleUrl>#line-000000-7394-nodesc</styleUrl>
        <LineString>
          <tessellate>1</tessellate>
          <coordinates>
            105.6540962,20.9323673,0
            105.6539808,20.9322107,0
          </coordinates>
        </LineString>
      </Placemark>
      <Placemark>
        <name>duong</name>
        <styleUrl>#line-000000-7975-nodesc</styleUrl>
        <LineString>
          <tessellate>1</tessellate>
          <coordinates>
            105.6548453,20.9326686,0
            105.655011,20.9328934,0
          </coordinates>
        </LineString>
      </Placemark>
      <Placemark>
        <name>duong</name>
        <styleUrl>#line-000000-8169-nodesc</styleUrl>
        <LineString>
          <tessellate>1</tessellate>
          <coordinates>
            105.6509516,20.9318539,0
            105.6505747,20.9319015,0
          </coordinates>
        </LineString>
      </Placemark>
      <Placemark>
        <name>duong</name>
        <styleUrl>#line-000000-7394-nodesc</styleUrl>
        <LineString>
          <tessellate>1</tessellate>
          <coordinates>
            105.6521462,20.9317507,0
            105.6523353,20.931658,0
            105.6524761,20.9315928,0
            105.6528006,20.931564,0
          </coordinates>
        </LineString>
      </Placemark>
      <Placemark>
        <name>duong</name>
        <styleUrl>#line-000000-7394-nodesc</styleUrl>
        <LineString>
          <tessellate>1</tessellate>
          <coordinates>
            105.6484877,20.9339198,0
            105.6482275,20.933782,0
            105.6482088,20.9337156,0
          </coordinates>
        </LineString>
      </Placemark>
      <Placemark>
        <name>duong</name>
        <styleUrl>#line-000000-8169-nodesc</styleUrl>
        <LineString>
          <tessellate>1</tessellate>
          <coordinates>
            105.6522039,20.9343316,0
            105.6524037,20.9346021,0
          </coordinates>
        </LineString>
      </Placemark>
      <Placemark>
        <name>duong</name>
        <styleUrl>#line-000000-7781-nodesc</styleUrl>
        <LineString>
          <tessellate>1</tessellate>
          <coordinates>
            105.6524104,20.9342314,0
            105.6525727,20.9345195,0
          </coordinates>
        </LineString>
      </Placemark>
      <Placemark>
        <name>duong</name>
        <styleUrl>#line-000000-8363-nodesc</styleUrl>
        <LineString>
          <tessellate>1</tessellate>
          <coordinates>
            105.6520711,20.9344118,0
            105.6522455,20.9346823,0
          </coordinates>
        </LineString>
      </Placemark>
    </Folder>
    <Folder>
      <name>công trình tâm linh</name>
      <Placemark>
        <name>Quán Phú Vinh</name>
        <styleUrl>#icon-1899-E65100-nodesc</styleUrl>
        <Point>
          <coordinates>
            105.6511998,20.9325286,0
          </coordinates>
        </Point>
      </Placemark>
      <Placemark>
        <name>Quán Phú Vinh</name>
        <styleUrl>#poly-FF5252-5001-43-nodesc</styleUrl>
        <Polygon>
          <outerBoundaryIs>
            <LinearRing>
              <tessellate>1</tessellate>
              <coordinates>
                105.6509892,20.9322295,0
                105.6514224,20.9322245,0
                105.6514774,20.9327982,0
                105.6508899,20.9328117,0
                105.6509892,20.9322295,0
              </coordinates>
            </LinearRing>
          </outerBoundaryIs>
        </Polygon>
      </Placemark>
      <Placemark>
        <name>Đình Phú Vinh</name>
        <styleUrl>#poly-FF5252-3601-77-nodesc</styleUrl>
        <Polygon>
          <outerBoundaryIs>
            <LinearRing>
              <tessellate>1</tessellate>
              <coordinates>
                105.6511925,20.9337181,0
                105.6513856,20.9337043,0
                105.6513923,20.9337644,0
                105.6514044,20.933787,0
                105.6516056,20.9338797,0
                105.6516793,20.9339912,0
                105.6517035,20.9341177,0
                105.6517008,20.9342066,0
                105.6516418,20.9343431,0
                105.6515788,20.9344671,0
                105.6514929,20.9344684,0
                105.6513709,20.9344809,0
                105.6512877,20.9344697,0
                105.6511912,20.9344258,0
                105.6510866,20.9343569,0
                105.6510437,20.9342479,0
                105.6510893,20.9341427,0
                105.651163,20.9338734,0
                105.6511925,20.9337181,0
              </coordinates>
            </LinearRing>
          </outerBoundaryIs>
        </Polygon>
      </Placemark>
      <Placemark>
        <name>Đình Phú Vinh</name>
        <styleUrl>#icon-1899-E65100-nodesc</styleUrl>
        <Point>
          <coordinates>
            105.6513394,20.9341673,0
          </coordinates>
        </Point>
      </Placemark>
      <Placemark>
        <name>Chùa Hà Phú Vinh</name>
        <styleUrl>#poly-FF5252-3501-77-nodesc</styleUrl>
        <Polygon>
          <outerBoundaryIs>
            <LinearRing>
              <tessellate>1</tessellate>
              <coordinates>
                105.6478903,20.9335845,0
                105.647881,20.9335327,0
                105.6479856,20.9332421,0
                105.6480065,20.9332294,0
                105.648192,20.9332563,0
                105.6482148,20.93325,0
                105.6482269,20.9333214,0
                105.6482135,20.9334229,0
                105.6482551,20.9334392,0
                105.6482336,20.9335193,0
                105.6481464,20.9336684,0
                105.6480633,20.9336446,0
                105.6478903,20.9335845,0
              </coordinates>
            </LinearRing>
          </outerBoundaryIs>
        </Polygon>
      </Placemark>
      <Placemark>
        <name>Chùa Hạ Phú Vinh</name>
        <styleUrl>#icon-1899-E65100-nodesc</styleUrl>
        <Point>
          <coordinates>
            105.6480735,20.9334648,0
          </coordinates>
        </Point>
      </Placemark>
      <Placemark>
        <name>Chùa Cổ Ngỗng</name>
        <styleUrl>#icon-1899-E65100-nodesc</styleUrl>
        <Point>
          <coordinates>
            105.6494646,20.9306736,0
          </coordinates>
        </Point>
      </Placemark>
      <Placemark>
        <name>Chùa Cổ Ngỗng</name>
        <styleUrl>#poly-FF5252-2701-77-nodesc</styleUrl>
        <Polygon>
          <outerBoundaryIs>
            <LinearRing>
              <tessellate>1</tessellate>
              <coordinates>
                105.6494351,20.9307362,0
                105.6493761,20.9306285,0
                105.6495169,20.9305809,0
                105.6495585,20.9306798,0
                105.6494351,20.9307362,0
              </coordinates>
            </LinearRing>
          </outerBoundaryIs>
        </Polygon>
      </Placemark>
      <Placemark>
        <name>giếng cổ</name>
        <styleUrl>#icon-1502-0097A7-nodesc</styleUrl>
        <Point>
          <coordinates>
            105.6511985,20.9298394,0
          </coordinates>
        </Point>
      </Placemark>
      <Placemark>
        <name>Chùa Phú Hữu</name>
        <styleUrl>#poly-FF5252-4101-36-nodesc</styleUrl>
        <Polygon>
          <outerBoundaryIs>
            <LinearRing>
              <tessellate>1</tessellate>
              <coordinates>
                105.6530276,20.9326097,0
                105.6529927,20.9324493,0
                105.6530369,20.9324418,0
                105.6530249,20.9324143,0
                105.6534001,20.9323529,0
                105.6534497,20.9324907,0
                105.6531503,20.9325924,0
                105.6530276,20.9326097,0
              </coordinates>
            </LinearRing>
          </outerBoundaryIs>
        </Polygon>
      </Placemark>
      <Placemark>
        <name>Chùa Phú Hữu</name>
        <styleUrl>#icon-1899-E65100-nodesc</styleUrl>
        <Point>
          <coordinates>
            105.6532166,20.9324836,0
          </coordinates>
        </Point>
      </Placemark>
    </Folder>
    <Folder>
      <name>Công trình văn hóa</name>
      <Placemark>
        <name>Nhà văn hóa thôn</name>
        <styleUrl>#poly-CE93D8-2301-77-nodesc</styleUrl>
        <Polygon>
          <outerBoundaryIs>
            <LinearRing>
              <tessellate>1</tessellate>
              <coordinates>
                105.6505716,20.9308945,0
                105.6508358,20.9308745,0
                105.6508478,20.9310937,0
                105.650589,20.9311125,0
                105.6505716,20.9308945,0
              </coordinates>
            </LinearRing>
          </outerBoundaryIs>
        </Polygon>
      </Placemark>
      <Placemark>
        <name>Nhà văn hóa</name>
        <styleUrl>#icon-1899-0288D1-nodesc</styleUrl>
        <Point>
          <coordinates>
            105.6507218,20.9309664,0
          </coordinates>
        </Point>
      </Placemark>
      <Placemark>
        <name>Chợ</name>
        <styleUrl>#poly-CE93D8-1200-77-nodesc</styleUrl>
        <Polygon>
          <outerBoundaryIs>
            <LinearRing>
              <tessellate>1</tessellate>
              <coordinates>
                105.6515667,20.9326738,0
                105.6515144,20.9322253,0
                105.6516713,20.9322116,0
                105.6517196,20.9326625,0
                105.6515667,20.9326738,0
              </coordinates>
            </LinearRing>
          </outerBoundaryIs>
        </Polygon>
      </Placemark>
      <Placemark>
        <name>Chợ</name>
        <styleUrl>#icon-1899-0288D1-nodesc</styleUrl>
        <Point>
          <coordinates>
            105.6516215,20.9324797,0
          </coordinates>
        </Point>
      </Placemark>
    </Folder>
    <Folder>
      <name>Công trình có giá trị</name>
      <Placemark>
        <name>Nhà cổ Nguyễn Hữu Bật</name>
        <styleUrl>#icon-1899-0288D1-nodesc</styleUrl>
        <Point>
          <coordinates>
            105.6549132,20.9332313,0
          </coordinates>
        </Point>
      </Placemark>
      <Placemark>
        <name>Nhà cổ Nguyễn Hưu Kí</name>
        <styleUrl>#icon-1899-0288D1-nodesc</styleUrl>
        <Point>
          <coordinates>
            105.6551035,20.9332679,0
          </coordinates>
        </Point>
      </Placemark>
      <Placemark>
        <name>Nhà cổ Hoàng Hạnh</name>
        <styleUrl>#icon-1899-0288D1-nodesc</styleUrl>
        <Point>
          <coordinates>
            105.6496869,20.9329475,0
          </coordinates>
        </Point>
      </Placemark>
    </Folder>
    <Folder>
      <name>Cảnh quan</name>
      <Placemark>
        <name>cảnh quan 1</name>
        <styleUrl>#icon-1535-0F9D58-nodesc</styleUrl>
        <Point>
          <coordinates>
            105.6489871,20.929942,0
          </coordinates>
        </Point>
      </Placemark>
      <Placemark>
        <name>cảnh quan 2</name>
        <styleUrl>#icon-1535-0F9D58-nodesc</styleUrl>
        <Point>
          <coordinates>
            105.6485489,20.9303248,0
          </coordinates>
        </Point>
      </Placemark>
      <Placemark>
        <name>cảnh quan 3</name>
        <styleUrl>#icon-1535-0F9D58-nodesc</styleUrl>
        <Point>
          <coordinates>
            105.649623,20.9307207,0
          </coordinates>
        </Point>
      </Placemark>
      <Placemark>
        <name>cảnh quan 4</name>
        <styleUrl>#icon-1535-0F9D58-nodesc</styleUrl>
        <Point>
          <coordinates>
            105.6509407,20.9308444,0
          </coordinates>
        </Point>
      </Placemark>
      <Placemark>
        <name>cảnh quan 5</name>
        <styleUrl>#icon-1535-0F9D58-nodesc</styleUrl>
        <Point>
          <coordinates>
            105.6512007,20.9298074,0
          </coordinates>
        </Point>
      </Placemark>
      <Placemark>
        <name>cảnh quan 6</name>
        <styleUrl>#icon-1535-0F9D58-nodesc</styleUrl>
        <Point>
          <coordinates>
            105.6510761,20.932689,0
          </coordinates>
        </Point>
      </Placemark>
      <Placemark>
        <name>cảnh quan 7</name>
        <styleUrl>#icon-1535-0F9D58-nodesc</styleUrl>
        <Point>
          <coordinates>
            105.6516558,20.9326865,0
          </coordinates>
        </Point>
      </Placemark>
      <Placemark>
        <name>cảnh quan 8</name>
        <styleUrl>#icon-1535-0F9D58-nodesc</styleUrl>
        <Point>
          <coordinates>
            105.6494829,20.9318615,0
          </coordinates>
        </Point>
      </Placemark>
      <Placemark>
        <name>cảnh quan 9</name>
        <styleUrl>#icon-1535-0F9D58-nodesc</styleUrl>
        <Point>
          <coordinates>
            105.6496663,20.9325479,0
          </coordinates>
        </Point>
      </Placemark>
      <Placemark>
        <name>cảnh quan 10</name>
        <styleUrl>#icon-1535-0F9D58-nodesc</styleUrl>
        <Point>
          <coordinates>
            105.6497186,20.932846,0
          </coordinates>
        </Point>
      </Placemark>
      <Placemark>
        <name>cảnh quan 11</name>
        <styleUrl>#icon-1535-0F9D58-nodesc</styleUrl>
        <Point>
          <coordinates>
            105.6479274,20.9334158,0
          </coordinates>
        </Point>
      </Placemark>
      <Placemark>
        <name>cảnh quan 12</name>
        <styleUrl>#icon-1535-0F9D58-nodesc</styleUrl>
        <Point>
          <coordinates>
            105.6514169,20.9337381,0
          </coordinates>
        </Point>
      </Placemark>
    </Folder>
    <Folder>
      <name>Nhà làm nghề truyền thống</name>
      <Placemark>
        <name>Nhà nghệ nhân Nguyễn Văn Chung</name>
        <styleUrl>#icon-1499-0288D1-nodesc</styleUrl>
        <Point>
          <coordinates>
            105.6493601,20.9304894,0
          </coordinates>
        </Point>
      </Placemark>
      <Placemark>
        <name>Nhà nghệ nhân Nguyễn Văn Tĩnh</name>
        <styleUrl>#poly-FADA80-3301-77-nodesc</styleUrl>
        <Polygon>
          <outerBoundaryIs>
            <LinearRing>
              <tessellate>1</tessellate>
              <coordinates>
                105.6499555,20.9328023,0
                105.6499904,20.9326357,0
                105.6502573,20.9326745,0
                105.6502452,20.9328274,0
                105.6499475,20.9328274,0
                105.6499555,20.9328023,0
              </coordinates>
            </LinearRing>
          </outerBoundaryIs>
        </Polygon>
      </Placemark>
      <Placemark>
        <name>Nhà nghệ nhân Nguyễn Văn Chung</name>
        <styleUrl>#poly-FADA80-3801-77-nodesc</styleUrl>
        <Polygon>
          <outerBoundaryIs>
            <LinearRing>
              <tessellate>1</tessellate>
              <coordinates>
                105.6492651,20.9306139,0
                105.6491565,20.9303658,0
                105.6492933,20.9303107,0
                105.649304,20.9303445,0
                105.6493335,20.9303308,0
                105.6493483,20.9304247,0
                105.6493778,20.9304184,0
                105.6494301,20.9305663,0
                105.6492651,20.9306139,0
              </coordinates>
            </LinearRing>
          </outerBoundaryIs>
        </Polygon>
      </Placemark>
      <Placemark>
        <name>Nhà nghệ nhân Nguyễn Văn Tĩnh</name>
        <styleUrl>#icon-1499-0288D1-nodesc</styleUrl>
        <Point>
          <coordinates>
            105.6500948,20.9327399,0
          </coordinates>
        </Point>
      </Placemark>
    </Folder>
  </Document>
</kml>
